{"type":"Feature","geometry":{"type":"Polygon","coordinates":[[[66.8291821628265,33.280940457536076],[66.84422000464946,33.24913361312571],[66.87016157409732,33.24520620450272],[66.97222252774742,33.24939199554416],[66.98917239838744,33.245826321227696],[66.99506351087228,33.238539943863316],[67.00033450663216,33.22771373150351],[67.00250491696829,33.21293427209895],[67.00203982897489,33.20319326445758],[66.99971438990713,33.196527004717495],[66.99645877485256,33.19350393276028],[66.97940555232435,33.18619171787344],[66.9739278500902,33.182445177303066],[66.96989708778034,33.177949326999794],[66.96261071221454,33.16691640906498],[66.956874627562,33.16130951652093],[66.92194135930623,33.14012217889541],[66.91775556826485,33.136582343000725],[66.91558515792866,33.13301666958364],[66.91465498194185,33.12976105452901],[66.91294965959906,33.1180046661824],[66.91186445488069,33.11508494701269],[66.90876386855768,33.100925605232476],[66.91046919090041,33.072916978235924],[66.91000410290701,33.06508799941162],[66.90798872310108,33.05973948838664],[66.90628339985898,33.04837067276833],[66.90581831186557,33.032118435017765],[66.91031416216885,32.996280829196905],[66.91496504120363,32.97847829783518],[66.92178632967534,32.96276866334313],[66.93005455897071,32.95258840613002],[66.93904625777856,32.94530202876558],[66.95113854380872,32.94049612099917],[66.99955936117556,32.93116852540709],[67.01149661577614,32.92713776309728],[67.00731082473476,32.86814911578904],[67.00576053292224,32.86088857684632],[67.00250491696829,32.85052745247992],[66.99816409719529,32.84510142708916],[66.99149783655588,32.83466278745766],[66.98731204641376,32.830502834837944],[66.9819893738105,32.82784149808663],[66.9770284364132,32.82644623500573],[66.96927697105536,32.82220876712091],[66.9649361512823,32.820529283199846],[66.9582698906429,32.81983165120971],[66.95036339655348,32.82037425446828],[66.94199181536993,32.82197622312418],[66.93641076034828,32.82391408946364],[66.92566206235426,32.82957265885108],[66.9168253931773,32.832595729908974],[66.90504316640897,32.8315880404557],[66.88736982625642,32.81988332805315],[66.88070356561701,32.81678274173015],[66.8746574244006,32.8154133161716],[66.85011111803362,32.81649852088998],[66.81941531766273,32.81461233229328],[66.80541100461414,32.811615098757784],[66.79409386583922,32.80657664609532],[66.78742760609913,32.8010989447605],[66.72210859583498,32.76611400056066],[66.70505537330678,32.754590156210725],[66.68950076664703,32.74141266546212],[66.67353274883726,32.7229641789537],[66.67043216341358,32.71844249112803],[66.66872684107085,32.713894964880694],[66.66826175307739,32.70893402838266],[66.6707422217761,32.6974101831334],[66.6707422217761,32.691596585014395],[66.66407596203601,32.68384512055587],[66.65291385289197,32.67743724233486],[66.62929772341118,32.66792877869017],[66.61643029192442,32.66506073726322],[66.60743859221725,32.66485403078889],[66.6034078308067,32.66692108833752],[66.60139245010146,32.66867808752369],[66.60015221485281,32.67033173302303],[66.59875695177186,32.673664863342765],[66.59844689340935,32.677902330328266],[66.59999718612119,32.68454275254595],[66.62247643404015,32.74267873823317],[66.62480187400723,32.751515408309444],[66.62495690273886,32.756915595278485],[66.62371666928885,32.75993866633638],[66.62061608296585,32.76239329751263],[66.60495812441786,32.76373688375014],[66.56087812682404,32.75986115197054],[66.53075076723411,32.71169871702216],[66.51478274942434,32.69981313746632],[66.46558678570159,32.693689480085425],[66.41809614432157,32.67376821523095],[66.40972456223875,32.66710195639013],[66.39778730673879,32.64966116023436],[66.3850749039836,32.635062567983084],[66.33587894116016,32.58855377943337],[66.32719729981551,32.577469183755795],[66.32626712382864,32.571268012009114],[66.3267322118221,32.56426585548485],[66.32657718309048,32.555739243771086],[66.32518191911026,32.54576569303231],[66.31324466271099,32.52519847303108],[66.31060916528071,32.51943654995682],[66.31102257733005,32.515199082971264],[66.31370975070439,32.50941132327392],[66.3172754250208,32.50354604741216],[66.32657718309048,32.49166046785626],[66.30249596471697,32.478431301163596],[66.2972249689571,32.47411631891299],[66.28652794780652,32.47008555840176],[66.22074385044829,32.46132640179201],[66.20989179876744,32.458561713152505],[66.19867801278002,32.46093882906371],[66.19402713374518,32.46429779690578],[66.19170169467742,32.46791514716631],[66.18984134270374,32.47026642555505],[66.18627566928666,32.47024058713339],[66.18146976062093,32.4680701767972],[66.17604373612949,32.46163646105384],[66.17387332489398,32.456494656503196],[66.17356326743084,32.450448513488084],[66.17387332489398,32.44013906506581],[66.17356326743084,32.43727102273948],[66.17294314980649,32.43401540858423],[66.1706177098394,32.42931285270595],[66.16457156772361,32.42512706076525],[66.13196373943498,32.42032115299878],[66.07021040168866,32.42636729601389],[66.0543974144091,32.42504954729873],[66.04494062670852,32.42592804644215],[66.03594892790068,32.428718574402694],[66.02835249217372,32.43533315729934],[66.01791385344154,32.44781301515849],[66.01620853109881,32.45127533578807],[66.01388309113173,32.45853587473084],[66.01233279841989,32.4615847842104],[65.99931033730218,32.46574473683012],[65.95274987190902,32.469155382414954],[65.9002982931317,32.4746589221715],[65.88340010023438,32.47876719794783],[65.87580366360817,32.47969737393464],[65.85280765175168,32.47752696449777],[65.84769168472343,32.47760447796429],[65.8152905620098,32.48654450082802],[65.80655724472103,32.48801728007339],[65.79927086825592,32.488249824070124],[65.78872887583691,32.48592438410304],[65.77927208813634,32.48230703384252],[65.77462121000082,32.479774889199746],[65.7707454773219,32.47680349408597],[65.76733483263638,32.47326365819123],[65.75493248914302,32.45556448051633],[65.7511601092516,32.45130117420979],[65.7470259950536,32.447787176736824],[65.74232343917532,32.44517751682889],[65.73736250177802,32.44331716575459],[65.72108442560574,32.43990652106908],[65.71674360493341,32.43982900580397],[65.71379804914062,32.44016490348747],[65.71271284442219,32.44383392969206],[65.71193769716695,32.45060354311897],[65.71410810660382,32.4785346539511],[65.70821699411897,32.535637111763265],[65.71023237482422,32.548762926567804],[65.71348798987879,32.557444566113816],[65.71612348820838,32.56152700526707],[65.71674360493341,32.56473094347825],[65.71503828259063,32.56834829373872],[65.71209272679789,32.56904592482954],[65.70914717010578,32.56927846882627],[65.69255903467166,32.56418834111901],[65.6797949559724,32.56354238507299],[65.60610436362543,32.57522125905382],[65.59757775281099,32.574756171060415],[65.59122155143342,32.57354177513281],[65.58905114109723,32.572663275989385],[65.5861055853045,32.57080292401571],[65.57928429593346,32.56542857546839],[65.54388593878502,32.527575588942284],[65.53380903525874,32.513054511056794],[65.52900312659301,32.50142731391941],[65.5260575699009,32.48551097295302],[65.52244021964037,32.47372874618469],[65.51329349120164,32.45946605071765],[65.505697056374,32.45130117420979],[65.49841067900962,32.44577179603152],[65.49406985923656,32.44367890096049],[65.47996219340047,32.43920888907894],[65.46254723476704,32.43184499824804],[65.45960167807493,32.42962291106846],[65.45727623900717,32.42732331042242],[65.45588097502696,32.421199653041526],[65.45572594629533,32.411510322243544],[65.45805138536309,32.3898320582029],[65.46425255710977,32.3690581317274],[65.46394249874731,32.36487234068596],[65.45851647335655,32.36076406490963],[65.44890465692436,32.356216539561615],[65.44518395387632,32.35386526117287],[65.44347863063427,32.35223745409519],[65.44192833792243,32.35032542617745],[65.44022301557965,32.3463463398117],[65.4351070485514,32.32898305892104],[65.43185143439615,32.3235570344296],[65.42859581934158,32.31934540496644],[65.42627038027382,32.316890773790135],[65.42642540900539,32.31177480676189],[65.42704552573042,32.30769236940728],[65.44285851390924,32.281466580018616],[65.43712243015602,32.276867376927896],[65.42844078971063,32.27480032027853],[65.41433312387454,32.27405101234433],[65.40110395718187,32.27601471620619],[65.38653120335232,32.28058807997587],[65.3484973487736,32.29885569933106],[65.33314944858813,32.30335154873495],[65.27961266509237,32.301129462454696],[65.26814049668656,32.30236969680402],[65.25945885624117,32.30637461979285],[65.24504113114324,32.3216708440342],[65.23537763876698,32.3239446071579],[65.24752159984195,32.37962596346745],[65.25589318192476,32.40238943132715],[65.26519493999444,32.415231025291575],[65.26845055504907,32.42094126972381],[65.27046593575432,32.42667735437641],[65.27356652207732,32.44013906506581],[65.27480675642664,32.44982839586373],[65.27480675642664,32.46217906341303],[65.27186119973453,32.48403819370765],[65.26922570230431,32.49491608291089],[65.26597008724968,32.50305512099703],[65.26379967601423,32.50654328094765],[65.26286950092668,32.51072907198903],[65.26410973527601,32.515664170964726],[65.26907067177405,32.52338979700153],[65.28395348486538,32.53886688929549],[65.29201500768642,32.55054576327632],[65.29372033092852,32.55891734535919],[65.29217003821668,32.572456570414374],[65.28503868958381,32.59147349680444],[65.27356652207732,32.63650950790742],[65.26969079029772,32.64710317627055],[65.25837365062347,32.65100474737119],[65.25387780121952,32.65162486409616],[65.24984703980903,32.654001980007365],[65.24566124876759,32.658471991888916],[65.24142378088277,32.66617178040332],[65.23754804910317,32.669789129764524],[65.23103681809465,32.67102936501317],[65.21568891790918,32.66785126432438],[65.21134809813617,32.66798045553355],[65.20685224783296,32.66909149777439],[65.19708540176987,32.675034288001996],[65.18943729009885,32.6785224470533],[65.18215091273441,32.679245917465096],[65.17936038567325,32.68268240057233],[65.17781009296141,32.68531789800255],[65.1958451683198,32.718364976762246],[65.20809248218228,32.77182424589222],[65.20545698385268,32.778516344054026],[65.20297651605335,32.78740469007437],[65.19987592973035,32.79143545238418],[65.19817060738757,32.79549205221639],[65.19755048976327,32.80099559197299],[65.19863569538103,32.80897960132751],[65.20995283415596,32.84931305655232],[65.21103803887439,32.85817556415094],[65.21041792214936,32.8636015895417],[65.20933271743093,32.86822663015482],[65.20762739418888,32.87256744992783],[65.20499189585928,32.875616360306765],[65.20111616407968,32.878277696158705],[65.19289961072843,32.882385972834356],[65.18902387894883,32.88533152952647],[65.18592329262583,32.88874217421193],[65.18437299991399,32.89223033326323],[65.18437299991399,32.89618358030799],[65.1854065286883,32.9006019153461],[65.24483442556823,32.991035671858754],[65.25558312356225,33.00372223619223],[65.26736535033064,33.01162873028164],[65.28503868958381,33.0273125272513],[65.28875939263185,33.03568410933417],[65.28968956861866,33.04131684029994],[65.28999962788049,33.04630361611896],[65.28922448062525,33.04997264322287],[65.28627892393314,33.057956650778806],[65.28860436390022,33.063150133072156],[65.29418541892193,33.06904124645632],[65.31656131405339,33.08761892327465],[65.3244678081428,33.0924765078845],[65.32973880390267,33.09464691822069],[65.34818729041109,33.0924765078845],[65.37908979725631,33.08689545286285],[65.40854536327788,33.07048818638066],[65.41696862220414,33.06712921853858],[65.42270470595736,33.06725840884849],[65.42518517375674,33.07190928788333],[65.42704552573042,33.07808462210761],[65.43061120004683,33.084337469798356],[65.43650231343099,33.08883332010163],[65.44936974491776,33.09193390642463],[65.4609969420552,33.089530951192444],[65.47174564004922,33.08495758742271],[65.48538821789191,33.077206122064865],[65.49081424328267,33.076973578068134],[65.49298465361886,33.08035838523125],[65.49189944890043,33.088755804836524],[65.48197757410571,33.118624782907375],[65.47283084476766,33.139269518173705],[65.47143558078739,33.14417877872762],[65.47391605038541,33.148700466553294],[65.4824426611998,33.15019908332101],[65.56372968927371,33.14702098173291],[65.57458174005524,33.14528982186778],[65.58424523333082,33.1426801619599],[65.5935469914005,33.139062811699375],[65.65219974102519,33.10663585146335],[65.65933108875873,33.105524807423876],[65.66615237812971,33.10655833619825],[65.68723636296772,33.113612169565954],[65.69751997296834,33.115162462277794],[65.7085270533808,33.11583425494689],[65.71767378092022,33.11521413822186],[65.75147016761412,33.10885793684429],[65.75865319219105,33.10932302483769],[65.7646993352061,33.11164846390545],[65.76873009571733,33.115705063737664],[65.78066735211655,33.133275051102714],[65.7904341981797,33.14092316277373],[65.79942589698754,33.14278351474741],[65.80562706873422,33.14244761796317],[65.81498050274797,33.13534210955072],[65.85280765175168,33.102475897944316],[65.87859419066933,33.09035777439175],[66.00380618670613,33.06653493933595],[66.03393354719543,33.060230413902445],[66.04974653537425,33.061599840360316],[66.05455244314072,33.065062160989896],[66.05935835180645,33.07090159843],[66.06323408358605,33.078368842048405],[66.06431928920381,33.08519013141938],[66.06400922994197,33.092398993518714],[66.06261396686108,33.099607856517366],[66.06214887886762,33.10738515939755],[66.06338911321694,33.11722951892716],[66.07610151597214,33.16332489722623],[66.08281945165635,33.178595283045865],[66.09010582902079,33.18634674750439],[66.09692711839176,33.19172109605171],[66.12498742133238,33.204407660385186],[66.14426273014084,33.20936859778254],[66.17418338415581,33.2212800157601],[66.29520958825185,33.297502752749836],[66.31494998595304,33.306158556572086],[66.32750735907734,33.30959503788068],[66.33587894116016,33.31062856755432],[66.34037478966479,33.30964671472407],[66.3623889495903,33.299259751936006],[66.37112226777839,33.29621084245639],[66.38290449364746,33.296882636024804],[66.39809736510131,33.300189927922816],[66.44589806484379,33.31623546009837],[66.45985070194831,33.31936188394377],[66.46822228403113,33.319646103884565],[66.47442345577781,33.31900014873787],[66.47866092276337,33.317553208813536],[66.48207156834815,33.31512441695827],[66.49524905819743,33.29755443049254],[66.4980395852586,33.29215424172486],[66.49974490760138,33.286495673236686],[66.5005200539573,33.280940457536076],[66.50191531793752,33.276057034504504],[66.50625613771058,33.26871898029668],[66.51633304213618,33.2551797552415],[66.52842532726703,33.24280325016986],[66.55638227742014,33.236937975207354],[66.62743737233683,33.26941661228682],[66.6541540872413,33.277219754488044],[66.67492801281753,33.277994899944645],[66.69167117698322,33.280888779793315],[66.70252322776474,33.28659902602419],[66.71389204338305,33.295745755362304],[66.73404585223426,33.31548615216417],[66.74040205271251,33.318638414431234],[66.74396772702897,33.318638414431234],[66.74706831155328,33.314840196118155],[66.75078901639995,33.294970608107064],[66.75626671683546,33.27830495920648],[66.76009077267099,33.27419668253083],[66.76680871015384,33.27132864020456],[66.78339684378926,33.27034678827363],[66.79579918818195,33.27179372819796],[66.8291821628265,33.280940457536076]]]},"properties":{"adm1_code":"AFG-1752","name":"Uruzgan","name_alt":"Urozgan","name_en":"Urozgan","adm0_a3":"AFG"}}