{"type":"Feature","geometry":{"type":"MultiPolygon","coordinates":[[[[-56.66832434799994,-36.73642343499995],[-56.66486568899995,-36.85100676899992],[-56.668853318999936,-36.89421965899993],[-56.686431443999936,-36.927666924999926],[-56.790272589999915,-37.03834400799991],[-56.888661261999914,-37.162041924999926],[-57.01927649599992,-37.347588799999926],[-57.055897589999915,-37.41269296699994],[-57.16576087099992,-37.53557708099993],[-57.200835740999935,-37.56731536299992],[-57.309152798999946,-37.64544036299992],[-57.34874426999994,-37.69850025799991],[-57.360666469999956,-37.70761484199994],[-57.376942511999914,-37.7146135399999],[-57.457875128999945,-37.79501718499995],[-57.48741614499994,-37.83220794099992],[-57.51187089799993,-37.87232838299991],[-57.52887936099995,-37.91366952899995],[-57.53819739499994,-37.955336195999905],[-57.541859503999945,-37.99895598799992],[-57.54010982999995,-38.00514088299991],[-57.53148352799991,-38.016696872999944],[-57.52887936099995,-38.02353280999995],[-57.529408331999946,-38.02971770599993],[-57.534413214999915,-38.039320570999905],[-57.535715298999946,-38.043226820999905],[-57.53278561099995,-38.072523695999905],[-57.535715298999946,-38.084242445999905],[-57.55842037699995,-38.1208635399999],[-57.59357662699995,-38.15276458099993],[-57.686390753999945,-38.20476653399993],[-57.790272589999915,-38.252211195999905],[-57.861887173999946,-38.29412200299993],[-58.01870683499993,-38.36793385199991],[-58.052723761999914,-38.3728166649999],[-58.066070115999935,-38.37818775799991],[-58.11790930899991,-38.41326262799993],[-58.15566972599993,-38.43010833099993],[-58.275502081999946,-38.4685197899999],[-58.312611456999946,-38.48642343499995],[-58.330962693999936,-38.49277109199994],[-58.41950436099995,-38.504164320999905],[-58.49364173099991,-38.52434661299992],[-58.56700598899994,-38.558851820999905],[-58.72923743399991,-38.58847421699994],[-58.940297003999945,-38.64609140399995],[-58.99714107999995,-38.676039320999905],[-59.02830969999991,-38.68181731599992],[-59.06322180899991,-38.69378020599993],[-59.34780839749993,-38.738783461499935],[-59.63239498599995,-38.78378671699994],[-59.796864386999914,-38.83847421699994],[-59.819203253999945,-38.84075286299992],[-59.88931230399993,-38.83847421699994],[-60.34487870999993,-38.90667083099993],[-60.503570115999935,-38.927666924999926],[-60.659087693999936,-38.94304778399993],[-60.86571204299992,-38.975681247999944],[-60.97826087099992,-38.9743791649999],[-61.00304114499994,-38.969008070999905],[-61.016468878999945,-38.96819426899992],[-61.028553839999915,-38.96998463299991],[-61.037180141999954,-38.97405364399992],[-61.05064856699994,-38.98251718499995],[-61.14338131399995,-39.001071872999944],[-61.33775794199994,-38.98137786299992],[-61.42804928299995,-38.98251718499995],[-61.493072068999936,-38.99920012799993],[-61.50308183499993,-39.00603606599992],[-61.51805579299992,-39.0114885399999],[-61.67516028599994,-38.9939104149999],[-61.68858801999994,-38.98455169099992],[-61.70653235599991,-38.980401299999926],[-61.71670488199993,-38.970961195999905],[-61.72280839799993,-38.96819426899992],[-61.73110917899993,-38.96835702899995],[-61.73802649599992,-38.97087981599992],[-61.74400794199994,-38.97389088299991],[-61.74950110599991,-38.975681247999944],[-61.79051673099991,-38.98251718499995],[-61.83901933499993,-38.98088958099993],[-62.02672278599994,-38.93759530999995],[-62.06403561099995,-38.922946872999944],[-62.09316972599993,-38.90195077899995],[-62.113270636999914,-38.87265390399995],[-62.13003495999993,-38.836602471999925],[-62.14293372299994,-38.818291924999926],[-62.15733801999994,-38.810479424999926],[-62.31871497299994,-38.8005510399999],[-62.33543860599991,-38.79338958099993],[-62.35846920499995,-38.78728606599992],[-62.379750128999945,-38.79843515399995],[-62.39020748599995,-38.814711195999905],[-62.3801977199999,-38.824151299999926],[-62.38634192599994,-38.84514739399992],[-62.368072068999936,-38.882745049999926],[-62.373931443999936,-38.89999765399995],[-62.36017818899995,-38.8903947899999],[-62.34650631399995,-38.88990650799991],[-62.336008266999954,-38.89690520599993],[-62.33177649599992,-38.910088799999926],[-62.33446204299992,-38.94736093499995],[-62.33177649599992,-38.95452239399992],[-62.32046464799993,-38.9607072899999],[-62.30650794199994,-38.96013762799993],[-62.27403723899994,-38.95452239399992],[-62.27440344999991,-38.959649346999925],[-62.28107662699995,-38.97234465899993],[-62.28661048099991,-38.9880510399999],[-62.28392493399991,-39.002211195999905],[-62.30850175699993,-39.01262786299992],[-62.31851152299993,-39.02206796699994],[-62.33177649599992,-39.05754973799992],[-62.342355923999946,-39.07854583099993],[-62.348500128999945,-39.08757903399993],[-62.35594641799992,-39.09539153399993],[-62.35781816299993,-39.102227471999925],[-62.35204016799992,-39.10979583099993],[-62.34398352799991,-39.11793385199991],[-62.3391820949999,-39.12639739399992],[-62.34019934799994,-39.14462655999995],[-62.34508216099994,-39.160088799999926],[-62.34703528599994,-39.175713799999926],[-62.3391820949999,-39.19410572699991],[-62.32168535099993,-39.21054452899995],[-62.27696692599994,-39.23756275799991],[-62.25723222599993,-39.25554778399993],[-62.27257239499994,-39.25530364399992],[-62.28490149599992,-39.25253671699994],[-62.31126868399991,-39.24187590899993],[-62.32559160099993,-39.25465260199991],[-62.316395636999914,-39.26523202899995],[-62.29434160099993,-39.27271900799991],[-62.27033443899995,-39.27662525799991],[-62.19237219999991,-39.27874114399992],[-62.16787675699993,-39.28337981599992],[-62.08901933499993,-39.3142229149999],[-62.04662024599992,-39.33863697699991],[-62.02391516799992,-39.36484140399995],[-62.023101365999935,-39.37704843499995],[-62.02717037699995,-39.388929945999905],[-62.03465735599991,-39.39934661299992],[-62.04442298099991,-39.406914971999925],[-62.05699622299994,-39.41155364399992],[-62.06505286399994,-39.40943775799991],[-62.07135982999995,-39.40447356599992],[-62.07848059799994,-39.40007903399993],[-62.098540818999936,-39.39185963299991],[-62.15599524599992,-39.35214609199994],[-62.174672003999945,-39.33123137799993],[-62.17837480399993,-39.32586028399993],[-62.18382727799991,-39.315118096999925],[-62.188343878999945,-39.31072356599992],[-62.196156378999945,-39.30738697699991],[-62.20059160099993,-39.3083635399999],[-62.20409094999991,-39.310479424999926],[-62.20885169199994,-39.31072356599992],[-62.2278539699999,-39.30722421699994],[-62.28392493399991,-39.31072356599992],[-62.28172766799992,-39.31991952899995],[-62.278187628999945,-39.32968515399995],[-62.27253170499995,-39.33863697699991],[-62.26414954299992,-39.3454729149999],[-62.25348873599995,-39.34661223799992],[-62.23985755099994,-39.34514739399992],[-62.22813880099994,-39.346368096999925],[-62.22313391799992,-39.35556405999995],[-62.214833136999914,-39.37615325299993],[-62.195423956999946,-39.397149346999925],[-62.15420488199993,-39.42742278399993],[-62.13556881399995,-39.43572356599992],[-62.08641516799992,-39.44589609199994],[-62.061431443999936,-39.44736093499995],[-62.05577551999994,-39.45191822699991],[-62.05260169199994,-39.46168385199991],[-62.05060787699995,-39.47470468499995],[-62.05508378799993,-39.48552825299993],[-62.06688391799992,-39.494398695999905],[-62.072336391999954,-39.50318775799991],[-62.075062628999945,-39.57350025799991],[-62.08218339799993,-39.58456796699994],[-62.08665930899991,-39.595961195999905],[-62.11168372299994,-39.73251718499995],[-62.11436926999994,-39.82146575299993],[-62.11945553299995,-39.83831145599993],[-62.12535559799994,-39.8376604149999],[-62.16047115799995,-39.85442473799992],[-62.164173956999946,-39.85881926899992],[-62.2395727199999,-39.848728122999944],[-62.26162675699993,-39.838555596999925],[-62.30504309799994,-39.81113046699994],[-62.30874589799993,-39.82187265399995],[-62.30455481699994,-39.83220794099992],[-62.28392493399991,-39.852634372999944],[-62.308664516999954,-39.86150481599992],[-62.314564581999946,-39.869398695999905],[-62.31212317599994,-39.88241952899995],[-62.31126868399991,-39.907321872999944],[-62.31541907499991,-39.924493096999925],[-62.32884680899991,-39.96021900799991],[-62.335601365999935,-39.99431731599992],[-62.35505123599995,-40.03590260199991],[-62.36310787699995,-40.04436614399992],[-62.36632239499994,-40.05413176899992],[-62.3391820949999,-40.11272551899992],[-62.340402798999946,-40.13372161299992],[-62.35582434799994,-40.17538827899995],[-62.35968990799995,-40.19182708099993],[-62.36872311099995,-40.211195570999905],[-62.39012610599991,-40.221774997999944],[-62.41502844999991,-40.228448174999926],[-62.434803839999915,-40.236260674999926],[-62.45177161399994,-40.24960702899995],[-62.46979732999995,-40.2673479149999],[-62.48420162699995,-40.28753020599993],[-62.49006100199995,-40.30787525799991],[-62.48546301999994,-40.322198174999926],[-62.455922003999945,-40.365899346999925],[-62.440663214999915,-40.42498137799993],[-62.431630011999914,-40.434258721999925],[-62.43146725199995,-40.438571872999944],[-62.414906378999945,-40.46209075299993],[-62.40526282499991,-40.46795012799993],[-62.373931443999936,-40.47576262799993],[-62.34024003799993,-40.49334075299993],[-62.328684048999946,-40.49627044099992],[-62.325103318999936,-40.50164153399993],[-62.32603919199994,-40.52507903399993],[-62.32213294199994,-40.53045012799993],[-62.30809485599991,-40.53915780999995],[-62.296864386999914,-40.55527109199994],[-62.28368079299992,-40.564385674999926],[-62.26414954299992,-40.55152760199991],[-62.25047766799992,-40.596774997999944],[-62.25064042899993,-40.62224700299993],[-62.26720130099994,-40.633477471999925],[-62.315012173999946,-40.62664153399993],[-62.32013912699995,-40.62273528399993],[-62.33535722599993,-40.60466887799993],[-62.34601803299995,-40.59929778399993],[-62.346913214999915,-40.60857512799993],[-62.345366990999935,-40.61646900799991],[-62.34162350199995,-40.623304945999905],[-62.33543860599991,-40.63005950299993],[-62.32884680899991,-40.640557549999926],[-62.33055579299992,-40.648695570999905],[-62.33568274599992,-40.65349700299993],[-62.3391820949999,-40.65398528399993],[-62.329741990999935,-40.66912200299993],[-62.322377081999946,-40.672946872999944],[-62.244252081999946,-40.636976820999905],[-62.21353105399993,-40.628024997999944],[-62.18154863199993,-40.62664153399993],[-62.193348761999914,-40.63787200299993],[-62.22923743399991,-40.65862395599993],[-62.23680579299992,-40.67131926899992],[-62.23888098899994,-40.68629322699991],[-62.24779212099992,-40.71648528399993],[-62.24982662699995,-40.733086846999925],[-62.25426184799994,-40.746351820999905],[-62.28392493399991,-40.791680596999925],[-62.31126868399991,-40.84579843499995],[-62.33779863199993,-40.87273528399993],[-62.486439581999946,-40.93254973799992],[-62.6067602199999,-40.98984140399995],[-62.67446855399993,-41.01100025799991],[-62.69176184799994,-41.02044036299992],[-62.71007239499994,-41.03378671699994],[-62.729400193999936,-41.04111093499995],[-62.75133216099994,-41.04420338299991],[-62.777414516999954,-41.04501718499995],[-62.80162512919634,-41.04168059718182],[-62.80172745675674,-41.04088410991375],[-62.80951982328122,-41.016049086096416],[-62.84799292743162,-40.95357227973693],[-62.8614546372217,-40.9383794091824],[-62.9216318429352,-40.89145720768397],[-62.97142208496126,-40.86174325924401],[-62.98170569496182,-40.85316497158618],[-63.024493781362935,-40.80918832767918],[-63.10301611989803,-40.753946221840636],[-63.11779558020186,-40.74614307963941],[-63.18239112005415,-40.72903818116714],[-63.38741736491943,-40.709091077890946],[-63.38764990891616,-40.67234913450494],[-63.38744320334115,-40.41407032698402],[-63.38728817371026,-39.87100269991464],[-63.38858008490297,-39.32576466160987],[-63.387133144978634,-38.82548512094155],[-63.387133144978634,-38.27234058944663],[-63.38783077696877,-37.77939910298619],[-63.387727424181264,-37.735784194285145],[-63.38798580570034,-37.28547576279624],[-63.38858008490297,-36.852375583466426],[-63.38858008490297,-36.627066338540715],[-63.38858008490297,-36.40191212324589],[-63.3888126288997,-35.98457325615084],[-63.38858008490297,-35.949795016626695],[-63.3860479402602,-35.4990214980437],[-63.38550533700169,-35.27350554754298],[-63.384058397077354,-35.00210092521752],[-63.38188798674116,-34.57964609109422],[-63.37359391992345,-34.41360971341754],[-63.33961666517695,-34.380485121191384],[-62.85380652465136,-34.38213876669073],[-62.288259649663075,-34.38074350360978],[-61.762710334014685,-34.37738453486838],[-61.71051713675644,-34.37681609498679],[-61.380795660691206,-34.070529881249],[-61.142153897184585,-33.84826954490359],[-60.96306922086785,-33.677220553885434],[-60.92798092298119,-33.633708997971894],[-60.93715348984165,-33.602909844813496],[-60.92720577662527,-33.578931980126754],[-60.91924760569242,-33.57102548603734],[-60.9104626133589,-33.563739108672905],[-60.903796352719496,-33.56022511209926],[-60.897827724969545,-33.55789967213218],[-60.87361731628613,-33.552008558748014],[-60.85971635602499,-33.55045826603617],[-60.840802782422486,-33.55040658919273],[-60.82470557340349,-33.55304208752233],[-60.81850440075749,-33.555264173802584],[-60.78638749888398,-33.57133554529918],[-60.77377844891629,-33.57350595473605],[-60.67763444707208,-33.575676365072184],[-60.67151078969118,-33.57691659852219],[-60.66554216194123,-33.57888030418269],[-60.62657813227497,-33.602858167970055],[-60.5981819316508,-33.62750782622521],[-60.59190324643765,-33.63133188206069],[-60.582937385152206,-33.63520761473961],[-60.56676266086811,-33.64032358176786],[-60.54270728181558,-33.64285572730995],[-60.52785030804529,-33.64022022898041],[-60.522165900236075,-33.638514906637624],[-60.49991919631384,-33.63401905723373],[-60.47565711078704,-33.622185153621956],[-60.46682044071076,-33.61200489730817],[-60.43056942373988,-33.54792612049408],[-60.42622860396688,-33.536970716925055],[-60.41994991695509,-33.5123210586699],[-60.41356787805512,-33.46612232758338],[-60.41013139494788,-33.45955942153006],[-60.40615231038083,-33.45459848413276],[-60.36457861990738,-33.42736500349213],[-60.35302893713572,-33.41718474717834],[-60.34780961821929,-33.41005339854553],[-60.34532914862132,-33.40354216843633],[-60.34594926624561,-33.398167819888954],[-60.34858476367589,-33.38767750431339],[-60.34925655814362,-33.38194141966079],[-60.34868811736271,-33.374293307989774],[-60.34708614780749,-33.36535328512599],[-60.343132900762726,-33.35217579527671],[-60.34052324085485,-33.34643971062417],[-60.336802537806875,-33.34199553806366],[-60.33238420276871,-33.33956674620839],[-60.32675147180299,-33.337654718290594],[-60.3141424218353,-33.33522592463669],[-60.30626176616755,-33.33274545683736],[-60.29794186092812,-33.32850798895254],[-60.28605628137228,-33.318637791001265],[-60.28057857913808,-33.31212655999275],[-60.27752966965852,-33.30644215308291],[-60.274532437022344,-33.29104257605405],[-60.275307583378265,-33.281224054046845],[-60.27559180421838,-33.277606702887056],[-60.2940919657716,-33.256574394892425],[-60.24613623729749,-33.27843352608636],[-60.118082038255466,-33.393568616798234],[-59.94773067922745,-33.4950094537233],[-59.93047075112423,-33.499815361489766],[-59.90791398794016,-33.5035877422805],[-59.86008744977596,-33.52399993265078],[-59.84388688796952,-33.53392180744544],[-59.82474077037023,-33.54978647156838],[-59.78647437179484,-33.598827406559565],[-59.77239254438041,-33.61050627964107],[-59.64061764229035,-33.67101938213875],[-59.60276465486493,-33.677788994666344],[-59.57700395436899,-33.67112273492626],[-59.52070248133441,-33.655309746747434],[-59.480162319635326,-33.68006275779004],[-59.44197343632504,-33.717373141956955],[-59.392648281393065,-33.73938730188246],[-59.30637447839945,-33.73938730188246],[-59.30317053928894,-33.737371922076534],[-59.29622005870874,-33.72838022147005],[-59.29273189965744,-33.7263648407648],[-59.27802995461872,-33.72403940169704],[-59.268934903023364,-33.721248874635876],[-59.26232031922734,-33.72424610817137],[-59.254853074709615,-33.73938730188246],[-59.252346767589245,-33.75266814451925],[-59.25265682595176,-33.77695606846777],[-59.24865190296293,-33.787188001625],[-59.24482784712745,-33.78785979609273],[-59.239065924952456,-33.793492527058504],[-59.231314459594614,-33.7979883764624],[-59.22134090795652,-33.8014506979913],[-59.21793026417032,-33.80031381553016],[-59.2129693258737,-33.79705820047559],[-59.20702653744473,-33.79431935025781],[-59.20085120322045,-33.794629408620324],[-59.195709397770486,-33.7979883764624],[-59.18633012623434,-33.806566664120226],[-59.18348792232973,-33.80827198646301],[-59.18015479201006,-33.8114759246742],[-59.176847500112046,-33.818555596463625],[-59.17165401871796,-33.82558359051029],[-59.16268815833183,-33.8287875296208],[-59.05856014713305,-33.82692717854644],[-59.0318175929076,-33.82956267687604],[-59.01156043216821,-33.83901946367729],[-58.995230679152485,-33.85075001360224],[-58.92185014516804,-33.88764698661913],[-58.867848272779554,-33.92805795710905],[-58.849348111226334,-33.93730803743597],[-58.80025550029109,-33.94655811866227],[-58.78191036567085,-33.95229420241549],[-58.67979773607664,-34.03120411547752],[-58.63850826734267,-34.04851571952486],[-58.590965949119266,-34.04898080751826],[-58.49960201661975,-34.01668303759209],[-58.44697068674776,-34.00694015666289],[-58.44717363199993,-34.01051197699991],[-58.43626868399991,-34.01441822699991],[-58.426991339999915,-34.01620859199994],[-58.40269934799994,-34.02597421699994],[-58.395375128999945,-34.031182549999926],[-58.38780676999994,-34.04648202899995],[-58.384429490999935,-34.066338799999926],[-58.38536536399994,-34.110039971999925],[-58.39134680899991,-34.14202239399992],[-58.392241990999935,-34.1540666649999],[-58.39012610599991,-34.15960051899992],[-58.38072669199994,-34.17717864399992],[-58.378570115999935,-34.18824635199991],[-58.412098761999914,-34.218682549999926],[-58.41633053299995,-34.22600676899992],[-58.42149817599994,-34.23992278399993],[-58.425770636999914,-34.24667734199994],[-58.441070115999935,-34.26116301899992],[-58.460194464999915,-34.27288176899992],[-58.480132615999935,-34.27743905999995],[-58.49836178299995,-34.27076588299991],[-58.506418423999946,-34.26897551899992],[-58.543080206999946,-34.26767343499995],[-58.54930579299992,-34.27263762799993],[-58.552845831999946,-34.27947356599992],[-58.55833899599992,-34.285414320999905],[-58.570423956999946,-34.288181247999944],[-58.512277798999946,-34.31568775799991],[-58.49461829299992,-34.32854583099993],[-58.46661549299995,-34.34798734699996],[-58.45460711399994,-34.366182764999905],[-58.473208049999926,-34.39815096399991],[-58.48550549899994,-34.40707233999996],[-58.49664106899991,-34.418004003999954],[-58.511465270999906,-34.43594476299995],[-58.510397017999935,-34.44900594599994],[-58.50322450099992,-34.463126926999905],[-58.47728430899991,-34.48333098799992],[-58.47370357999995,-34.49179452899995],[-58.47496497299994,-34.511976820999905],[-58.47419186106555,-34.521579685054405],[-58.53848022488245,-34.567009778178715],[-58.56053217432037,-34.653642438547706],[-58.54163050324513,-34.710347452672806],[-58.443971868606866,-34.774928162704555],[-58.40616852555701,-34.71507287021677],[-58.3793911576758,-34.69459605996019],[-58.3431629547066,-34.689870642416224],[-58.3226861435507,-34.670968970441606],[-58.31503093443007,-34.657194617637515],[-58.236149621999914,-34.70080211599992],[-58.19012038799991,-34.73516444099994],[-58.15487164299992,-34.75040033899995],[-58.11829099199991,-34.75359930999991],[-58.0939244729999,-34.75773476499995],[-58.06354218999991,-34.77292764799995],[-58.0306400849999,-34.77909784499991],[-58.00018978599991,-34.78725815899992],[-57.965031436999936,-34.8245302869999],[-57.93822105699991,-34.83367068199993],[-57.88201939999993,-34.828867749999915],[-57.87103209399993,-34.829914576999954],[-57.85156801399995,-34.8480547499999],[-57.806436367999936,-34.872324817999925],[-57.758842977999905,-34.90966217999994],[-57.68681812799991,-34.93386829499991],[-57.60357479599992,-34.987702070999944],[-57.52203233999995,-35.01315372599993],[-57.48748290099991,-35.04438651299995],[-57.446698158999936,-35.07053410699996],[-57.349579855999934,-35.14987995899992],[-57.31393097299991,-35.189093560999936],[-57.27026988999995,-35.229714498999954],[-57.24876868399991,-35.24879322699991],[-57.20157722399995,-35.31015434799991],[-57.16223424599991,-35.37174067099994],[-57.13358301199992,-35.416656951999926],[-57.12814350499991,-35.441320754999936],[-57.14490852699993,-35.48420028899994],[-57.18044544299994,-35.52205817999993],[-57.22378495999993,-35.56926848799992],[-57.32359778599994,-35.696384372999944],[-57.35262539099995,-35.72752363299992],[-57.36563066299993,-35.76376718499995],[-57.3713785029999,-35.78998722099993],[-57.38122800799994,-35.83141565999995],[-57.39329993399991,-35.86296965899993],[-57.383480264999946,-35.89955562599994],[-57.37356475699994,-35.93947829599995],[-57.37246660099993,-35.96835702899995],[-57.37059485599991,-35.97698333099993],[-57.366444464999915,-35.98788827899995],[-57.34801184799994,-36.001071872999944],[-57.343861456999946,-36.01116301899992],[-57.34203040299991,-36.013929945999905],[-57.31598873599995,-36.06951262799993],[-57.31265214799993,-36.09075286299992],[-57.30882727799991,-36.099867445999905],[-57.291127081999946,-36.1071916649999],[-57.27188066299993,-36.12363046699994],[-57.26817786399994,-36.12786223799992],[-57.26231848899994,-36.1501604149999],[-57.248036261999914,-36.17034270599993],[-57.108265753999945,-36.282321872999944],[-57.005523240999935,-36.33367278399993],[-56.96031653599994,-36.34124114399992],[-56.93773352799991,-36.35076262799993],[-56.92870032499991,-36.36370208099993],[-56.94603430899991,-36.378024997999944],[-56.93919837099992,-36.38486093499995],[-56.920765753999945,-36.37004973799992],[-56.90021725199995,-36.35898202899995],[-56.856678839999915,-36.34392669099992],[-56.833973761999914,-36.34075286299992],[-56.76789303299995,-36.34392669099992],[-56.77867591099994,-36.32146575299993],[-56.77603105399993,-36.3064104149999],[-56.76244055899991,-36.30331796699994],[-56.74058997299994,-36.31658294099992],[-56.73485266799992,-36.32887135199991],[-56.72240149599992,-36.36931731599992],[-56.71637936099995,-36.378024997999944],[-56.69762122299994,-36.39617278399993],[-56.69957434799994,-36.521416924999926],[-56.675770636999914,-36.57634856599992],[-56.67227128799993,-36.60051848799992],[-56.66832434799994,-36.73642343499995]]],[[[-61.90721594999991,-39.136651299999926],[-61.90339107999995,-39.13209400799991],[-61.89476477799991,-39.13982512799993],[-61.88048255099994,-39.16057708099993],[-61.86172441299993,-39.20989348799992],[-61.859364386999914,-39.22519296699994],[-61.86827551999994,-39.23943450299993],[-61.88849850199995,-39.24065520599993],[-61.91047115799995,-39.23406340899993],[-61.92454993399991,-39.22519296699994],[-61.94098873599995,-39.211602471999925],[-62.004017706999946,-39.19410572699991],[-62.02684485599991,-39.18287525799991],[-62.04450436099995,-39.16952890399995],[-62.086048956999946,-39.122979424999926],[-62.09703528599994,-39.10361093499995],[-62.09801184799994,-39.087823174999926],[-62.07848059799994,-39.08554452899995],[-62.04137122299994,-39.09970468499995],[-61.94180253799993,-39.11777109199994],[-61.92145748599995,-39.14348723799992],[-61.9192602199999,-39.15252044099992],[-61.91429602799991,-39.15309010199991],[-61.909413214999915,-39.14723072699991],[-61.90721594999991,-39.136651299999926]]],[[[-62.085926886999914,-39.023370049999926],[-62.100453253999945,-39.035088799999926],[-62.119984503999945,-39.03289153399993],[-62.13076738199993,-39.020603122999944],[-62.11945553299995,-39.002211195999905],[-62.04019120999993,-39.00546640399995],[-62.00267493399991,-39.014743747999944],[-61.972320115999935,-39.03394947699991],[-61.96727454299992,-39.04697030999995],[-61.975453253999945,-39.057712497999944],[-61.99160722599993,-39.06406015399995],[-62.01024329299992,-39.064385674999926],[-62.03001868399991,-39.05754973799992],[-62.085926886999914,-39.023370049999926]]],[[[-62.155299648999915,-40.37420507899992],[-62.12905022399991,-40.37721777099995],[-62.093997489999936,-40.377419249999946],[-62.06672256699994,-40.39945790399992],[-62.049492174999955,-40.42715596699992],[-62.028517293999926,-40.454881721999925],[-62.037592607999954,-40.48436498299992],[-62.06671067199994,-40.51185059099993],[-62.085877317999916,-40.543206665999946],[-62.10870882599994,-40.56406373999994],[-62.13633348099995,-40.564870140999915],[-62.16133983599991,-40.55710138499995],[-62.15466516399994,-40.526625398999954],[-62.1657295089999,-40.50940096799991],[-62.193546356999946,-40.522603656999934],[-62.22117676599993,-40.52244483299995],[-62.237325909999925,-40.50994910499992],[-62.21949423299992,-40.491944230999934],[-62.19902582499992,-40.46347311099993],[-62.1934830699999,-40.42348984499995],[-62.17283599099994,-40.375047613999925],[-62.155299648999915,-40.37420507899992]]],[[[-62.11896195299994,-40.130719995999925],[-62.10025187999992,-40.12989329399994],[-62.07038591299994,-40.136760540999944],[-62.04058042899993,-40.14645570999994],[-62.014659846999905,-40.175163236999936],[-62.01876413899993,-40.217968765999956],[-62.02049868799992,-40.273146821999944],[-62.014774650999925,-40.32836128899993],[-62.02116455999993,-40.343552548999924],[-62.03095334499994,-40.322566740999946],[-62.04193979099995,-40.29681641499991],[-62.065428563999944,-40.27289570699992],[-62.11110504299995,-40.219319422999945],[-62.13317951999994,-40.18109401999993],[-62.11896195299994,-40.130719995999925]]]]},"properties":{"adm1_code":"ARG-1295","name":"Buenos Aires","name_alt":"","name_en":"Buenos Aires","adm0_a3":"ARG"}}