{"type":"Feature","geometry":{"type":"Polygon","coordinates":[[[46.20646081500007,39.58792063500009],[46.18423995000012,39.59324330700004],[46.16956384200006,39.604095358000066],[46.146102743000085,39.63846018500003],[46.13168501800004,39.65215443900003],[46.11447676600005,39.65964752200007],[46.07654626400006,39.66812245700008],[46.04512699400004,39.68755279600005],[46.006576375000066,39.74791086800006],[45.97923954300012,39.76847808800004],[45.916142619000084,39.78315419500002],[45.883187643894644,39.79614787152701],[45.88327721457176,39.796201686958284],[45.90224246591703,39.807596340098996],[45.94099979000828,39.82919708887454],[45.97753502781927,39.85446686475399],[45.99634524863427,39.88769481156629],[46.01618899912296,39.91198273371617],[46.04202721488406,39.89575633438727],[46.06703860924438,39.87433645276508],[46.101300083032356,39.87743703908808],[46.136233351288126,39.88570526838339],[46.208838738916654,39.89376679120443],[46.278808628215586,39.91231863139967],[46.32201012576667,39.92673635469896],[46.36665856324208,39.93198151293643],[46.408878207962914,39.94397044527983],[46.45099450079556,39.95812978795931],[46.43714521737786,39.928209133045016],[46.44505171056795,39.902396755705695],[46.46799604737964,39.890821235411636],[46.48861494332493,39.87568003990191],[46.52323815321819,39.82033458127586],[46.540343051690456,39.757676906863765],[46.550678337635134,39.72651601849941],[46.55440789720666,39.70689529448225],[46.55662112786274,39.69525177734761],[46.5512459717242,39.68694471802428],[46.540136346115446,39.669775295893146],[46.52659712106026,39.64230927215516],[46.53057620562737,39.615618394773094],[46.55274539608314,39.609055487820456],[46.572124057679105,39.60182078729946],[46.58938398578232,39.589986883687686],[46.630880160990614,39.59378510200082],[46.63807242610159,39.603106182004694],[46.66160655090158,39.6336060920475],[46.66178266783584,39.63383433728484],[46.68896447073371,39.641043199384114],[46.716456332893415,39.63884695152558],[46.73056399872951,39.61711701154081],[46.73398136944462,39.598007634844464],[46.73562828981369,39.5887983261818],[46.69066979307644,39.58311391927191],[46.67396924058795,39.56837147416417],[46.66400475411609,39.559575304156965],[46.68126468311863,39.54497671190569],[46.683822027664405,39.5341353171911],[46.68663856761577,39.52219511011623],[46.68731082523436,39.51934520082034],[46.66839725073248,39.49815786409414],[46.64069868299782,39.483455919055416],[46.60126956623748,39.46208771427655],[46.5623055356719,39.438652451949054],[46.51693362778468,39.44286408141221],[46.478951960864265,39.461829424488315],[46.47931237800009,39.46188181600003],[46.49140466300008,39.46642934200007],[46.49822595200004,39.47376739500008],[46.498587687000054,39.48312083000012],[46.4917147220001,39.493662821000086],[46.492024780000065,39.510199280000066],[46.50370365400005,39.51846750900002],[46.51827640800008,39.52544382700002],[46.527268107000054,39.53815623000007],[46.52427087400014,39.55464101200003],[46.5120235600001,39.56756012000007],[46.495435425000096,39.575931702000034],[46.47931237800009,39.578670553000066],[46.416163778000055,39.57401967400001],[46.39642338100009,39.57665517200003],[46.38143721500012,39.58502675400008],[46.35787276200011,39.6096764120001],[46.34371342000014,39.61861643500002],[46.30950362200008,39.62052846300004],[46.24118737800012,39.59350168900001],[46.20646081500007,39.58792063500009]]]},"properties":{"adm1_code":"AZE-1735","name":"Lankaran","name_alt":"Shusha","name_en":"Lankaran","adm0_a3":"AZE"}}