{"type":"Feature","geometry":{"type":"Polygon","coordinates":[[[27.106180453964782,55.002069403779956],[27.115482212034465,55.00175934541744],[27.18746748203864,54.98982208901816],[27.242089471152156,54.997573554376004],[27.249685906879108,54.996798408020084],[27.258677605686955,54.99405955690298],[27.272165154798017,54.986643989228696],[27.278262973757194,54.98186391898463],[27.281208530449305,54.97747142236824],[27.280226677619055,54.97400910083928],[27.277952915394735,54.97075348578471],[27.251701287584353,54.94832591380987],[27.249685906879108,54.9454320339612],[27.249995965241567,54.94258983005659],[27.253561638658653,54.93969595020792],[27.279606560894024,54.92755198823363],[27.287564731826876,54.92217763878699],[27.305858188704406,54.9053311218338],[27.310819126101762,54.89944000934895],[27.312679478075438,54.89618439429432],[27.31422977078728,54.8926703968213],[27.3150049171432,54.88892385535161],[27.315625033868173,54.881043198784596],[27.31640018112347,54.87721914294906],[27.319345736916205,54.87396352789449],[27.324926791937855,54.87166392724839],[27.34513227673318,54.87088877999315],[27.399134149121664,54.8741443959471],[27.406730583949297,54.873291734326074],[27.41448204930714,54.87135386798661],[27.423783807376765,54.86590200507345],[27.432930535815558,54.858615627709014],[27.43897667793135,54.851897691125544],[27.441767205891836,54.849778958532056],[27.519540235593354,54.81184845584153],[27.523105909909816,54.80890290004879],[27.524656202621657,54.80559560815078],[27.524811232252546,54.80187490510275],[27.52357099790322,54.79802501084555],[27.518455030874975,54.78611359286799],[27.51736982615654,54.781927801826555],[27.51985029485519,54.77800039320357],[27.526981641689417,54.775184027720684],[27.623823276423025,54.765985623337826],[27.675499708844484,54.74655528399916],[27.686351759626007,54.74058665624915],[27.691932813748338,54.73557404200841],[27.691622756285142,54.7316207949637],[27.690382521036497,54.72756419513149],[27.6869718772503,54.71960602509796],[27.68232099821546,54.71252635420785],[27.677050001556324,54.70611847598684],[27.678600295167485,54.701570949739505],[27.68371626219573,54.695809028463884],[27.698599074387744,54.686378079184976],[27.702474806167345,54.680719508898164],[27.70340498215421,54.676301174759374],[27.706970655571297,54.67090098689101],[27.715342237654113,54.66547496239957],[27.739888543121765,54.65348603005623],[27.74670983159342,54.647414049518716],[27.749655389184852,54.64271149453981],[27.75632164892494,54.638732408174064],[27.813114048374587,54.62886221022279],[27.830632358896253,54.62826793102016],[27.84215620324619,54.62927562137281],[27.846031935025735,54.63170441322808],[27.86355024644672,54.64488190397668],[27.868201124582242,54.64643219668852],[27.87409223796641,54.646664741584516],[27.88029340971309,54.645889594329276],[27.892902458781407,54.64312490479051],[27.89801842580971,54.64059276014774],[27.90111901213271,54.63599355705696],[27.90189415938795,54.63157522201885],[27.90204918811952,54.62302277278269],[27.90266930484455,54.619121202581425],[27.904839715180685,54.6158914250492],[27.908715447859606,54.6136176619255],[27.924528436038486,54.61470286754326],[28.033772414265513,54.63377147077671],[28.040128614743765,54.63343557399253],[28.086223993042836,54.62617503504981],[28.095215691850683,54.627001858249116],[28.102036981221715,54.62865550374846],[28.10591271300126,54.63108429650305],[28.128443637763667,54.64056692172602],[28.150147739326712,54.64545034385827],[28.199498731781034,54.65085053172663],[28.227248976359135,54.64961029737731],[28.234276971305178,54.64774994630295],[28.2412532903071,54.64446849192734],[28.255050896881357,54.635683498694505],[28.260631951903065,54.63020579735962],[28.264662713313555,54.625477403059676],[28.26652306528723,54.62224762642677],[28.273964471383238,54.61341095635055],[28.280475702391755,54.60819163743412],[28.28791710758844,54.60343740471245],[28.322230259119124,54.591732693209224],[28.333857456256567,54.584394639900665],[28.33990359927168,54.57951121686915],[28.342280715182824,54.57537710177178],[28.343624302319654,54.57194062046324],[28.34786176930521,54.565739447817236],[28.355148145770272,54.56178620077253],[28.393595412398327,54.55000397400414],[28.41178551558903,54.54940969480157],[28.421087273658713,54.55108917872258],[28.424963006337634,54.55465485303898],[28.456175570646053,54.605401109473576],[28.45782921704472,54.60938019494],[28.462376743292054,54.616614895461055],[28.46501224072233,54.61992218735901],[28.475244174778823,54.638706569752344],[28.47787967310842,54.64209137601614],[28.481290317793935,54.64483022713324],[28.486096225560345,54.64653555037535],[28.565522901660586,54.660901597730515],[28.5711556326263,54.6609791120963],[28.576581658916382,54.66002309768777],[28.58138756668285,54.65516551397724],[28.584178093744015,54.65123810535425],[28.58619347534858,54.64731069583195],[28.588828972778856,54.640256863363504],[28.590999383115047,54.637233792305665],[28.594720086163022,54.63532176438787],[28.601696405164944,54.6359418811129],[28.60681237219319,54.637621365033965],[28.61146325032871,54.640075995310895],[28.632443882379278,54.65604401312066],[28.636629673420657,54.65795604103846],[28.642365757173934,54.657284247470045],[28.650272251263345,54.65333100042528],[28.662364536394193,54.64172964081024],[28.6648450050929,54.635631821851064],[28.664534945831065,54.63067088535303],[28.650117221632456,54.61490957311827],[28.64810184092721,54.61139557654457],[28.647171664940345,54.60731313739137],[28.64732669367197,54.60354075839928],[28.64810184092721,54.59976837850786],[28.65290774869362,54.58969147408226],[28.657558627728463,54.586125799765796],[28.664689976361274,54.582456773561205],[28.724427930704394,54.56977020922773],[28.730319044987937,54.56953766523105],[28.73595177595365,54.57031281248629],[28.74075768372012,54.57194062046324],[28.744943474761556,54.57403351553427],[28.756105583905537,54.58142324478689],[28.76137658056473,54.58276683192372],[28.767887810673926,54.58312856712962],[28.81150272027429,54.579769599287545],[28.818479038376893,54.578632716826405],[28.82421512213017,54.576513984232975],[28.82654056209725,54.5716305612014],[28.827780796446575,54.5673155789508],[28.827625766815686,54.56276805270346],[28.828555942802495,54.558943996867924],[28.831811557857066,54.55594676423175],[28.841113315926748,54.555068264189],[28.855272657706962,54.55615346890744],[28.86658979738121,54.558168850512004],[28.87108564588584,54.560106716851465],[28.874496290571358,54.56276805270346],[28.88317793101669,54.57222484040403],[28.885193311721935,54.57542877951454],[28.886123487708744,54.57868439456911],[28.8841081070035,54.58142324478689],[28.86720991410624,54.59418732438547],[28.86503950377005,54.59697785144664],[28.864419387045075,54.600233466501265],[28.867830030831215,54.60726146144725],[28.87201582187265,54.618526923378795],[28.874651320202247,54.621420803227466],[28.878992139975253,54.62322947925702],[28.88457319499696,54.623746243194546],[29.014177686750827,54.60979360609002],[29.04161787296647,54.60992279729925],[29.059911329844,54.61268748593869],[29.064252149617005,54.614082749918964],[29.068644647132714,54.61604645378077],[29.072365350180746,54.61857860022218],[29.0869381040103,54.634339912456994],[29.09034874779644,54.63687205709971],[29.094379510106307,54.63919749616747],[29.11406823096405,54.645502020701656],[29.135979038102107,54.65020457657994],[29.140939976398784,54.65030792936744],[29.144195590554034,54.64961029737731],[29.141870150586954,54.64689728558125],[29.133808627765916,54.642401435277975],[29.13065636639817,54.63961090821681],[29.129932895986315,54.63651032189381],[29.131328159067266,54.63312551473069],[29.137064242820543,54.63056753256552],[29.14357547382906,54.62963735657871],[29.1500867039382,54.62974070936622],[29.17303103985057,54.633745633254364],[29.193391554276786,54.6394558776866],[29.199127638030063,54.64038605457273],[29.205483840306954,54.640851142566135],[29.212460158409556,54.63764720345563],[29.218971387619433,54.63129100207806],[29.22486250190292,54.61454783791237],[29.22625776498387,54.60571116783609],[29.22656782424565,54.59870901131177],[29.22548261862795,54.59015656207566],[29.22579267788973,54.58638418218425],[29.22734297060157,54.58330943518229],[29.232458936730552,54.582301743930316],[29.265996941905314,54.581940008724416],[29.277469110311188,54.58044139285596],[29.298398064618993,54.57413686832177],[29.30403079558471,54.573620104384304],[29.308836704250496,54.574756985046804],[29.33472659685492,54.58687510770005],[29.34433841328712,54.59025991486317],[29.355035435337072,54.59279206040526],[29.361443311759388,54.59312795718944],[29.374930860870506,54.591732693209224],[29.399115431132202,54.58607412382173],[29.426917351654424,54.582663479136215],[29.433118524300426,54.58312856712962],[29.438544548791867,54.584394639900665],[29.442885370363513,54.58638418218425],[29.44629601414971,54.58904551893551],[29.448931511579985,54.5923269724118],[29.4503267755602,54.596306056978904],[29.45094689318455,54.600388495232835],[29.4503267755602,54.61206736921372],[29.45110192191612,54.61532298426829],[29.454357537870067,54.617390041816975],[29.460093621623344,54.61759674739193],[29.473012729953496,54.61568471947419],[29.479213900800858,54.61180898679527],[29.48526004381597,54.605969550254486],[29.491926303556056,54.58470469826318],[29.49177127482443,54.57914948256257],[29.48774051341394,54.57527374898427],[29.45404747860823,54.557186998581074],[29.439164666416218,54.5472392853647],[29.436994256080027,54.5442420518292],[29.436839227348457,54.54096059835291],[29.440249872033974,54.53703318972987],[29.454512566601636,54.5261811389484],[29.456372917675992,54.52266714147538],[29.456062860212796,54.51817129207143],[29.45172204043979,54.51189260505964],[29.44784630686155,54.50786184274983],[29.44397057508195,54.50468374296037],[29.436529168086622,54.499774482406394],[29.43265343630702,54.49662221924001],[29.42722741091626,54.49052440028083],[29.42490197094918,54.48698456528541],[29.41167280425651,54.403268745356286],[29.40505822135981,54.384949449157716],[29.398495314407228,54.37461416321304],[29.39291426028484,54.37363231128211],[29.38826338125,54.37115184258346],[29.38500776529611,54.36712108027359],[29.38190717897311,54.359886379752595],[29.378651563918538,54.35549388313615],[29.374775832138937,54.35208323845069],[29.36764448440539,54.34836253540266],[29.36671430841858,54.346967272321706],[29.36671430841858,54.34459015641056],[29.376326124850777,54.339060777332975],[29.381287062248077,54.33701955820601],[29.38795332198822,54.33316966394881],[29.408262159570995,54.314204413502864],[29.40970910039465,54.31071625445156],[29.40950239392032,54.3064012722009],[29.405368279722325,54.300148424510155],[29.401440871099283,54.29622101498785],[29.396945020796068,54.29327545829574],[29.367179396411984,54.27865102852212],[29.363923781357414,54.2759896917708],[29.360978223765983,54.27291494386952],[29.358962843960057,54.26940094729588],[29.358032667973248,54.26552521371764],[29.35534549280021,54.244260361726276],[29.356172315999572,54.239790350744045],[29.358807814329168,54.23552704533682],[29.364698927713334,54.23025604957701],[29.369349805848856,54.22700043452238],[29.377101271206698,54.22542430338888],[29.383147414221753,54.22506256818292],[29.41451500816106,54.2312637399296],[29.41684044812814,54.22216868833425],[29.419475945558418,54.21968821873628],[29.424591912586664,54.217311102825136],[29.44459069180698,54.21390045813962],[29.44955162920428,54.21204010706526],[29.45172204043979,54.20899119668633],[29.452032097902986,54.197002265242304],[29.4534273618832,54.193539943713404],[29.456372917675992,54.19085277033906],[29.46055870871743,54.18870819842459],[29.462729119952883,54.186046860773956],[29.461385531916733,54.18273956977532],[29.454357537870067,54.178579617155606],[29.43342858176362,54.17095734300693],[29.42955284998402,54.16873525672668],[29.427692498010344,54.16558299445961],[29.42970787871559,54.14855561035313],[29.42893273325899,54.1117878285454],[29.427692498010344,54.10778290555663],[29.42505699968075,54.104346422449396],[29.418390740839982,54.101865952851426],[29.41187950983152,54.10078074813299],[29.406298455709134,54.099178779477086],[29.402836135079554,54.09656911956921],[29.401130811837504,54.09300344525275],[29.402681105448664,54.0882750509528],[29.40598839734662,54.08522614237256],[29.414204949798602,54.08036855686339],[29.417150505591337,54.077526353858104],[29.41932091592753,54.074477444378545],[29.42087120863937,54.07111847653641],[29.421956415156387,54.06755280222001],[29.42242150225053,54.06383209917203],[29.421336296632774,54.059491279399026],[29.418235711209093,54.05489207630825],[29.41012251244399,54.04858755087474],[29.39120893704279,54.037632148205034],[29.381287062248077,54.02931224206628],[29.373225539427096,54.02491974544989],[29.358497755966653,54.02019135204921],[29.35441531771272,54.01794342734729],[29.35069461376537,54.014920356289394],[29.340772738970713,54.003163967043406],[29.339067416627984,53.999908351988836],[29.338447299902953,53.996833604986875],[29.337982211909548,53.98993480125006],[29.339997592614793,53.98585236299613],[29.34278811967596,53.98228668957904],[29.34914432105353,53.976938178554065],[29.356482375261407,53.96807567005612],[29.359427931054142,53.961357734371916],[29.36113325429625,53.95391632827591],[29.361288283027818,53.92978343395828],[29.35958296068509,53.914900620866945],[29.359893019047547,53.91283356421758],[29.36113325429625,53.91071482982551],[29.36345869336401,53.90831187639196],[29.36516401480742,53.90534048127819],[29.36423383971993,53.901593939808436],[29.357412551248217,53.895392768061754],[29.354311964925216,53.89087108023614],[29.355862257637057,53.88495412932957],[29.36035810704101,53.881982734215796],[29.382837354959918,53.875187283266484],[29.385162794927,53.87242259372772],[29.38345747168495,53.86870189157901],[29.370279981835665,53.8592709423001],[29.36113325429625,53.85407746000675],[29.358187696704817,53.85144196257647],[29.357412551248217,53.84854808182848],[29.36113325429625,53.84503408525478],[29.36609419079423,53.84441396673117],[29.3713651865541,53.84503408525478],[29.39058882031776,53.85144196257647],[29.3952396993526,53.85211375614489],[29.399425490394037,53.85123525700146],[29.401130811837504,53.84834137625347],[29.40159589983091,53.8446206732055],[29.399890578387442,53.84038320621994],[29.396169875339467,53.836429959175234],[29.38795332198822,53.83252838807465],[29.36593916206266,53.82555206997205],[29.36206342938374,53.82384674672994],[29.360203078309382,53.821986396554905],[29.363148635001494,53.82022939736879],[29.36888471875477,53.81919586949374],[29.38872846924346,53.8184207222385],[29.39446455299668,53.81712881104579],[29.398805372769743,53.81511343034049],[29.40567833808484,53.810049140155684],[29.40970910039465,53.80808543629382],[29.415600212879497,53.80736196588197],[29.432188348313616,53.80968740494973],[29.437924432066893,53.80981659615895],[29.44319542782671,53.80875722896292],[29.44769127812998,53.80684520104518],[29.455132684225987,53.801987617334646],[29.459473503998993,53.800023912573465],[29.477818637719963,53.7979826934465],[29.481849400029773,53.796199855838665],[29.480454136049502,53.79196238885311],[29.476113316276496,53.78643300977558],[29.46458947102724,53.77754466375518],[29.45187706917136,53.769586493721704],[29.437769403335267,53.764573880380226],[29.406091750134124,53.75658987102571],[29.402060987824314,53.754341946323734],[29.399735548756553,53.751293036844174],[29.400665723844043,53.7467713490185],[29.403611281435474,53.74364492517316],[29.40857221883283,53.741474513937646],[29.41451500816106,53.73997589806919],[29.42784752764129,53.73790884141988],[29.43249840667613,53.736048489446205],[29.43342858176362,53.733154608698214],[29.43048302597083,53.7297439640127],[29.42257653188142,53.7258682322331],[29.409812453182155,53.72230255791669],[29.405161574147314,53.719873766061426],[29.401440871099283,53.71630809174502],[29.398805372769743,53.70959015606081],[29.394929640090822,53.70530101223193],[29.38810835071979,53.70276886668984],[29.38190717897311,53.70313060189574],[29.37694624157575,53.704835924238466],[29.373380568158666,53.70731639293717],[29.367179396411984,53.712949123902945],[29.36361372209558,53.71548126944498],[29.359272902322573,53.717341620519335],[29.353485141725912,53.718168442819376],[29.347749057972635,53.71785838535618],[29.342323031682554,53.71687653342525],[29.337517123916143,53.715222887026584],[29.333486361606276,53.71300079984701],[29.325734898047074,53.70685130494377],[29.313797641647852,53.695146593440484],[29.304185825215654,53.687679348023494],[29.287390985105844,53.679411118728126],[29.210134719341795,53.65403799096049],[29.19866255093598,53.65248769824865],[29.19215131992746,53.652591051036154],[29.1793872412282,53.654503078953894],[29.174426303830842,53.65636343002825],[29.17039554242035,53.658585517207825],[29.16729495609735,53.66132436832493],[29.16357425304932,53.66380483702358],[29.15876834528291,53.66551015936636],[29.139544712418513,53.66783559843407],[29.12848595606198,53.67054861112945],[29.12290490104033,53.67140127185121],[29.117478874750248,53.67085867039128],[29.11251793825221,53.66961843514264],[29.103526239444363,53.66592357051633],[29.06456220887884,53.642384955401326],[29.061306593824213,53.639129340346756],[29.059291213118968,53.6349177108836],[29.059756301112373,53.62835480393102],[29.06146162255584,53.62403982257973],[29.070815056569586,53.611353258246254],[29.072158643706416,53.607890936717354],[29.072985466905777,53.60411855682594],[29.071435174193937,53.59957103147792],[29.06781782393341,53.59463593250223],[29.058981153857133,53.5887189806964],[29.052314894117046,53.58587677679179],[29.04580366400785,53.58422313129245],[28.955783318645217,53.57967560504511],[28.950357293254456,53.57853872348329],[28.94663659020648,53.576678372408935],[28.94756676619329,53.571665758168194],[28.94911705890513,53.56789337827678],[28.949582146898535,53.56324249924194],[28.9492720876367,53.558539944262975],[28.94756676619329,53.55262299335641],[28.947256706931455,53.54792043747818],[28.94756676619329,53.54381216080253],[28.955163201920186,53.52665558548688],[28.955628289913648,53.52365835195138],[28.955008172289297,53.520997016099386],[28.94911705890513,53.519265856234256],[28.94276085842688,53.518645737710585],[28.90710411975931,53.51988597295923],[28.901213006375144,53.52071279615859],[28.897130568121213,53.52272817596452],[28.894029981798212,53.52538951271583],[28.876046584182518,53.54962575892159],[28.86348921105821,53.56019358976232],[28.862869094333234,53.56363007286956],[28.86488447413916,53.56753164307082],[28.87031050042924,53.573009345305024],[28.87356611458449,53.577453517865536],[28.874806348933816,53.58179433943718],[28.87434126183973,53.58551504248521],[28.872170850604277,53.58846059827795],[28.86814009009305,53.589959215045724],[28.863024123064804,53.58985586225822],[28.858683303291798,53.58835724549044],[28.8456091653307,53.57967560504511],[28.841113315926748,53.579572252257606],[28.837857699972858,53.58140676491024],[28.832586704212986,53.58691030556611],[28.82576541484201,53.59197459575097],[28.821424595069004,53.594041653299655],[28.815998568778923,53.595695298799],[28.809487338669726,53.5964187692108],[28.803131138191475,53.596315416423295],[28.797705111901394,53.59528188674966],[28.784630974839615,53.58933909832069],[28.77951500781137,53.58807302554965],[28.773313836064688,53.58742707040295],[28.683035109182924,53.597710680403566],[28.66034915478963,53.60386017530681],[28.641435581187125,53.61143077351136],[28.63073856003649,53.614608873300824],[28.623917270665515,53.6148672548199],[28.617354363712877,53.613833726944904],[28.611153191966196,53.61104319898442],[28.606967400924816,53.60804596634824],[28.60371178587019,53.60486786655878],[28.601541374634735,53.60070791303974],[28.600766229178134,53.595695298799],[28.603401726608354,53.58753042319046],[28.60588219620638,53.58262116173722],[28.61053307524122,53.575489814003674],[28.611153191966196,53.571459051693864],[28.60991295671755,53.56670481987152],[28.605417108212976,53.56037445691561],[28.60123131717154,53.556653753867636],[28.59642540940513,53.554095770803144],[28.591309442376826,53.55270050682293],[28.55095014783103,53.54675771749464],[28.547384474413946,53.54528493914859],[28.54707441605143,53.54334707280913],[28.553430617429058,53.541383368947265],[28.568003371258555,53.539057928980185],[28.573946160586843,53.53761098905585],[28.576271599654604,53.535078844413135],[28.575341423667737,53.53190074282497],[28.56986372233291,53.52903270139802],[28.564489372886214,53.52717235032367],[28.531416456604177,53.52035106095269],[28.526765577569336,53.518671577031625],[28.523044875420624,53.51642365232965],[28.516068556418702,53.5112301700363],[28.510952590289776,53.510170802840264],[28.505784946418146,53.51032583337047],[28.485321079204425,53.513219713219144],[28.471678501361737,53.51355561000338],[28.459431186599943,53.512496242807345],[28.454315219571697,53.5112043325139],[28.44976769422368,53.50939565738366],[28.434419793138943,53.500171414579086],[28.42434288871334,53.491877345962735],[28.412250603582493,53.48004344325028],[28.40232872878778,53.46810618775032],[28.401708612062805,53.45244822920239],[28.40449913912397,53.43007233317161],[28.402638788049615,53.3994798846889],[28.400881788863444,53.393382065729725],[28.398918084102263,53.38945465800606],[28.396540969090438,53.38594066053304],[28.393595412398327,53.38296926541926],[28.366775343807035,53.36594188131272],[28.364449903839954,53.36307383898645],[28.362589552765655,53.35943065030426],[28.361814406409735,53.35570994725623],[28.362899611128114,53.35186005299903],[28.36770551889458,53.34826854116022],[28.373286573916232,53.34594310209246],[28.42682335831131,53.33297231691887],[28.432869500427103,53.33013011301426],[28.438450555448753,53.32578929324126],[28.4443416679336,53.31679759443341],[28.452558221284846,53.30811595308876],[28.454418573258522,53.30457611809334],[28.45400516120918,53.30041616547362],[28.449457634961846,53.294680080821024],[28.4443416679336,53.29209625933487],[28.438450555448753,53.2904167754138],[28.388944533363485,53.28641185242503],[28.38382856633524,53.28509410281055],[28.37995283365632,53.28284617810863],[28.377317336226042,53.279590563054],[28.375146925889908,53.27594737437181],[28.372821485922827,53.272510891264574],[28.3695658708682,53.269668688259344],[28.36491499183336,53.26806671780474],[28.358713820086734,53.267549953867274],[28.242648553387994,53.27225250884618],[28.235982292748588,53.2715290393337],[28.229729445057842,53.27028880498432],[28.224613478029596,53.2660513370995],[28.21980757026313,53.26548289721791],[28.216086867215154,53.26659394035801],[28.190196973711352,53.28713532193751],[28.18244551015215,53.291812039394074],[28.17340213360154,53.295842800804564],[28.157899203785234,53.300674546992695],[28.15123294404509,53.30129466371773],[28.132474400073477,53.30026113494341],[28.12131229003012,53.29832326950327],[28.091805047165167,53.28917654106448],[28.08916954883557,53.2862051459507],[28.089014520104,53.281812649334256],[28.104517449920365,53.26380341239752],[28.10715294824996,53.259462591725196],[28.1136641783591,53.24352041323647],[28.117591586982144,53.237836005427255],[28.126118197796586,53.234580390372685],[28.16782107857989,53.22845673299179],[28.189111768992916,53.222849840447736],[28.195467970370544,53.220162665274756],[28.202599318104035,53.21602855107676],[28.221667922236804,53.19579722785977],[28.229005974645986,53.19282583274594],[28.236292352010423,53.19145640718739],[28.27210412030888,53.188536688917054],[28.283886346177894,53.18579783779995],[28.314323765029712,53.175462550955956],[28.31850955607115,53.174997463861814],[28.32176517112572,53.17685781493617],[28.324245639824426,53.1798033725276],[28.33029178194016,53.191017158515024],[28.332617221907242,53.194531155088725],[28.335717808230243,53.197373358993275],[28.339800245584854,53.199517930907746],[28.34548465339401,53.19998301890115],[28.38057295128067,53.197218329362386],[28.38832441573919,53.19112051040321],[28.395920850566768,53.180423489252576],[28.40635949109759,53.1531383335672],[28.413955925925222,53.14342316344823],[28.42139733202123,53.138203844531745],[28.458656040244023,53.14099437069365],[28.468577915038736,53.14381073707585],[28.48098025943142,53.1500377472442],[28.491057162957702,53.15256989188697],[28.5090922383161,53.153655097504725],[28.515138381331212,53.153086655824495],[28.52025434656082,53.151536363112655],[28.52335493288382,53.148849188838994],[28.52335493288382,53.14564524972849],[28.512296177426606,53.13714447733571],[28.509402296678616,53.13288117102917],[28.51126264775297,53.12564647140749],[28.513536410876668,53.12104726831677],[28.533896926202146,53.088491115972204],[28.534672071658747,53.08373688414986],[28.53343183820874,53.07727732998478],[28.52319990415225,53.052420966154614],[28.522269728165384,53.04890696958097],[28.522269728165384,53.04410106091518],[28.524285108870686,53.03738312433171],[28.526145460844305,53.03270640687515],[28.52862592864369,53.02906321909228],[28.530951368610772,53.02604014803438],[28.536377394001534,53.02043325549033],[28.538082717243583,53.017797757160736],[28.538237745975152,53.015679022768666],[28.533276807678533,53.014697170837735],[28.50097903775236,53.017177639536385],[28.497103305972757,53.016815904330485],[28.493382602924783,53.015317288462086],[28.490592074964297,53.01247508455748],[28.47307376534195,52.98369131120501],[28.464702183259135,52.97428620124714],[28.455245395558563,52.96583710389922],[28.453488397271713,52.96276235599788],[28.45400516120918,52.9596617705742],[28.458501010613134,52.95640615551963],[28.487491488641297,52.94436554633285],[28.491057162957702,52.94188507853352],[28.49276248530043,52.938216051429606],[28.492452426937916,52.93346181870794],[28.488576694258995,52.92689891175536],[28.48485599121102,52.92286815034481],[28.48098025943142,52.91958669686852],[28.451938103660552,52.900027167219946],[28.44666710790068,52.893464260267365],[28.44496178555795,52.8895368525437],[28.439845819429024,52.872276923541165],[28.438140497086238,52.8683495140188],[28.433489618051397,52.86139903433792],[28.43069909009091,52.85829844801492],[28.40930504689038,52.83791209606636],[28.291999545842373,52.76566844274441],[28.298355747219944,52.75977733025957],[28.313393589042903,52.751224881023404],[28.411475457226572,52.71321686486641],[28.46919803176371,52.68011811016265],[28.465322299984166,52.67900706612318],[28.449922722955307,52.66691478099233],[28.45131798693552,52.66448598913706],[28.452764926859857,52.66107534445155],[28.455555453921022,52.65864655169696],[28.452144810134882,52.65464162870819],[28.442946404852705,52.650274970513465],[28.421087273658713,52.6424718292115],[28.41178551558903,52.63725250939575],[28.40620446056738,52.632369086364235],[28.404964227117375,52.628105780957014],[28.4031038751437,52.61492829020841],[28.40119184722596,52.58144196187703],[28.40325890477459,52.56188243312778],[28.40930504689038,52.53203929347859],[28.409770134883786,52.52439118090825],[28.40946007742059,52.52077383154705],[28.40759972544697,52.517518216492476],[28.40449913912397,52.514831041319496],[28.340730421571664,52.48062124347558],[28.134334751147833,52.466410223952664],[28.122397494748554,52.467547106413804],[28.114594354345968,52.469459134331544],[28.106222772263095,52.477985745145986],[28.097231072555928,52.49000051501173],[28.091650018433597,52.49976736107482],[28.091029900809247,52.50041331622157],[28.087774285754676,52.50258372745702],[28.084053581807325,52.50439240168794],[28.073356560656748,52.507441311167554],[27.987677035966442,52.51896515641681],[27.9799255706086,52.51777659801155],[27.971864047787562,52.51524445336878],[27.96039188028101,52.50927582471951],[27.955896029977794,52.50490916652478],[27.954190707635007,52.50124013942087],[27.954810825259358,52.499379788346516],[27.96426761206061,52.48852773756499],[27.965972935302716,52.48527212251042],[27.96736819838361,52.48186147692559],[27.970003695813887,52.46656525358355],[27.970158726344152,52.46284455053558],[27.969383579088912,52.45922720027505],[27.966748080759317,52.456229966739556],[27.96256228971788,52.45395620451518],[27.949953240649506,52.449822089417864],[27.94483727362126,52.4473932975626],[27.941271600204175,52.4443960640271],[27.928559198348296,52.44093374339752],[27.81745486814765,52.434629217964016],[27.78489871580308,52.43907339142385],[27.70588545085286,52.4377814811304],[27.699219191112775,52.43834992101199],[27.69332807772861,52.43943512573043],[27.64242679166307,52.456178289896116],[27.609198845750086,52.472353014180214],[27.606098260326462,52.474730130091416],[27.60330773326524,52.47736562842101],[27.601137322929105,52.48046621384469],[27.60005211821067,52.48403188726178],[27.599742058948834,52.487985134306484],[27.599742058948834,52.49875967072222],[27.60237755727843,52.5222724474155],[27.60222252764754,52.5263807240911],[27.60098229329816,52.529972235929904],[27.59772667824359,52.53240102778517],[27.59214562322194,52.533692938977936],[27.58501427638771,52.532659410203564],[27.57803795738579,52.529377956727274],[27.570131463296377,52.52048960980761],[27.563775261918806,52.50989594234386],[27.561759881213504,52.50775137042939],[27.558142530953035,52.50930166314123],[27.55535200389187,52.51178213183988],[27.550391065595193,52.51798330268724],[27.548375684889947,52.52110972833128],[27.533647902328823,52.538705553218676],[27.527911817676227,52.53932566994371],[27.51907514759995,52.53746531797003],[27.450500523180608,52.50165355147021],[27.448278436000976,52.50149852183927],[27.446624789602367,52.50299713770772],[27.444557732953,52.5094566918728],[27.442904086554336,52.51276398377081],[27.440216913179995,52.515554510831976],[27.435721062876723,52.51738902438393],[27.409521111909783,52.51813833321745],[27.402389764176235,52.515554510831976],[27.39556847480526,52.510361030337265],[27.388127068709252,52.49674429001692],[27.38264936737437,52.48346344738019],[27.379083693057964,52.48051788978876],[27.371642286961958,52.47891592113285],[27.343892043283176,52.477985745145986],[27.33831098826147,52.47638377469144],[27.334693638001,52.47286977811774],[27.333350050864112,52.46579010722763],[27.333660109226628,52.46072581614345],[27.334383578739164,52.45633332042638],[27.33676069465031,52.44915029584945],[27.340016309704936,52.44250987453108],[27.34606245271999,52.433053086830455],[27.334900343575953,52.41623240829898],[27.271390008442097,52.36073192004204],[27.143077426981677,52.40889435499048],[27.128194613890287,52.41623240829898],[27.128504673152122,52.41917796499109],[27.1311401705824,52.42181346332063],[27.148348422741492,52.434267482758116],[27.151138949802657,52.43736806908112],[27.153464389769738,52.4408045521883],[27.155479771374303,52.444447739971224],[27.156720004824365,52.448297634228425],[27.156254916830903,52.453491116521775],[27.154239536125658,52.45938222900662],[27.148193394009922,52.46837392781447],[27.14276736771984,52.47271474938617],[27.103183221328607,52.491860866985405],[27.059775018202515,52.5195335962984],[27.046080762617066,52.53090241191677],[27.04080976685725,52.53821462680355],[27.06008507656503,52.549867662362715],[27.0633406916196,52.552916571842275],[27.06489098523076,52.55785167081791],[27.063030633257085,52.56118480113764],[27.059775018202515,52.56397532819881],[27.039724562138815,52.575266629451335],[27.038019239796085,52.57945242049277],[27.038174269426975,52.58361237221317],[27.045305617160466,52.598805244566336],[27.048096144221688,52.60203502119924],[27.051816847269663,52.604360460267],[27.05729454860449,52.60541982746304],[27.175995313632825,52.60893382403674],[27.18126631029196,52.610174059285384],[27.18529707170245,52.61224111593475],[27.187932570032046,52.615393378201816],[27.18994795073729,52.620199286867546],[27.191498244348452,52.6259353697215],[27.191963332341913,52.635443834265516],[27.190878126724158,52.64092153649966],[27.18917280438137,52.64531403311611],[27.17816572396896,52.65727712703773],[27.168398878805192,52.66611379711401],[27.16281782378354,52.66864594175678],[27.156720004824365,52.669705308952814],[27.10380333805358,52.669705308952814],[27.069541864265602,52.67383942315081],[27.06194542763933,52.676707465477136],[27.05388390481835,52.68117747735869],[27.021431105261286,52.7133718944973],[27.019725782918556,52.71838450783872],[27.020035842180334,52.72267365256698],[27.025461866671776,52.72923655951956],[27.02747724827634,52.732957262567595],[27.027322218645452,52.73866750789915],[27.024686720315856,52.74200063731951],[27.02096601726788,52.74479116528005],[26.988978305704222,52.75807200791678],[26.98432742666938,52.7588471542727],[26.979986606896375,52.75786530234183],[26.97657596221086,52.75561737674053],[26.964018589086606,52.74437775323071],[26.9604529147702,52.74194896137544],[26.956422153359654,52.739881903826756],[26.95192630395576,52.73866750789915],[26.946655308195886,52.73900340378401],[26.935286492577575,52.74145803496032],[26.90071495862844,52.75367951130039],[26.79968753375266,52.773187364105524],[26.790385775682978,52.77659800879104],[26.785579867916567,52.77985362384561],[26.763203972785107,52.80137685825537],[26.738709344160895,52.830057277921014],[26.732198114051698,52.83481150974336],[26.72568688304318,52.83716278723284],[26.720415887283366,52.83656850892953],[26.688583205350653,52.829488837140104],[26.681296827986216,52.82933380840848],[26.67323530426586,52.82995392513351],[26.661246371922516,52.83289948182562],[26.65551028816924,52.83594839130518],[26.651789585121264,52.839307359147256],[26.65070438040283,52.8429247103071],[26.64915408679167,52.85682567056824],[26.646053501367987,52.86333689977806],[26.64171268069566,52.86659251573201],[26.61597781682275,52.873775540308884],[26.59716759600775,52.88196625433915],[26.586470574857117,52.88493764945292],[26.577943963143355,52.88617788380225],[26.548488397121787,52.88256053354178],[26.54378584214288,52.88101023993062],[26.540375196558045,52.87837474250034],[26.53851484458437,52.874602363508245],[26.537119582402795,52.87046824841093],[26.534174024811364,52.8571357289307],[26.53277876173047,52.85325999625178],[26.530763381025224,52.85015940992878],[26.527817824333113,52.84832489727614],[26.52487226674168,52.84757558934194],[26.49133426336556,52.84770478055117],[26.486373325068882,52.84659373651169],[26.48187747566493,52.844914251691364],[26.47412601120641,52.84034088792163],[26.467149692204487,52.835250759315045],[26.464049106780863,52.83243439383216],[26.4555224950671,52.82721507401641],[26.448391148232872,52.825638942882904],[26.444050326661227,52.82669831007894],[26.440019566150056,52.828739529205905],[26.41097741127851,52.85460358338861],[26.407411736962047,52.86008128472349],[26.407256707331157,52.86462881097083],[26.409737176029807,52.86762604450632],[26.413147820715324,52.8702615419366],[26.438417595695455,52.88227631270166],[26.441104770868435,52.8852993837595],[26.44218997558687,52.88927846922593],[26.43469689264748,52.90157745993179],[26.432836540673804,52.90617666302256],[26.431906365586258,52.90989736607054],[26.431441277592853,52.913876451536964],[26.430511101606044,52.917597153685676],[26.426170281833038,52.92400503190669],[26.383382196331297,52.967852485503784],[26.374648879042525,52.97940216737612],[26.372323439075444,52.9863268095346],[26.372478468706333,52.99144277656285],[26.375579054130014,52.994284980467455],[26.389118280084517,52.9985741242964],[26.392373895139144,53.000227769795686],[26.39686974544236,53.00415517841873],[26.39888512524834,53.00704905916672],[26.406636589706807,53.02167348894034],[26.41361290870873,53.031647040578434],[26.419193962831116,53.0378998891685],[26.425395134577798,53.04361013450006],[26.42927086815604,53.04570303047046],[26.433973423134944,53.0475375431231],[26.44451541465463,53.050302231762544],[26.45722781740983,53.05141327580202],[26.49789717031814,53.04854523437501],[26.506888869125987,53.04908783583494],[26.511694776892398,53.05009552708685],[26.51619062719567,53.051904202217145],[26.51712080318248,53.05696849240195],[26.515105421577914,53.064203192923],[26.50115278537271,53.08425364808738],[26.49696699433133,53.08854279191627],[26.463273960424942,53.112624010289835],[26.457537875772346,53.114691066939145],[26.451336704025664,53.115517890138506],[26.38229699071354,53.11789500604965],[26.374028762317494,53.11944529876149],[26.363641798630113,53.12259756102861],[26.35914594922616,53.12590485292657],[26.35620039163473,53.129573880030534],[26.354185011828804,53.142079576311346],[26.352479688586754,53.14735057207122],[26.347983840082122,53.150761216756734],[26.332635938997385,53.15685903571591],[26.330465528661193,53.16068309245071],[26.32907026468098,53.170243232039525],[26.325969679257298,53.17303375910069],[26.320491977922416,53.1739639350875],[26.302973667400806,53.172129422434864],[26.295222202042964,53.172310288688834],[26.286230503235117,53.173653875825664],[26.2739831893727,53.17729706540723],[26.26871219181419,53.18099193003354],[26.266231724014858,53.18507436828742],[26.266645135164822,53.18920848248547],[26.267885370413524,53.193135891108454],[26.269642367800998,53.196443183006465],[26.277083774796324,53.20693349948141],[26.29398196769364,53.22520111793722],[26.307934604798163,53.235923977509515],[26.31630618688098,53.24109162048188],[26.32751997196914,53.24638845556274],[26.333411086252625,53.24775788022197],[26.37449384941158,53.248377996947],[26.380229933164856,53.24933401135553],[26.385397577036542,53.250755112858144],[26.389893426440437,53.252512112044315],[26.39361412858915,53.25488922795546],[26.39655968618058,53.25778310780413],[26.39826500762399,53.26147797332976],[26.398730095617395,53.2653795444304],[26.39826500762399,53.28294953089613],[26.39748986216739,53.28889232022436],[26.393149040595745,53.298039049562476],[26.387723016104303,53.3038784861032],[26.37857628766551,53.3107514514183],[26.37449384941158,53.31504059524724],[26.372323439075444,53.31932973907618],[26.374803907774094,53.356743476030545],[26.37650923011688,53.36454661733251],[26.559495476634936,53.40118520793095],[26.567712029986183,53.40475088224741],[26.561200798977666,53.40966014280133],[26.5553096855935,53.41508616819209],[26.550762160245483,53.421339015882836],[26.54704145719745,53.42795360057818],[26.54394087087445,53.434671536262385],[26.542080518900832,53.442138779880736],[26.542080518900832,53.45032949481032],[26.547971633184318,53.48195547116802],[26.548488397121787,53.4870197622522],[26.547971633184318,53.492859198792985],[26.546938104409946,53.49663157778508],[26.54569787006062,53.49924123769296],[26.544560987599482,53.500326443310655],[26.54301069488764,53.501334134562626],[26.539445020571236,53.50278107448696],[26.53510420079823,53.50404714635869],[26.529213088313384,53.50427969035542],[26.506423781132582,53.50154083923832],[26.501307814104337,53.50138581050675],[26.49789717031814,53.50174754481333],[26.493194614439858,53.50358205836528],[26.492781203289894,53.50949901017117],[26.49572675998195,53.52035106095269],[26.509524366556263,53.538179429836816],[26.51324506960424,53.54696442306965],[26.514175245591105,53.55308808045055],[26.506888869125987,53.56484446879716],[26.502082961359577,53.57037384697543],[26.486683384330718,53.584584866498346],[26.48249759328928,53.590734361401644],[26.48110232930901,53.59435171256143],[26.47784671425444,53.61140493419032],[26.47629642064328,53.616210841956786],[26.474436068669604,53.620241604266596],[26.46916507290979,53.62608104080738],[26.46590945785516,53.62866486319285],[26.46203372607556,53.63109365504812],[26.42043419807976,53.64468455694674],[26.35697553888997,53.65576915082562],[26.35123945513675,53.658378810733495],[26.346123488108447,53.66215119152423],[26.34085249234863,53.66969595040774],[26.339612257999306,53.676517238879455],[26.339767286730876,53.68395864497546],[26.341317580342036,53.69429393181946],[26.34023237472428,53.699978338729295],[26.3379069347572,53.70413829224839],[26.33387617424603,53.70623118821874],[26.328605177586837,53.70775564250886],[26.29398196769364,53.71036530241673],[26.283129916912117,53.71356924152724],[26.27005577985034,53.719718736430536],[26.262304315391816,53.72509308497786],[26.258273553082006,53.7287104361377],[26.25331261568465,53.73408478558434],[26.253002557322134,53.738373928513965],[26.25548302602084,53.75201650725597],[26.25548302602084,53.76715770096712],[26.257498406726086,53.77449575517494],[26.261684197767522,53.77870738373872],[26.268092075089157,53.779249986097966],[26.289486118289688,53.779017442101235],[26.29475711404956,53.78028351487228],[26.29878787635937,53.78258311641764],[26.30188846178305,53.78545115784465],[26.305144076837678,53.78901683216105],[26.307624546435648,53.79284088799653],[26.30994998460409,53.798111883756405],[26.307004428811297,53.80090241171689],[26.30266360903829,53.803124497997146],[26.233933954088684,53.820126044581286],[26.22215172732035,53.82488027640363],[26.215795525942724,53.829531155438474],[26.21434858601839,53.8353447544568],[26.21517540921775,53.85412913685013],[26.216415642667755,53.860950426221166],[26.21843102427232,53.86601471640603],[26.221531609696,53.86875356752307],[26.225562372005868,53.87110484501255],[26.244630975239318,53.87779694317436],[26.312740512564574,53.89009593388022],[26.32328250498358,53.89298981372889],[26.332790968628274,53.896607163989415],[26.34085249234863,53.9008963078183],[26.344418165765717,53.90348013020383],[26.350309279149883,53.90942291953206],[26.35542524617813,53.916037503328084],[26.365967237697816,53.93386587221221],[26.37123823435701,53.940351263899686],[26.37449384941158,53.94298676222928],[26.37857628766551,53.945338039718706],[26.383382196331297,53.94694000927399],[26.419193962831116,53.95179759388384],[26.424775017852767,53.957533678536436],[26.429425896887608,53.96683543570674],[26.43428348239678,53.98939219799149],[26.432836540673804,53.998564764852006],[26.427720575444198,54.00362905503681],[26.368292677664897,54.00479177502035],[26.361781446656437,54.00900340448351],[26.354805128553835,54.01696157541636],[26.343643019409797,54.04869090456157],[26.339612257999306,54.05548635551088],[26.333566114984194,54.05721751627533],[26.288866000665394,54.060628160061526],[26.28281985944892,54.05990469054899],[26.27801394988387,54.056907457013494],[26.27878909713911,54.05117137326022],[26.27816898041408,54.04683055348721],[26.275998569178626,54.04357493843264],[26.27181277813719,54.041559556828076],[26.266645135164822,54.04008677848202],[26.203341505605977,54.03450572435969],[26.195435012415885,54.0365469434866],[26.187063429433692,54.04101695446883],[26.17605634902128,54.053651841958924],[26.172025587610733,54.060809028114136],[26.169700147643653,54.0667001414983],[26.169390090180514,54.07489085642783],[26.172800733966653,54.10904897742836],[26.17776167226333,54.12315664326445],[26.17853681771993,54.12940949185452],[26.174971144302845,54.132458401334134],[26.170165235637114,54.13462881077095],[26.148254429398378,54.14064911626366],[26.143448520732647,54.14142426172026],[26.1394177593221,54.14044240978933],[26.136007113737264,54.138246161930795],[26.133526645937934,54.1348871931894],[26.128410678909688,54.12349254004863],[26.12593021021104,54.12046946899079],[26.12189944790117,54.11946177773882],[26.116628452141356,54.119926865732225],[26.088516473256618,54.12757497830256],[26.08278038860402,54.12971955021703],[26.076889276119175,54.13271678285321],[26.07564904087053,54.13638580995712],[26.075959100132366,54.140364895423545],[26.085105828571102,54.16460114252868],[26.101590610318397,54.193384914981834],[26.104536167010508,54.19633047077457],[26.107946811695967,54.19870758668577],[26.11321780835516,54.1993018658884],[26.141433140027345,54.19772573475484],[26.147944370136543,54.198190822748245],[26.15368045388982,54.199120998735054],[26.158641392186496,54.20061961550283],[26.21672570192959,54.23069529914869],[26.23362389482685,54.2338992382592],[26.247576531931372,54.234054266990825],[26.29537723167391,54.22870575596585],[26.406326532243668,54.24108226193681],[26.41175255673511,54.24242584907364],[26.416093377407435,54.2443895529355],[26.41950402209295,54.24645661138351],[26.429735956149443,54.25498322219789],[26.468855015446593,54.278754381309625],[26.481257358939956,54.29038157844707],[26.50037763811747,54.31443695749954],[26.5622860036961,54.41058096024307],[26.573913201732864,54.43419708882459],[26.57670372879403,54.43729767514759],[26.580269403110435,54.439881497533065],[26.59871788871959,54.44778799072316],[26.60367882701621,54.45099192983366],[26.609776645975387,54.45804576320137],[26.612412144304983,54.46801931394015],[26.613807407385934,54.483651434965736],[26.611481968318174,54.49321157545381],[26.607916294001768,54.50005870234719],[26.59825280072613,54.5095930044136],[26.593756952221554,54.514838161751754],[26.591121453891958,54.520186672776674],[26.590501336267664,54.53036692998978],[26.589726189911744,54.533312485782574],[26.585230339608472,54.54137401040225],[26.584920282145276,54.54400950783247],[26.586470574857117,54.54571483017526],[26.589261101918282,54.54602488943709],[26.593136833697884,54.54550812370093],[26.623419223818132,54.53326080983845],[26.63163577627006,54.53119375318914],[26.638302036010145,54.53083201798324],[26.643728062300227,54.533519192256904],[26.645433383743637,54.53920360006606],[26.646363559730503,54.565920314970526],[26.64915408679167,54.57108795794289],[26.652719761108074,54.57364594190665],[26.65783572813632,54.573413397909974],[26.66341678225865,54.57248322192311],[26.670134718842178,54.57243154597904],[26.67633588968954,54.573981838690884],[26.682382032704652,54.57945954002571],[26.68253706233554,54.583645331067146],[26.67928144728097,54.58814118137042],[26.67540571460205,54.594807441110504],[26.672770217171774,54.60558197752624],[26.676645948951375,54.62245433200178],[26.67695600821321,54.63005076772873],[26.675250684971104,54.63387482446353],[26.670444777204693,54.633719793933324],[26.645743442106152,54.626407579046486],[26.63799197764763,54.625244859062946],[26.631480746639113,54.62591665353068],[26.613962437016824,54.63250539800566],[26.59484215693999,54.63620026353129],[26.590036248274203,54.63886159938329],[26.58616051559528,54.64333161126484],[26.583214958903227,54.65144481092926],[26.58042443184206,54.6568191603759],[26.57654870006246,54.661676744086435],[26.571587761765784,54.66643097590878],[26.566936882730943,54.67175364851204],[26.55763512466126,54.685602931929736],[26.544767694073812,54.700589097808574],[26.5414604021758,54.70591177041183],[26.53897993257783,54.71384410292296],[26.53975507983307,54.71996776030386],[26.544871046861317,54.73456635255508],[26.544405958867912,54.741258449817565],[26.541770461437636,54.74748545998597],[26.53913496310804,54.74994009116227],[26.53370893681796,54.75182627975897],[26.51324506960424,54.75681305647737],[26.506423781132582,54.759164333966794],[26.50099775574182,54.76234243375626],[26.447305941715797,54.81003978071129],[26.425085077114602,54.82556854894932],[26.419348993361325,54.82740306340065],[26.40462120900156,54.82828156254402],[26.39454430457596,54.829935208043366],[26.382917108337836,54.83306163188877],[26.370773146363604,54.83771251092361],[26.35992109468276,54.84316437383677],[26.350309279149883,54.84946889927028],[26.3441081074032,54.85515330707943],[26.33759687729406,54.863473212318866],[26.3371317893006,54.87042369199975],[26.338992140374955,54.89075836890356],[26.336821730038764,54.899491686192334],[26.33000044066779,54.91013703139885],[26.3170813332369,54.923753770819815],[26.31615115725009,54.92755198823363],[26.31785647959282,54.93049754492574],[26.321628858584916,54.93248708810859],[26.339767286730876,54.938068142230975],[26.34813886881375,54.94331330046839],[26.35837080287024,54.947886664238126],[26.362091505918272,54.9500312361526],[26.365347120972842,54.9528734400572],[26.365967237697816,54.95550893838674],[26.364882032979438,54.958454495078854],[26.362711622643246,54.96220103654855],[26.36162641792481,54.966567694743276],[26.36240156428073,54.97132192656562],[26.365347120972842,54.97607615838797],[26.370153028739253,54.979796861436],[26.376199171754365,54.98186391898463],[26.38322716580103,54.982535712553045],[26.393304071125954,54.980830390210315],[26.43097618959945,54.96909984028537],[26.45180179201907,54.964681505247256],[26.480482211684716,54.962175198126886],[26.534949172066604,54.96398387325712],[26.544405958867912,54.96220103654855],[26.55375939288166,54.95726593757291],[26.561820915702697,54.954217027194034],[26.571432733034158,54.95225332333217],[26.585850457232823,54.95271841132558],[26.596237420020884,54.95506968881506],[26.60522911972805,54.95894542149398],[26.610551792331307,54.96305369727031],[26.61504764173526,54.96814382587684],[26.61737308080302,54.96922903149459],[26.626519810141133,54.9705467802097],[26.648999058060042,54.97163198492814],[26.67959150564343,54.97034007373537],[26.68811811735719,54.96863475229196],[26.696644728171634,54.965611681234066],[26.708116895678188,54.958867906228875],[26.713439569180764,54.95429454245914],[26.7191239760906,54.947111517882206],[26.723516472707047,54.94491527002367],[26.730027703715564,54.943881741249356],[26.74087975359771,54.94507029875524],[26.753747185983855,54.9485326202842],[26.784339633567242,54.962898668538685],[26.795191685248085,54.96553416596896],[26.89699425558041,54.97540436481955],[26.904590692206682,54.97416413047023],[26.912497186296093,54.97173533771564],[26.92536461778286,54.961400050871646],[26.931720819160432,54.95499217444927],[26.936836786188735,54.95251170485125],[26.94401980986629,54.95044464820194],[26.98355228031346,54.94832591380987],[27.05946495894068,54.95085805935196],[27.070937127346554,54.95302846878877],[27.075588006381395,54.954630439243374],[27.07837853434188,54.95742096630454],[27.07930870942937,54.960934963777504],[27.078843622335285,54.9647073427696],[27.077913446348475,54.96832469303013],[27.0729525080518,54.978504951142554],[27.071867303333363,54.98186391898463],[27.072022332064932,54.985093696516856],[27.074347772032013,54.98791006110042],[27.106180453964782,55.002069403779956]],[[27.760759680015212,53.80424847158969],[27.80327700213195,53.80925050980318],[27.830788210507478,53.83426069907199],[27.820784134979817,53.8592708883408],[27.78827088839074,53.87427700208195],[27.775765793756364,53.90679024867103],[27.780767831070534,53.93180043793984],[27.80827904034544,53.961812665422144],[27.838291266928422,53.981820816477466],[27.83579024872097,54.01683508217326],[27.80827904034544,54.02183711948743],[27.780767831070534,54.00683100574628],[27.75325662269495,53.99682693021862],[27.713240319684985,53.98932387379773],[27.688230130416173,53.98932387379773],[27.6485094255695,53.99825736938209],[27.63820975187855,53.99932794932539],[27.605696505289472,54.00683100574628],[27.56568020227951,54.01183304395977],[27.50315472910745,54.01683508217326],[27.44062925503607,54.00933202485305],[27.408116008446996,53.99682693021862],[27.385606838284957,53.96431368362954],[27.375602762757296,53.92179636151286],[27.370600724543806,53.894285153137275],[27.370600724543806,53.86427292655429],[27.383105819178184,53.83676171817871],[27.423122122188147,53.83175967996522],[27.47814453893932,53.816753566224065],[27.515659823741828,53.80925050980318],[27.533166955690433,53.789242357848536],[27.555676126751848,53.78424031963499],[27.583187335127377,53.80424847158969],[27.650714846512926,53.80925050980318],[27.688230130416173,53.811751528010575],[27.713240319684985,53.806749490696404],[27.760759680015212,53.80424847158969]]]},"properties":{"adm1_code":"BLR-2345","name":"Minsk","name_alt":"Минск|Минская Область|Minsk Oblast|Minskaya Voblasts'","name_en":"Minsk","adm0_a3":"BLR"}}