{"type":"Feature","geometry":{"type":"Polygon","coordinates":[[[-61.34638424399992,15.211696682000081],[-61.35073808499993,15.205145575000074],[-61.36286373599995,15.20180898600006],[-61.37409420499995,15.204820054000038],[-61.37612870999993,15.212836005000042],[-61.37279212099992,15.237209377000056],[-61.37283748975835,15.235917874210486],[-61.35565507692024,15.243798529878234],[-61.34638424399992,15.211696682000081]]]},"properties":{"adm1_code":"DMA-1438","name":"Saint Mark","name_alt":"","name_en":"Saint Mark","adm0_a3":"DMA"}}