{"type":"Feature","geometry":{"type":"Polygon","coordinates":[[[-3.0959437778830647,53.287143450010205],[-3.1111954419999392,53.302801825000074],[-3.1354060539999296,53.33380768400008],[-3.171538865999935,53.36225006700005],[-3.185210740999935,53.37726471600007],[-3.186350063999953,53.39276764500005],[-3.175526495999918,53.40273672100005],[-3.157297329999949,53.40875885600008],[-3.1146541009999282,53.41266510600008],[-3.0942276679999168,53.41738515800006],[-3.058257615999935,53.434759833000044],[-3.0355525379999335,53.43374258000006],[-3.0121964179999168,53.41669342700004],[-2.9529516269999476,53.323919989000046],[-2.9351293609999516,53.309475002000056],[-2.926413998695671,53.30481430317457],[-2.9283170229122675,53.30212148691709],[-2.9350091210740743,53.293000596900015],[-2.945034348656293,53.28935740821777],[-2.974515753998844,53.29659210873882],[-3.0252878479558376,53.293543199259204],[-3.0666806712759467,53.30548045475916],[-3.0959437778830647,53.287143450010205]]]},"properties":{"adm1_code":"GBR-2108","name":"Halton","name_alt":"","name_en":"Halton","adm0_a3":"GBR"}}