{"type":"Feature","geometry":{"type":"Polygon","coordinates":[[[82.29713742575154,45.55454491091888],[82.29149336800003,45.53319081700006],[82.3274601650001,45.493348288000035],[82.32761519400003,45.493348288000035],[82.32777022300007,45.49329661100002],[82.36265181500005,45.481204326000025],[82.51303023300011,45.46575307300013],[82.61571130400011,45.43541900700008],[82.63198938000005,45.41583363900007],[82.63638187700013,45.37888499000003],[82.63384973100005,45.33935251900009],[82.61457442300008,45.24855702700002],[82.58522220800012,45.176830140000035],[82.53974694900006,45.12365509100009],[82.47582320100008,45.11569692000002],[82.42745406100005,45.137245993000064],[82.3418262130001,45.204890442000064],[82.29459395300006,45.22819651300007],[82.24529463800008,45.231813863000056],[82.19175785300013,45.22220204700007],[82.00045170100003,45.153524069000085],[81.95011885600007,45.144480693000034],[81.91012129800009,45.15801991800002],[81.89100101800011,45.17372955399999],[81.87534305800006,45.18106760700009],[81.80728519700006,45.18871571900006],[81.79364261900014,45.19564036100003],[81.78847497600003,45.209127910000106],[81.78733809400012,45.232330628000014],[81.78144698100004,45.266643779000034],[81.76516890500011,45.3077265430001],[81.73927901200005,45.33806060800005],[81.70475915500009,45.33986928300003],[81.66522668500005,45.347982483000024],[81.62259362800006,45.33433990500002],[81.54203007000007,45.293308818000085],[81.1441732180001,45.20468373600001],[81.06252445500007,45.172230937000066],[81.02190677900006,45.16163726800001],[80.97601810700007,45.16106882800004],[80.85385502200012,45.12649729500005],[80.82755171700006,45.12577382400006],[80.74569624800012,45.14427398800008],[80.69712040200011,45.14365387000002],[80.53682010900008,45.10107249000005],[80.46757369000005,45.10629181000006],[80.44535282400011,45.10422475200001],[80.42509566300009,45.09213246700001],[80.40638879400012,45.05663075800008],[80.39005904100009,45.045778707000025],[80.36504764900008,45.04319488600002],[80.29053023300014,45.04624379500005],[80.21901005100011,45.02603831000006],[80.14759322100008,45.034461569000044],[80.10335819500006,45.03218780500002],[80.06170699100005,45.01895863900005],[80.02377649000005,44.99327545200005],[79.92466109300005,44.931677144000034],[79.87815230300009,44.91472727500012],[79.8582052000001,44.90372019500002],[79.84301232900003,44.873489482000096],[79.86864384000012,44.84935658800005],[79.99173710100007,44.79364939400001],[80.03938277200012,44.790497132000056],[80.21828658100003,44.81809234600006],[80.24474491400008,44.81597361300008],[80.26324507600003,44.80935902900008],[80.31450809800003,44.78031687400009],[80.47615197800008,44.7354100540001],[80.49227502400004,44.72796864800007],[80.49744266800008,44.714946187000024],[80.49196496600007,44.70171702100005],[80.47615197800008,44.69365549800004],[80.4111430260001,44.6828034470001],[80.37631311000007,44.67127960300006],[80.35584924300008,44.652882793000074],[80.35450565600013,44.64177236000005],[80.35915653500007,44.63257395400005],[80.37724328600012,44.615314026000064],[80.38375451700006,44.60280833000006],[80.37993046100013,44.59133616200005],[80.36453088400003,44.56968373700006],[80.33786584500012,44.49402944000009],[80.33042443900007,44.45305002900007],[80.33290490700006,44.417393291000096],[80.37300581900007,44.270218812000095],[80.3732125250001,44.23099640000005],[80.34603072100003,44.15890777600005],[80.3388993740001,44.1214940390001],[80.3451005450001,44.103097229000085],[80.35977665200005,44.08929962200004],[80.39233280400009,44.065476787000065],[80.40380497300004,44.048940328000086],[80.41000614400008,44.03193878200007],[80.41238326000007,44.01359364900007],[80.41269331900014,43.993336487000064],[80.41269331900014,43.99323313400005],[80.42313195800006,43.97214914900012],[80.4398751220001,43.948998108000026],[80.47615197800008,43.910240784000095],[80.59443933150015,43.68455688500008],[80.71272668500006,43.45887298600006],[80.71014286300004,43.42585174600008],[80.69422652200012,43.39471669600003],[80.64286014800007,43.326219585000004],[80.65846643100008,43.31063914000008],[80.69598352100007,43.303275249000066],[80.73546431500012,43.28888336200005],[80.74848677600005,43.27516326900003],[80.75582482900006,43.25761912000006],[80.75913212100005,43.23824045900001],[80.75995894400006,43.218784282000016],[80.76522994000004,43.19994822299999],[80.78817427600006,43.16824473100009],[80.7934452720001,43.14946034800009],[80.78786421700005,43.12804046700005],[80.77339481600012,43.11292511000006],[80.75344771400012,43.10403676400004],[80.73153690600009,43.10109120700004],[80.71076298000014,43.10478607200004],[80.66001672300013,43.13282053600007],[80.61846887200005,43.13426747700005],[80.57588749200005,43.11941050200001],[80.49785607900009,43.076183166000064],[80.41021285000005,43.04866546699999],[80.36814823400005,43.028459982000086],[80.3551257740001,43.00058054600002],[80.37383264200008,42.975181580000125],[80.40773238100007,42.95469187400006],[80.47615197800008,42.93027476000013],[80.52193729700014,42.92544301400001],[80.54291792800012,42.91665802100003],[80.55449344900006,42.898933004000114],[80.54860233600004,42.87846913600005],[80.52669152900012,42.86839223300011],[80.47615197800008,42.863896383000096],[80.4004976810001,42.84301910400002],[80.38168746000008,42.83141774600007],[80.33393843600004,42.81707753600007],[80.3167818610001,42.81560475700006],[80.28174524000013,42.822736105000004],[80.2648987230001,42.82366628000007],[80.24825891100005,42.81619903600004],[80.22748498600004,42.79098093700007],[80.20536747200009,42.73108795200001],[80.18893436700006,42.701580709],[80.15245080500011,42.66036875499999],[80.14376916500004,42.64476247200004],[80.14004846200004,42.62295501800013],[80.14542281100012,42.60711619100003],[80.1534843340001,42.591535747000094],[80.16237268100014,42.55239084900005],[80.1737414960001,42.53691375800004],[80.20009647600006,42.50838836700008],[80.21053511600007,42.49084421900004],[80.21208540900011,42.478751933000055],[80.20629764800003,42.46596201600006],[80.19472212700003,42.44629913400003],[80.19616906800007,42.434594422000046],[80.21869999200004,42.354935201],[80.22552128100006,42.33901886100007],[80.23554650900007,42.32457529700007],[80.24949914600006,42.30995086700007],[80.26841272000013,42.23796559700013],[80.26045454900009,42.2164940390001],[80.24908573500005,42.20489268000004],[80.21032841000005,42.18951894100006],[80.16661014800007,42.208716736000085],[80.13653446400008,42.23886993500007],[80.11007613100008,42.273338115000044],[80.07700321500005,42.30576507600004],[80.01209761600006,42.349509176000126],[79.97396040800004,42.39147043900003],[79.96011112500008,42.403511048],[79.91794315600009,42.42444000300007],[79.69645796700013,42.4598383590001],[79.65253300000006,42.46105275500004],[79.57191776500008,42.44952891100009],[79.47641971900003,42.453973084000026],[79.42567346200013,42.46960520400005],[79.39838830600013,42.496942038000086],[79.35301639800008,42.57729889000002],[79.3212870690001,42.602181092000066],[79.24211877400006,42.62977630600007],[79.20635868400007,42.65646718300003],[79.1921993410001,42.67483815600012],[79.18186405500012,42.693596700000015],[79.17607629400004,42.71393137600005],[79.1751461180001,42.737030742000016],[79.18083052600014,42.77552968400009],[79.17338911900009,42.78563242600002],[79.1482743740001,42.79098093700007],[79.10879357900006,42.78534820600005],[79.03086551900009,42.756151022000026],[78.99293501800008,42.75713287399999],[78.95428104700005,42.76842417400006],[78.88813521300011,42.77121470100009],[78.80793339000013,42.795580140000126],[78.68711389200007,42.804597677000075],[78.66995731600014,42.81116058400006],[78.63543745900006,42.83247711200006],[78.59430301900005,42.85022796600008],[78.49611779800006,42.87560109500008],[78.4295585540001,42.88066538500006],[78.38553023300005,42.878236593000096],[78.36465295400006,42.87252634700003],[78.32837609900008,42.855292257000045],[78.31121952300003,42.850512187000064],[78.29013553900012,42.851442363000004],[78.2491044520001,42.862397767000076],[78.22977746600003,42.865007427000094],[78.18357873600007,42.86014984200007],[78.13789677000005,42.861984355000075],[78.0306164960001,42.85467214000009],[77.98617476400005,42.860201518000096],[77.9293306890001,42.88500620600003],[77.90700647000011,42.89128489200003],[77.88385542800012,42.89322275800005],[77.86122115100005,42.890819804],[77.85222945200013,42.88795176300003],[77.83558964000014,42.8798385620001],[77.80995813000004,42.871286113000096],[77.79817590300007,42.8775131230001],[77.79166467300007,42.88304250099999],[77.78753055800007,42.88970876100011],[77.78122603400004,42.895625713000115],[77.71383996600014,42.90758880700007],[77.64779748500007,42.90950083400007],[77.62692020700013,42.906555278000084],[77.57441695100005,42.8878484100001],[77.55777714100003,42.88813263000007],[77.53845015500008,42.8962716680001],[77.52098352100012,42.90691701300007],[77.50155318200007,42.91453928600005],[77.46176232900007,42.91438425800003],[77.43396040900006,42.921412252000025],[77.41856083200008,42.922239075000036],[77.40326460700004,42.91975860600006],[77.36088993300012,42.90453989700005],[77.32812707500005,42.89756357900005],[77.22963179500005,42.909810893000056],[77.21189028171108,42.909943689449676],[77.19511193900007,42.910069275000026],[77.17867883300005,42.91319569900007],[77.16369266800007,42.921980693000066],[77.13506392400006,42.95174631800005],[77.12400516800005,42.95890350400002],[77.08989872300003,42.968153585000024],[76.97641727700005,42.98220957500003],[76.95688358600006,42.98851409900006],[76.93734989400008,42.98603363100007],[76.89766239400006,42.97453562500006],[76.85342736900003,42.97412221300003],[76.83348026600004,42.971745097000095],[76.81415328000008,42.96148732500011],[76.79296594200014,42.94306467700001],[76.78521447800011,42.93965403300008],[76.77953007000008,42.93929229700008],[76.76133996600004,42.94205698700004],[76.75389856000004,42.94076507600006],[76.75162479700009,42.93709604900009],[76.75038456200008,42.93257436200004],[76.74625044800013,42.92887949700004],[76.70790653500012,42.9136607870001],[76.68878625500014,42.9103276580001],[76.64434452300003,42.91112864200004],[76.6058972570001,42.898493754000086],[76.58501997900004,42.894798889000086],[76.55876835100008,42.89820953400003],[76.50688521300009,42.91448761000005],[76.48053023300014,42.916968079000114],[76.4619267170001,42.91099945100008],[76.43205773900007,42.889579570000066],[76.41407434100006,42.885497131000065],[76.40446252400005,42.88924367300008],[76.39330041500006,42.90526336700013],[76.38296512800014,42.910069275000026],[76.37097619600007,42.90960418700011],[76.35113244700005,42.90288625100008],[76.34048710100006,42.90167185500006],[76.25449751800011,42.921153870000055],[76.16375370300005,42.921153870000055],[76.09057987500006,42.93427968400003],[76.06453495300008,42.933969626000035],[75.99911259000004,42.917639873],[75.97658166500008,42.91872507699999],[75.89803348800007,42.93570078500001],[75.85896610600014,42.93980906200001],[75.80705855990459,42.93677099488548],[75.80677371583431,42.936966051542015],[75.7734940939772,42.95975535692418],[75.58260135336974,42.98027090098128],[75.65112430184502,43.01706452121067],[75.56813195232769,43.070497951918924],[75.45154992079216,43.10620636742988],[75.36535363126501,43.15777944616451],[75.33558800598166,43.19508983033137],[75.32215213371398,43.219894518217416],[75.31398725810544,43.25183055293763],[75.29714074115225,43.297719224762375],[75.3602893410802,43.39673126893291],[75.4281921728305,43.468483994940414],[75.3439595889638,43.50333974883034],[75.25424930196368,43.50359813124874],[75.22262332560598,43.53372549083872],[75.18324588389038,43.52230499927629],[75.10263065028425,43.53643850443342],[75.01798465436826,43.562715968866826],[75.27295617089055,43.87711538316836],[75.31843143066595,43.96690318543364],[75.32649295438631,44.0783434115192],[75.2472213070177,44.15115550382342],[75.14882937957219,44.22076365791645],[74.9786072117534,44.291121120843],[74.75867231627433,44.31341950070936],[74.6105676611686,44.4128707953509],[74.55744428882286,44.516662909765444],[74.5395642430953,44.65533661649164],[74.1556083524435,44.90759512031855],[74.11158003079373,44.97363760009512],[74.09463016105303,45.059937242409774],[73.99747846885623,45.07585358337616],[73.89981001182258,45.07763642008467],[73.81320031114541,45.17217845327298],[73.84678999226429,45.25832306595669],[74.09411339711556,45.26933014636916],[74.07065229726567,45.316872463693244],[74.05308230990067,45.370822659238286],[74.03044803325008,45.53582550724133],[74.05638960179863,45.77679271071503],[74.1843404480532,45.95585154950936],[74.76187625538483,46.39951955788126],[75.40276736821943,46.67947663034221],[75.6361381368655,46.669942328275795],[75.89596723799758,46.689966945917774],[76.16096398300141,46.68125946705072],[76.3284989774458,46.649891873111414],[76.38213911282975,46.65480113456471],[76.39030399023693,46.646248684429224],[76.40208621610594,46.64459503803056],[76.40704715440262,46.662630113389014],[76.49024621039428,46.629092109113515],[76.51040001834616,46.61519114795311],[76.52021854035331,46.61358917929715],[76.52435265455131,46.62537140606554],[76.52466271381314,46.63942739505819],[76.52600630094997,46.64617117006344],[76.53003706236052,46.650124417108145],[76.53809858608082,46.65578298649558],[76.54802046087553,46.66095062946795],[76.59721642369897,46.675755927294176],[76.60961876809165,46.67503245688238],[76.66057173010125,46.66604075807447],[76.68196577330178,46.6657823765554],[76.70160281821546,46.671156725102776],[76.72237674289232,46.68371409822703],[76.72826785717581,46.67529083930077],[76.73002485456334,46.66547231729356],[76.72630415241468,46.65624807448904],[76.71555545442067,46.64958181384958],[76.73012820825016,46.631417548181275],[76.75741336483486,46.61785248470437],[76.85053429562123,46.591575019371646],[76.907378371015,46.568010565834925],[76.93528364522399,46.56020742453302],[76.90975548692614,46.58542552356903],[76.86831098766191,46.61800751433532],[76.832860956368,46.65252737144101],[76.82541954937267,46.68371409822703],[76.84019900877718,46.690742092273695],[76.8615930519777,46.68169871752178],[76.91130577963798,46.64071930625096],[76.92040083213266,46.63679189672865],[76.93218305890099,46.635293280860196],[76.94417199124439,46.63596507442861],[76.9693900902804,46.64211457023123],[77.01920617072818,46.6468688011542],[77.06271772664172,46.63560333922271],[77.10075158122044,46.61051443139587],[77.13392785029004,46.57385000327503],[77.13547814300188,46.56615021386125],[77.1325842631532,46.55994904211457],[77.13403120307754,46.55400625278634],[77.14819054575707,46.547184964314624],[77.15966271416289,46.546616523533714],[77.22766889780138,46.55855377903367],[77.24048465424335,46.57116282810199],[77.25050988182556,46.5868207875493],[77.26363569483141,46.60118683490447],[77.2835827981076,46.611754665745195],[77.3070438979575,46.6179816759136],[77.3892094260741,46.62358856935697],[77.46290001842107,46.64211457023123],[77.4916321149301,46.64017670299245],[77.51199262935631,46.64883250591538],[77.59963585790848,46.675755927294176],[77.61110802631435,46.81665172030063],[77.58092898988093,47.17484691045655],[77.6558598156779,47.20192536146624],[77.85109337785707,47.17980784785385],[77.94803836537824,47.23179433953709],[78.04622358634941,47.25964793600343],[78.11009565578985,47.213862616966196],[78.2752535343231,47.30429637347885],[78.5620577327781,47.194173896108396],[78.63988244022238,47.14564972595406],[78.73662072126922,47.135211087221876],[78.80462690580703,47.068729356074925],[78.94839074113975,47.0573863797776],[79.04461225824906,47.06477610903016],[79.30847212079169,47.03103139917971],[79.49140669136568,46.86202362728852],[80.01871300709956,46.87954193781013],[80.26706993982583,46.81523061789869],[80.27130740771065,46.770969754050896],[80.34954552630495,46.73632070573598],[80.7794934433677,46.59198843052161],[81.05492882710365,46.54367096594228],[81.16685997870502,46.54026032215614],[81.23300581306779,46.51586904631938],[81.26101443916502,46.49080597601494],[81.37325565002817,46.49390656233794],[81.41004927025756,46.47488963504861],[81.41408003076879,46.44938731517243],[81.60476606580124,46.39019196228918],[81.6475541522023,46.310920314920565],[81.91348107319294,46.063493557281845],[81.98355431527938,45.90298655958202],[82.08453006421104,45.80573151279907],[82.13972049410546,45.688994452531915],[82.12504438658914,45.587656969293676],[82.2745959816192,45.54838288036564],[82.29671349523159,45.55442902338069],[82.29713742575154,45.55454491091888]],[[76.9617682262226,43.19233568804157],[77.00243960170621,43.22343732817012],[77.03114880777122,43.288033041591575],[77.03354124183483,43.37894552791374],[76.99633568804154,43.401158385850806],[76.93784388828476,43.388515263268744],[76.90195738002905,43.36459092443158],[76.86846330583688,43.33109685113874],[76.83736166660759,43.29042547565513],[76.80865245964327,43.271286004945125],[76.80865245964327,43.22343732817012],[76.84453896789904,43.20190542339657],[76.9067422481562,43.2042978565608],[76.9617682262226,43.19233568804157]]]},"properties":{"adm1_code":"KAZ-3207","name":"Almaty","name_alt":"Alma-Ata|Alma-Atinskaya Oblast'|Almatinskaya Oblast'","name_en":"Almaty","adm0_a3":"KAZ"}}