{"type":"Feature","geometry":{"type":"Polygon","coordinates":[[[26.928465204105862,56.831105048459165],[26.96618899942274,56.809555976527065],[26.984017368306866,56.80593862626654],[27.017555372582365,56.80650706614813],[27.03228315604281,56.80133942317582],[27.05791466622884,56.80035757124489],[27.067526482661037,56.805318509541564],[27.095586785601654,56.80924591726523],[27.12137332541863,56.81061534282378],[27.133155552186963,56.808212389390235],[27.160750767134175,56.81136465075798],[27.186072218957747,56.79379466429231],[27.24317467587059,56.78919546210085],[27.33986128097331,56.78268423109239],[27.403722515381787,56.78477778176921],[27.45549777969876,56.771833965465134],[27.471030359263636,56.740768807234645],[27.486312289680427,56.69338735614156],[27.480266147564635,56.68082998301725],[27.470344272769978,56.6742154001206],[27.472049595112708,56.663259996551574],[27.476390414885714,56.65845408788584],[27.488017612023157,56.6533122833352],[27.50181522039611,56.65576691271281],[27.512408887859863,56.65483673852464],[27.524811232252546,56.6517878281457],[27.541554396418235,56.64506989246155],[27.551631300843837,56.6367499863228],[27.58020836772198,56.61943838227552],[27.561449822851046,56.59964630773089],[27.56113976358921,56.57592682636192],[27.574317254337814,56.55696157501666],[27.56656578987929,56.54171702671937],[27.551166212850433,56.53510244382272],[27.538453810095234,56.53153677040558],[27.52512129061506,56.52928884480434],[27.506827833737532,56.52807444887668],[27.493753695776434,56.520865586777404],[27.486777377673832,56.514896959027396],[27.48600223221723,56.50885081601234],[27.487087436935667,56.49949738199854],[27.495459019018483,56.48802521449204],[27.49638919410603,56.47792247254404],[27.508688184811888,56.46017161712638],[27.549925977601788,56.47856842679141],[27.55938276530236,56.46446076095532],[27.559692823664875,56.45709687012442],[27.571681756008218,56.442808336235714],[27.581603630802874,56.43360993095354],[27.58966515542255,56.428313096771944],[27.59214562322194,56.42438568814896],[27.591060417604183,56.42182770418515],[27.596486443894264,56.41898550117992],[27.60253258601,56.41857208913058],[27.60795861230008,56.42048411704832],[27.62180789571778,56.42069082352265],[27.620412631737565,56.407151598467465],[27.62397830605397,56.40107961703069],[27.62242801334213,56.39247549095114],[27.640411410957825,56.37878123626501],[27.670383741816238,56.37180491816241],[27.689917433043092,56.36061696969739],[27.689607374680577,56.35470001879082],[27.68759199397533,56.347258612694816],[27.690227492304928,56.332375800502746],[27.69890913275026,56.321988836815365],[27.711001417881107,56.31113678693316],[27.71549726728506,56.29847606102135],[27.68681684672009,56.2763068714649],[27.68681684672009,56.26287099919722],[27.694258253715418,56.26075226480515],[27.69890913275026,56.25806509143081],[27.70045942636142,56.25501618105187],[27.69255293137269,56.24982270055716],[27.683561231665465,56.24726471569403],[27.667593214755016,56.240236720748044],[27.651573521001183,56.249745185292056],[27.568116081691812,56.24230377919605],[27.551631300843837,56.245481878985515],[27.54822065615832,56.24824656852428],[27.535043166309038,56.26111400001105],[27.528066847307116,56.25739329696307],[27.52357099790322,56.24824656852428],[27.508998244073666,56.24111522079079],[27.488947788009966,56.23501740183161],[27.466933628084462,56.23346710911977],[27.44724490722666,56.22990143480337],[27.44068200027408,56.223674425534284],[27.447865024851012,56.209385890746205],[27.420683221053764,56.210574449151466],[27.412001580608433,56.207163805365326],[27.33908613461739,56.21026439078895],[27.29593631390975,56.203029690267954],[27.173049757840033,56.208300686027826],[27.162301059846016,56.210781154726476],[27.15082889233952,56.208429877236995],[27.125869174822526,56.19584666569102],[27.102408074972686,56.18907705316343],[27.099617547012144,56.18638987888977],[27.0976021663069,56.18199738227332],[27.09822228393125,56.179568590418114],[27.101632927717446,56.17075775786418],[27.07760338708664,56.170912787495126],[27.054193963180865,56.17331574182799],[27.04406538281114,56.17595124015759],[27.038019239796085,56.180111191877984],[27.03460859511057,56.186648261308164],[27.035693800728325,56.19812042881472],[27.034298536748054,56.2077839220903],[27.028872512256612,56.21543203376132],[27.01569502060869,56.22416535105009],[27.001587354772596,56.2305732292711],[26.99724653499959,56.23858307614802],[26.988513217710818,56.247936510161765],[26.986187777743737,56.26323273440312],[26.95983279804517,56.284032498401075],[26.949135775995273,56.29775259150887],[26.946500277665677,56.30431549756213],[26.944329868228806,56.3129454620634],[26.950841099237323,56.319663397747604],[26.97580081585494,56.32012848574101],[26.991148716040414,56.33149730135932],[26.966499057785256,56.35906667698555],[26.951771275224132,56.37263174136177],[26.89761437320476,56.41131155108718],[26.89993981317184,56.41846873634307],[26.910016716698124,56.425083320139095],[26.914667595732965,56.43340322537853],[26.92536461778286,56.447614244002125],[26.992109165005957,56.45082732741918],[27.03352937717898,56.44823856415837],[27.041295666062126,56.46635990698411],[27.007641744570833,56.523312697822746],[27.00505298131003,56.562144145835646],[26.981754112862006,56.59320930406608],[26.9144462689801,56.600975593848545],[26.883381110749667,56.63721827860064],[26.852315952519177,56.65792838468718],[26.808306977984614,56.66569467446965],[26.772557406798853,56.681010851069914],[26.78294436958697,56.707391669190145],[26.907536247999417,56.817979234554],[26.928465204105862,56.831105048459165]],[[27.3390690169216,56.47490562749266],[27.355497216923027,56.49498453900526],[27.360973283290377,56.52053951778447],[27.365536672679298,56.538793073541456],[27.36371131692374,56.555221273542884],[27.340169016386994,56.560760606316876],[27.31005633912872,56.55334792816433],[27.274284355038958,56.51554640804028],[27.28463940808217,56.48965877543213],[27.3390690169216,56.47490562749266]]]},"properties":{"adm1_code":"LVA-1066","name":"Rezeknes","name_alt":"","name_en":"Rēzekne","adm0_a3":"LVA"}}