{"type":"Feature","geometry":{"type":"Polygon","coordinates":[[[25.48819135874419,56.99445425096286],[25.503922960975842,56.99481879744951],[25.50399548410428,56.994820478282406],[25.51718183767167,56.995126044531276],[25.565137567045042,56.98210358341362],[25.582345819204193,56.98189687783861],[25.60270633273103,56.98437734653726],[25.634022250726275,56.99471263338131],[25.638518101029547,56.994764309325376],[25.638518101029547,56.99295563419514],[25.636967808317706,56.99021678307804],[25.63913821775452,56.98448069932476],[25.63355716273287,56.97486888289262],[25.629526401322323,56.96308665612423],[25.69732588118444,56.98613434482411],[25.705439080848862,56.99367910370762],[25.727143182411908,56.99869171794842],[25.754893426090746,56.99329153097932],[25.769517856763684,56.98349884739389],[25.77943973155834,56.98101837779586],[25.7875012552787,56.9816901722636],[25.79602786609314,56.98499746416161],[25.81370120624564,56.98675446244846],[25.8225895531653,56.98499746416161],[25.82972089999953,56.982413641776134],[25.833906691040966,56.97972646840179],[25.83747236535737,56.97678091081036],[25.841813185130377,56.97383535411825],[25.844913770554058,56.970269679801845],[25.85033979684414,56.9663681104999],[25.854060499892114,56.962569892186764],[25.886358269818288,56.96422353768611],[25.920376467100255,56.94387219454609],[25.9438616292108,56.93291245264754],[25.95325569369527,56.92508406467783],[25.946992984038957,56.90629593480952],[25.9156794339587,56.90629593480952],[25.890628594434077,56.90003322515321],[25.85931504525314,56.90629593480952],[25.835829883142594,56.90003322515321],[25.807647688789814,56.895336192910975],[25.774768461295423,56.890639160668684],[25.76850575163911,56.87967941787082],[25.74815194435672,56.86715399855814],[25.757546009740565,56.85149722351804],[25.765487095353137,56.82818533018883],[25.746366815276303,56.825937405486854],[25.73970055463684,56.81836680818162],[25.74838219598155,56.81467194355531],[25.748847283974953,56.80883250611521],[25.746366815276303,56.80113271850013],[25.734274530145456,56.789350490832476],[25.73024376783559,56.78232249588643],[25.692209914156194,56.77048859317398],[25.66880049025042,56.78898875652584],[25.641618687352548,56.79211518037124],[25.605186802329058,56.80247630473764],[25.561726922359583,56.80257965842446],[25.505399610903282,56.81309581242175],[25.506484815621718,56.826712550943455],[25.504779494178308,56.833068753220346],[25.501058791130276,56.84195709924069],[25.49206709232243,56.84624624306963],[25.483953891758688,56.85384267789726],[25.484884066846178,56.85704661700777],[25.483643833396172,56.867175198276755],[25.55568078024379,56.873944810804346],[25.53408003056893,56.88495189121676],[25.52772383009068,56.890067857345684],[25.520747511988077,56.89420197244306],[25.51594160332229,56.89792267549103],[25.516251661684805,56.903193671250904],[25.519197219276236,56.90789622712913],[25.524003127042647,56.913632310882406],[25.532219678595254,56.92140961376265],[25.53159956187028,56.93264923817179],[25.522762891794002,56.943501288053994],[25.516871779309156,56.95631704449596],[25.508345167595394,56.964481920104504],[25.507725050870363,56.97275014939987],[25.49268720904746,56.98127676021426],[25.48819135874419,56.99445425096286]]]},"properties":{"adm1_code":"LVA-5786","name":"Erglu","name_alt":"Wolmar","name_en":"Valmiera","adm0_a3":"LVA"}}