{"type":"Feature","geometry":{"type":"Polygon","coordinates":[[[25.26350142400011,58.07513844900008],[25.281691528000067,58.07340728800001],[25.29957157400011,58.065604147],[25.30639286300007,58.05873118100003],[25.31827844300011,58.040618592],[25.32458296700011,58.034753317000096],[25.333678019000104,58.03180776000001],[25.33987919100008,58.03258290600003],[25.346390421000137,58.034443258000024],[25.356519002000084,58.034753317000096],[25.396619914000098,58.02317779600007],[25.41973136714802,58.008250005422155],[25.40683425549645,57.991310424136714],[25.403702900668293,57.97095661685438],[25.37082367317396,57.9693909394403],[25.345772833649335,57.96625958461209],[25.3410758014071,57.9850477144804],[25.326984703781022,57.991310424136714],[25.301933864256398,57.97095661685438],[25.27844870214585,57.953734165299466],[25.261226250590994,57.93807739025931],[25.270620315075462,57.913026550734685],[25.30036818684232,57.905198163664295],[25.336378769164867,57.90363248625022],[25.358298253861335,57.88171300155375],[25.381783415971825,57.88327867896783],[25.40683425549645,57.84726809664534],[25.41779399739505,57.815954547464344],[25.452238902303463,57.815954547464344],[25.45537025713162,57.78933803052564],[25.37865206114367,57.78777235311156],[25.31289360705432,57.78307532086933],[25.270620315075462,57.778378287727776],[25.267488960247306,57.79560074018201],[25.245569475550838,57.800297772424244],[25.25026650779307,57.820651579706634],[25.247135152964916,57.85196512888757],[25.217387281198057,57.87231893616996],[25.212690248955823,57.88797571121006],[25.19546779650159,57.905198163664295],[25.16728560214881,57.91459222814876],[25.134406374654475,57.93024900318892],[25.12501231016995,57.95060281047131],[25.13753772948263,57.95686552012762],[25.13284069724034,57.97721932741001],[25.10465850288756,57.981916359652246],[25.095264438403092,58.003835844348714],[25.10465850288756,58.02575532904518],[25.10935553512985,58.044543458913495],[25.094209432000127,58.06730946900005],[25.141028280000057,58.06800710100005],[25.166969848000093,58.05873118100003],[25.180715780000128,58.03816396100005],[25.189914184000116,58.013514303000036],[25.20210982200004,57.991965230000076],[25.21678593000013,57.985376486000106],[25.232495565000107,57.985376486000106],[25.264534953000094,57.9941873180001],[25.2843787030001,58.00813995400007],[25.277557414000057,58.024107972000124],[25.24954878800014,58.05118642200007],[25.250685669000035,58.06849802699999],[25.26350142400011,58.07513844900008]]]},"properties":{"adm1_code":"LVA-5796","name":"Rujienas","name_alt":"Wolmar","name_en":"Valmiera","adm0_a3":"LVA"}}