{"type":"Feature","geometry":{"type":"Polygon","coordinates":[[[25.552890252283305,57.792390041766964],[25.564827507783264,57.7826490341256],[25.596281229794897,57.77368125548554],[25.616635037077288,57.758024480445386],[25.660474006470224,57.750196093374996],[25.688656200823004,57.737670674062315],[25.67143374836877,57.72044822160814],[25.62133206931952,57.71888254419406],[25.611938004835054,57.70792280139614],[25.60097826203713,57.69696305949759],[25.60097826203713,57.66878086514481],[25.53020429878933,57.659064846065746],[25.509895461206554,57.6461974154783],[25.53330488511233,57.62945425131261],[25.57102276468885,57.61946119967462],[25.591234165224535,57.61410635022787],[25.569664712856195,57.59206266825748],[25.53678548536186,57.58423428118709],[25.507037613594946,57.56701182873286],[25.480421096656244,57.54822369976392],[25.456935934545697,57.537263956966],[25.43971348209152,57.55605208683431],[25.41153128773874,57.55605208683431],[25.37865206114367,57.549789377178],[25.352035544204966,57.56701182873286],[25.31289360705432,57.58579995860117],[25.27844870214585,57.59362834657088],[25.269054637661384,57.61554783036803],[25.23147837792476,57.639032992478576],[25.225215668268447,57.64842705786242],[25.198599151329745,57.65468976751873],[25.189205086845277,57.673477897387045],[25.156325859350886,57.66251815458912],[25.121880955341794,57.653124090104654],[25.09374515071812,57.653122056737516],[25.085321892691184,57.67461945272555],[25.092453241323994,57.68823619214652],[25.082221307267503,57.69689199506951],[25.075710077158305,57.70593537072074],[25.07617516425239,57.71451365837862],[25.080205925662938,57.72123159406277],[25.08718224466486,57.72717438429038],[25.090902947712834,57.73125682254431],[25.098706089014797,57.73601105436666],[25.083616571247774,57.75414948251256],[25.077260369870146,57.767171942730954],[25.017469133393774,57.796470091421554],[25.034203016555978,57.814388870050266],[25.06081953349468,57.81282319263619],[25.092133083574936,57.81282319263619],[25.112486889958006,57.800297772424244],[25.128143664998106,57.798732095010166],[25.13284069724034,57.808126160393954],[25.123446632755872,57.826914289362946],[25.112486889958006,57.83787403216081],[25.142234762624184,57.84413674181718],[25.157891536764964,57.83317699991858],[25.22364999085437,57.80499480466648],[25.245569475550838,57.800297772424244],[25.267488960247306,57.79560074018201],[25.270620315075462,57.778378287727776],[25.31289360705432,57.78307532086933],[25.37865206114367,57.78777235311156],[25.45537025713162,57.78933803052564],[25.494512194282322,57.78933803052564],[25.552890252283305,57.792390041766964]]]},"properties":{"adm1_code":"LVA-5784","name":"Burtnieku","name_alt":"Wolmar","name_en":"Valmiera","adm0_a3":"LVA"}}