{"type":"Feature","geometry":{"type":"Polygon","coordinates":[[[25.729363815387728,57.57014318446039],[25.710575685519473,57.576405894116704],[25.724666782246175,57.58893131342933],[25.707444330691317,57.603022411055406],[25.694918910479316,57.61554783036803],[25.66360536129838,57.618679186095505],[25.63072613380399,57.62024486350964],[25.591234165224535,57.61410635022787],[25.57102276468885,57.61946119967462],[25.53330488511233,57.62945425131261],[25.509895461206554,57.6461974154783],[25.53020429878933,57.659064846065746],[25.60097826203713,57.66878086514481],[25.60097826203713,57.69696305949759],[25.611938004835054,57.70792280139614],[25.62133206931952,57.71888254419406],[25.67143374836877,57.72044822160814],[25.688656200823004,57.737670674062315],[25.73508878801715,57.73038050335754],[25.847416184509314,57.75235760222154],[25.82788098511935,57.70596150412007],[25.857183784204267,57.70351960374671],[25.85962568457768,57.68398440435675],[25.989046380086336,57.6717749051877],[25.979278780391382,57.64979780542433],[25.95974358100142,57.62049500633947],[25.932882681390595,57.608285507170365],[25.876718983594174,57.60340170732292],[25.901137982831642,57.58875030778046],[25.903579882305678,57.569215108390495],[25.888928482763276,57.54967990900059],[25.896254182984137,57.530144709610624],[25.94509218145896,57.530144709610624],[25.95974358100142,57.515493310068166],[25.95974358100142,57.49595811067826],[25.935324581764007,57.476422911288296],[25.896254182984137,57.48619051098325],[25.83520668534021,57.49351621120417],[25.77633413960882,57.49968769812875],[25.821738785516516,57.52473853765338],[25.809213366203892,57.537263956966],[25.779006690006725,57.52979719988082],[25.743454912114487,57.534132602137845],[25.73406084763002,57.546658022349845],[25.771637106467267,57.54822369976392],[25.78259684926519,57.55292073200616],[25.752848977498275,57.57014318446039],[25.729363815387728,57.57014318446039]]]},"properties":{"adm1_code":"LVA-5795","name":"Strencu","name_alt":"Wolmar","name_en":"Valmiera","adm0_a3":"LVA"}}