{"type":"Feature","geometry":{"type":"Polygon","coordinates":[[[26.31150027821525,57.49933299382258],[26.311035191121164,57.469774075013504],[26.325969679257298,57.46760366557669],[26.312740512564574,57.45866364181359],[26.304523960112647,57.455356349915576],[26.29615237802983,57.45000783978992],[26.293516879700235,57.44269562400382],[26.300803257064615,57.438974920955786],[26.308554722422457,57.43615855637228],[26.315065951632334,57.43313548441506],[26.318941685210575,57.42900137021701],[26.320491977922416,57.42378205040126],[26.315065951632334,57.41809764349142],[26.312740512564574,57.409726061408605],[26.30979495587252,57.40220714004744],[26.302818637769917,57.39613515950998],[26.299097934721885,57.389468898870575],[26.301423373789646,57.37983124491598],[26.302043491413997,57.374844469096956],[26.286230503235117,57.36582693096807],[26.277548861890466,57.36471588782791],[26.276153598809515,57.331022853921525],[26.277083774796324,57.322961331100544],[26.28033938985095,57.31787120249396],[26.27568851081611,57.308336900427605],[26.264991488766157,57.30094717117498],[26.266645135164822,57.288854885144815],[26.26199425612998,57.2819302438856],[26.130271029984044,57.27647838007317],[26.10128055195588,57.27815786399418],[26.07580407140074,57.27412710258369],[26.058595819241646,57.26529043250741],[26.043713006150313,57.27996653912447],[26.02784834202737,57.28164602304548],[26.01296552893598,57.28782135726982],[25.991726515366395,57.290017605128355],[25.910697869710873,57.286736152551384],[25.904186638702413,57.288441473994794],[25.891319207215645,57.28831228278557],[25.880312126803176,57.28629690208032],[25.769871138342353,57.27871229153902],[25.754273309365715,57.27764110005671],[25.74512658092692,57.27510895451462],[25.736910027575675,57.28466909410338],[25.733034294896754,57.29660635050266],[25.73877037865003,57.31306529382823],[25.736599969213216,57.31939565678408],[25.740165642630302,57.326423651730124],[25.753343133378905,57.329679266784694],[25.75163781103612,57.33768911456099],[25.72218224501455,57.36130524404177],[25.704922316012073,57.38378449196068],[25.713965691663304,57.40099274411983],[25.667095167907632,57.452514146910346],[25.657948438569576,57.464606432041194],[25.67577680835302,57.472719631705615],[25.680117629025347,57.47959259702071],[25.718404072589863,57.49655634240128],[25.77633413960882,57.49968769812875],[25.83520668534021,57.49351621120417],[25.896254182984137,57.48619051098325],[25.935324581764007,57.476422911288296],[25.95974358100142,57.49595811067826],[25.95974358100142,57.515493310068166],[25.94509218145896,57.530144709610624],[25.97683688001797,57.54967990900059],[26.050093877730262,57.55944750869554],[26.094048076357637,57.55944750869554],[26.123350875442554,57.569215108390495],[26.155095574001507,57.547238009526495],[26.184398373086424,57.547238009526495],[26.240562070882845,57.54235420967899],[26.24544587073035,57.52281901028908],[26.282074370036128,57.52526090976312],[26.30160956942609,57.52770281013653],[26.31150027821525,57.49933299382258]]]},"properties":{"adm1_code":"LVA-5798","name":"Smiltenes","name_alt":"Wolmar","name_en":"Valmiera","adm0_a3":"LVA"}}