{"type":"Feature","geometry":{"type":"Polygon","coordinates":[[[26.088516473256618,56.406428128055666],[26.108876986783514,56.4058596872747],[26.144688755081972,56.389245714318236],[26.15698774578783,56.38033152897685],[26.160760124779927,56.372270006155816],[26.162878859171997,56.36332998329209],[26.163809035158806,56.34245270402903],[26.166961297425928,56.33718170826921],[26.18106896326202,56.320800279309424],[26.184272902372527,56.31547760670617],[26.18318769675477,56.29604726826676],[26.184272902372527,56.290931301238516],[26.186908399802803,56.28855418622669],[26.191714307569214,56.28540192306025],[26.196210157872486,56.28333486641094],[26.197915480215215,56.28411001186754],[26.197708774640205,56.27589346031493],[26.19527998188562,56.268762112581385],[26.19243777798107,56.262612616778824],[26.19109419084424,56.25739329696307],[26.189027134194873,56.2347331809915],[26.19352298359877,56.22607737896783],[26.208147414271707,56.22266673428231],[26.219361200259186,56.22168488235144],[26.239204949848556,56.21744741536588],[26.24943688300573,56.21646556343495],[26.264268019253677,56.210781154726476],[26.300803257064615,56.18334096941021],[26.32829511922438,56.1626703975208],[26.33656334762037,56.14944122992881],[26.340749138661806,56.13424835937428],[26.342609490635482,56.107893377877076],[26.345348341752526,56.09344981525675],[26.31630618688098,56.122724514125025],[26.315065951632334,56.13073436100194],[26.31863162594874,56.13499766730848],[26.320698682598106,56.14153473583934],[26.31754642123036,56.14592723245579],[26.31305057092709,56.15037140591562],[26.30498904810605,56.15347199223862],[26.282199740925307,56.15894969357345],[26.25718834836357,56.16207611831817],[26.243390740889936,56.167062893237926],[26.219671257722325,56.166029365362874],[26.205821974304627,56.16360057170897],[26.138952671328695,56.13109609620784],[26.15135501482206,56.12101919178224],[26.15306033716479,56.11828034156446],[26.152440220439814,56.109185289069785],[26.129340854896498,56.0983849151317],[26.120504184820277,56.100710354199464],[26.108566929320318,56.101485501454704],[26.097559848907906,56.09600779922056],[26.09239220593554,56.08959992099955],[26.079369744817825,56.07879954706141],[26.05890587670484,56.067740789805555],[26.046296827636468,56.06634552672466],[26.036995069566785,56.068567613004916],[26.02552290206029,56.07941966378644],[26.012188109093927,56.10835718703453],[25.98547398333767,56.11058336343143],[25.976569275051986,56.12839278090206],[25.976569275051986,56.14842837566897],[25.94762897199945,56.157333083954654],[25.905331606068728,56.17069014683278],[25.8964268977831,56.20185662628222],[25.87639130301619,56.22189222104913],[25.83854629167803,56.22634457474231],[25.80070128033981,56.23524928392726],[25.756177738012184,56.230796929334815],[25.69384477821393,56.228570752038536],[25.6804877153358,56.29312988913307],[25.73391596684837,56.299808421021794],[25.736142143245274,56.32874872317501],[25.73391596684837,56.35101049523814],[25.794022749350404,56.35991520352377],[25.842998646270473,56.4133434550364],[25.809605989524755,56.444509934485836],[25.82073687510666,56.48680730041656],[25.845224823566753,56.477902592130874],[25.883069834904916,56.47567641483465],[25.87655683672864,56.495306707638406],[25.925696060424855,56.48375371176434],[26.043223503361958,56.45612213722683],[26.055267774588117,56.45136139521219],[26.06405683725319,56.43683502841378],[26.080332878259696,56.41791412983321],[26.088516473256618,56.406428128055666]]]},"properties":{"adm1_code":"LVA-5725","name":"Jekabpils","name_alt":"","name_en":"Jēkabpils","adm0_a3":"LVA"}}