{"type":"Feature","geometry":{"type":"Polygon","coordinates":[[[21.328187478569248,56.97362864854324],[21.360118035000085,56.98969147300005],[21.38249759200005,57.00893789300005],[21.401621941000087,57.03750234600005],[21.413584832000083,57.07318756700005],[21.414805535000085,57.11383698100008],[21.41187584700009,57.12445709800005],[21.401052280000044,57.15131256700005],[21.403168165000068,57.16205475500004],[21.41260826900009,57.176214911000045],[21.414805535000085,57.184881903000075],[21.41260826900009,57.250067450000074],[21.414805535000085,57.27090078300006],[21.421397332000083,57.288723049000055],[21.433604363000086,57.30646393400008],[21.449473504000082,57.320013739000046],[21.46656334700009,57.325506903000075],[21.48023522200009,57.333644924000055],[21.51153377240638,57.37865780663425],[21.527651608135216,57.35824810396679],[21.541985133307264,57.34096355962055],[21.565593292096764,57.34222828160989],[21.591730896663535,57.360777549744114],[21.62636763865561,57.35455976751922],[21.621475510186656,57.38941661858206],[21.674789213251586,57.40088134150068],[21.642327994241498,57.45695071840089],[21.632631786327863,57.4666469272139],[21.621669658996623,57.47323629193932],[21.699229363000086,57.55532461100006],[21.729665561000047,57.57379791900007],[21.771657748000052,57.58612702000005],[21.955902540000068,57.592962958000044],[21.999278191000087,57.60032786700003],[22.194509311000047,57.65761953300006],[22.20642785016514,57.626870428927134],[22.21293908117366,57.62092763869953],[22.22379113105586,57.6231497258791],[22.235625033768258,57.619739081193586],[22.247097202174132,57.59958527324176],[22.245391879831345,57.588319811310214],[22.250352817228702,57.57604665812676],[22.25903445767409,57.56429026978009],[22.268491245374662,57.55545359970381],[22.272056918791748,57.54909739922556],[22.27422732912794,57.51731639323691],[22.271901890060178,57.50723948791199],[22.203792351835546,57.48390757927132],[22.189529657267826,57.476388657910206],[22.174491815444924,57.471892809405574],[22.17728234160677,57.46512319597866],[22.17743737213698,57.45912872980699],[22.16668867414296,57.45101553014257],[22.137853223947104,57.43752798103145],[22.077960239073775,57.423161932776964],[22.15165083232006,57.4046100943803],[22.186429070944826,57.40158702332246],[22.24492679183794,57.40709056307901],[22.259573101217654,57.397945550546694],[22.27670779782659,57.38724681348964],[22.28213382321735,57.38135569920615],[22.28600955589627,57.35115082525033],[22.28600955589627,57.33427846897615],[22.294897901916613,57.32146271433277],[22.308850539021137,57.288854885144815],[22.304199659986296,57.28647777013293],[22.30140913292513,57.27645254255077],[22.297068312252804,57.271129869048195],[22.273762241134477,57.26503205008902],[22.233092889125544,57.243379625369414],[22.19402550577246,57.212373765736686],[22.188134393287612,57.198731187894],[22.190304802724427,57.19532054320848],[22.20410241109738,57.19082469290521],[22.20642785016514,57.177853909530256],[22.19960656079411,57.16612335870599],[22.19635094573954,57.15754507104816],[22.19557579938362,57.153385118428446],[22.195110711390214,57.14907013617784],[22.195265741021103,57.13209442801542],[22.194335565034294,57.128089505026594],[22.192475213060618,57.12457550755363],[22.172734816258753,57.116565659777336],[22.09516849123287,57.10163117074188],[22.07532474074418,57.10199290594784],[22.015276727139224,57.11372345587279],[21.996466506324168,57.10736725539448],[21.95197309668106,57.09842723253075],[21.93657352055152,57.09723867502481],[21.86009240114339,57.0993057325735],[21.84986046708684,57.09842723253075],[21.839938592292185,57.09300120713999],[21.82190351693373,57.08527558020381],[21.783094516898416,57.08519806583803],[21.789502394220108,57.09527497026363],[21.789812452582623,57.09982249651097],[21.789192335857592,57.10411164033991],[21.766971470357078,57.10705719703196],[21.711574333988324,57.11684988151677],[21.692350702023248,57.11421438318723],[21.6640836926083,57.11630727825826],[21.65385176035045,57.11615224952669],[21.641449415957766,57.11421438318723],[21.626256545403237,57.10405996439579],[21.593028598590934,57.087265123386715],[21.573804965726595,57.08561147698805],[21.53902672710177,57.07057363516509],[21.506160516394687,57.07561208782755],[21.50300825412762,57.05827464535855],[21.489210645754667,57.051014106415835],[21.48486982598166,57.028509020075205],[21.473552687206734,57.0129544134154],[21.474947951187005,56.986444404085944],[21.472002393595574,56.9713548854196],[21.454329054342395,56.96029612906307],[21.446680941772,56.949650783856555],[21.39583133344928,56.94241608333556],[21.384772577092747,56.95652374917165],[21.362603386636977,56.96670400728408],[21.331752556635138,56.97362864854324],[21.328187478569248,56.97362864854324]]]},"properties":{"adm1_code":"LVA-934","name":"Ventspils","name_alt":"Windau","name_en":"Ventspils","adm0_a3":"LVA"}}