{"type":"Feature","geometry":{"type":"Polygon","coordinates":[[[26.013430616929384,57.22105540618202],[26.06216149265873,57.217179674402416],[26.076114128863935,57.21472504322611],[26.08929161961254,57.20989329703798],[26.102520786305206,57.20126333343609],[26.13166629396426,57.17201447209021],[26.16814985493187,57.14343740521207],[26.16582441586411,57.13423899992989],[26.161328565560837,57.128838812960794],[26.139882847315505,57.108452460112915],[26.1332165866761,57.097083645393866],[26.116783481772245,57.07806671810454],[26.089601677975054,57.086128241824895],[26.077044304850745,57.088221136895925],[26.064952019719897,57.08871206331105],[26.056270379274565,57.08442291948211],[26.05285973458905,57.08026296686239],[26.04882897317856,57.07677480691177],[26.038390334446376,57.076852322176876],[26.022577345368177,57.07951365802887],[25.949661900276453,57.10039093729188],[25.923100213204236,57.0974453797005],[25.881234529949552,57.09730858652205],[25.862446400081296,57.12079374863259],[25.83896123797075,57.12079374863259],[25.8045163339616,57.134884846258615],[25.774768461295423,57.15367297612693],[25.763808719396877,57.16932975116703],[25.771637106467267,57.19907762293394],[25.79825362340597,57.20847168741841],[25.81860743068836,57.20690601000433],[25.849920980768616,57.195946268105786],[25.86870910973761,57.18498652530786],[25.893759949262233,57.18498652530786],[25.94542730662488,57.191249234964175],[25.989266276017815,57.20690601000433],[26.013430616929384,57.22105540618202]]]},"properties":{"adm1_code":"LVA-5787","name":"Jaunpiebalgas","name_alt":"Wolmar","name_en":"Valmiera","adm0_a3":"LVA"}}