{"type":"Feature","geometry":{"type":"Polygon","coordinates":[[[23.517561482000133,56.32865590400006],[23.48159468600008,56.33010284500004],[23.37803970300007,56.354629849000034],[23.378345981781592,56.35490672526515],[23.384805535946725,56.36074616180588],[23.420203892195843,56.37588735641634],[23.430435825353015,56.37790273712159],[23.442373080852974,56.3820626897413],[23.449969516579927,56.38627431920446],[23.45694583468253,56.39164866775178],[23.46237186007329,56.39795319318529],[23.462061801710774,56.407151598467465],[23.449504428586465,56.42187938102859],[23.43942752506024,56.43665884133242],[23.430900913346477,56.44518545214686],[23.41880862821563,56.4494487584534],[23.413072543563032,56.45944814671458],[23.415397984429433,56.46146352831914],[23.42593997594912,56.46893077283687],[23.427800327023476,56.472884019881576],[23.43074588371553,56.47758657486054],[23.415087925167597,56.493296210251856],[23.4378772323484,56.499264838001864],[23.44748904788122,56.505621039379434],[23.45927127464961,56.52983144806285],[23.45865115702526,56.54481761304237],[23.44593875516938,56.55639313423575],[23.434466586763563,56.56409292275015],[23.432141147695802,56.57083669685602],[23.436792025831323,56.57706370702442],[23.448419223868086,56.57907908772967],[23.477151320377118,56.586933905875014],[23.4802519058008,56.59954295494339],[23.405941195829485,56.606441759579525],[23.412917514831406,56.61602773669068],[23.424699740700476,56.62212555654918],[23.438187289811538,56.63445038477738],[23.444543491189165,56.64155589498853],[23.476066114759362,56.65618032476215],[23.485367872829045,56.6602886014378],[23.48428266811061,56.66491364205092],[23.479786817807394,56.676773383185036],[23.481492140150124,56.68041657186728],[23.478236525095554,56.68480906848367],[23.462991977697584,56.69253469541985],[23.44268314011481,56.69679800082707],[23.417413364235358,56.706823229308554],[23.436481968368128,56.72387645093744],[23.45927127464961,56.734573472987336],[23.502886183350654,56.746872463693194],[23.525262079381434,56.763667303803004],[23.50552168078093,56.808212389390235],[23.48660810717837,56.815912177005316],[23.46195844892327,56.88422842080496],[23.506761916029575,56.8946153844924],[23.58763553205415,56.89120473890756],[23.600813022802754,56.889292710989764],[23.626237827413775,56.8892410350457],[23.66954267775236,56.874900825212876],[23.70726647306924,56.852137356453795],[23.718428582213278,56.835962633069016],[23.73408654076121,56.82200999596449],[23.769639926641275,56.80004751198305],[23.75971805184662,56.77188385715425],[23.764213901250514,56.768266506893724],[23.756307407161103,56.74413361347547],[23.701237802982178,56.7370280618955],[23.701237802982178,56.72093750965831],[23.670844537245557,56.71557399164635],[23.683359411107915,56.69769559977209],[23.710176999369025,56.70663479615888],[23.731209870339228,56.690498589838],[23.683804230181067,56.674098589877985],[23.644412690693116,56.677963454250005],[23.61795064670497,56.66954371257225],[23.631181668699014,56.65029858950828],[23.676992949365115,56.62989577007369],[23.67099294966488,56.60150141036178],[23.707587308907137,56.59188730875229],[23.739007050035298,56.6076591070821],[23.778804230530795,56.6175788486849],[23.769818331450836,56.636687308972114],[23.79194189750058,56.64688071966947],[23.82817438394062,56.62796987281138],[23.865719006427014,56.61545499894902],[23.912202824400822,56.6083036421993],[23.940808251399687,56.57969821520044],[23.96405016038659,56.55466846747578],[23.969413677499176,56.5189116837272],[23.99231367413671,56.502546292377474],[23.96265140074155,56.49784373649919],[23.95009402761724,56.48802521449204],[23.932110630001546,56.48275421783285],[23.920018344870698,56.47272899025069],[23.886015251702474,56.466114407353984],[23.875008172189382,56.462858792299414],[23.86167565270921,56.44849274404487],[23.847516310029675,56.43882925076929],[23.840695020658643,56.43417837173445],[23.84100507992048,56.43035431589891],[23.842710402263208,56.427408759206855],[23.85015180835927,56.42337799689699],[23.85046186672173,56.41846873634307],[23.84798139802308,56.411750799759545],[23.843020460625723,56.40182892496489],[23.838679639953398,56.39702301719848],[23.836664260147472,56.39325063730706],[23.836199172154068,56.387850450337965],[23.873922966571627,56.389478258314966],[23.879348992861708,56.38428477602156],[23.87361290910843,56.37376862202427],[23.870822381147946,56.36715403912757],[23.86865197081181,56.34327952722839],[23.871029086722956,56.33242747734619],[23.871106924844696,56.332072130024756],[23.85810917200007,56.334391989000025],[23.82503625500007,56.33490875300005],[23.756099894000045,56.32596873000004],[23.72499068200011,56.328810934],[23.72364709400003,56.33211822599999],[23.72478397600014,56.33839691200011],[23.723543742000118,56.34581248000002],[23.715068807000108,56.35273712200011],[23.706697225000113,56.35444244400007],[23.679412069000108,56.35185862200005],[23.609855591000013,56.353822327],[23.577712850000097,56.34860300700008],[23.517561482000133,56.32865590400006]]]},"properties":{"adm1_code":"LVA-1084","name":"Jelgava","name_alt":"","name_en":"Jelgava","adm0_a3":"LVA"}}