{"type":"Feature","geometry":{"type":"Polygon","coordinates":[[[24.916184929590827,57.555789496488046],[24.894945916021186,57.567158312106415],[24.88004640162012,57.58295324729448],[24.881437081755905,57.62467365766315],[24.93453006421106,57.612039293578505],[24.96631106930039,57.628420722538294],[24.991477492392335,57.63648224625865],[25.000159132837666,57.63586212773498],[25.005740186960054,57.636120510153376],[25.019072707339546,57.63813589085862],[25.024033643837583,57.63736074540208],[25.02759931815399,57.634260159079076],[25.03302534444407,57.630177720825145],[25.042378777558497,57.62583690015282],[25.061602411322212,57.62395071155606],[25.067803582169574,57.62645701777711],[25.084701775966153,57.629764308775805],[25.08330651198594,57.63410513034745],[25.075865105889932,57.63870433253891],[25.063307732765622,57.648109443396095],[25.062222528047187,57.65239858722498],[25.067028435813654,57.654982407811815],[25.09374515071812,57.653122056737516],[25.121880955341794,57.653124090104654],[25.156325859350886,57.66251815458912],[25.189205086845277,57.673477897387045],[25.198599151329745,57.65468976751873],[25.225215668268447,57.64842705786242],[25.23147837792476,57.639032992478576],[25.269054637661384,57.61554783036803],[25.27844870214585,57.59362834657088],[25.31289360705432,57.58579995860117],[25.352035544204966,57.56701182873286],[25.37865206114367,57.549789377178],[25.372389350588037,57.52786989248153],[25.37708638372959,57.50908176261322],[25.37865206114367,57.484030923088596],[25.392743157870427,57.465242793220284],[25.39879113100585,57.44124868407948],[25.404682245289393,57.43499583638874],[25.402511834053882,57.433548896464345],[25.39181481290325,57.42804535580848],[25.39863610227428,57.4111213244895],[25.39708580866312,57.4045325791152],[25.392900017621685,57.39820221615935],[25.39321007688352,57.39068329479818],[25.38685387460663,57.38605825508438],[25.35734663264094,57.38507640225413],[25.348975050558124,57.388900458089665],[25.33486738472203,57.39732371701592],[25.328976271337808,57.40344737439676],[25.322775098691807,57.40548859352373],[25.301174350815643,57.40367991839349],[25.27280398861319,57.4049201518435],[25.238180779619256,57.41504873311254],[25.21074059430299,57.416650703567086],[25.196891309985972,57.4218441840618],[25.184643996123498,57.430086574935444],[25.159684278606562,57.448250841503125],[25.14056399942899,57.46176422813659],[25.140874057791507,57.475019233250976],[25.123045688907382,57.49494049720613],[25.09777591302793,57.48796417910353],[25.079585808937907,57.50021149386532],[25.087802362289153,57.50372549133834],[25.087078891877354,57.50723948791199],[25.08082604328723,57.510830999750794],[25.06671837655182,57.51269135172447],[25.05385094596437,57.51176117573766],[25.04780480294926,57.51408661570474],[25.047029656593338,57.51576610052507],[25.05137047726572,57.51834992111196],[25.05137047726572,57.52449941691452],[25.046409538969044,57.535351467696046],[25.022328322394173,57.55529857007292],[25.004344923879103,57.56219737380974],[24.984346143759524,57.56390269615247],[24.9329797705999,57.55643545253406],[24.916184929590827,57.555789496488046]]]},"properties":{"adm1_code":"LVA-5788","name":"Kocenu","name_alt":"Wolmar","name_en":"Valmiera","adm0_a3":"LVA"}}