{"type":"Feature","geometry":{"type":"Polygon","coordinates":[[[25.602396275267893,57.468637193451684],[25.657948438569576,57.464606432041194],[25.6495142636723,57.44019195369566],[25.626029101561755,57.40574704968657],[25.605675294279365,57.39635298430278],[25.60254393945121,57.37756485443447],[25.575927422512507,57.380696209262624],[25.54617955074565,57.37756485443447],[25.511734645837237,57.36034240287955],[25.513300323251315,57.34625130525353],[25.533654130533705,57.338422918183085],[25.547745228159727,57.32120046572891],[25.555573615230117,57.30554369068875],[25.579058777340663,57.29614962620428],[25.597846907208975,57.28518988340636],[25.60097826203713,57.26483607702329],[25.599412584623053,57.24761362456911],[25.575927422512507,57.23665388177119],[25.560270647472407,57.22256278504449],[25.54617955074565,57.21316871966064],[25.522694388635102,57.20847168741841],[25.500774903938634,57.21630007538812],[25.500774903938634,57.24917930198319],[25.48981516114077,57.26327039960921],[25.466329999030222,57.27736149633597],[25.42718806277884,57.289886916547914],[25.394308835284505,57.302412335860595],[25.36299528610357,57.29614962620428],[25.331681736922576,57.29145259396199],[25.311327929640242,57.29614962620428],[25.323853348952866,57.30867504551691],[25.311327929640242,57.31337207865846],[25.273751669903618,57.318069110900694],[25.254963540035305,57.32589749797114],[25.23147837792476,57.330594530213375],[25.245569475550838,57.34781698266761],[25.286277090115618,57.36034240287955],[25.319156316710632,57.355645369738],[25.3567325764472,57.35721104715208],[25.37708638372959,57.36973646736408],[25.38685387460663,57.38605825508438],[25.39321007688352,57.39068329479818],[25.392900017621685,57.39820221615935],[25.39708580866312,57.4045325791152],[25.39863610227428,57.4111213244895],[25.39181481290325,57.42804535580848],[25.402511834053882,57.433548896464345],[25.404682245289393,57.43499583638874],[25.39879113100585,57.44124868407948],[25.4209603205623,57.447449855826164],[25.474497104957436,57.44254059527225],[25.500438674405302,57.450137030999144],[25.50943037321315,57.44701060715374],[25.519352248007806,57.44124868407948],[25.526793654103813,57.438199775499186],[25.547619255624113,57.44155874334132],[25.561106804735232,57.45101553014257],[25.602396275267893,57.468637193451684]]]},"properties":{"adm1_code":"LVA-5794","name":"Priekulu","name_alt":"Wolmar","name_en":"Valmiera","adm0_a3":"LVA"}}