{"type":"Feature","geometry":{"type":"Polygon","coordinates":[[[25.74512658092692,57.27510895451462],[25.754273309365715,57.27764110005671],[25.769871138342353,57.27871229153902],[25.76067736456872,57.2554420116395],[25.752848977498275,57.2444822697409],[25.745020589528565,57.21316871966064],[25.771637106467267,57.19907762293394],[25.763808719396877,57.16932975116703],[25.774768461295423,57.15367297612693],[25.8045163339616,57.134884846258615],[25.83896123797075,57.12079374863259],[25.862446400081296,57.12079374863259],[25.881234529949552,57.09730858652205],[25.923100213204236,57.0974453797005],[25.90759728428725,57.0700051952835],[25.906202020306978,57.06142690672635],[25.89953575966757,57.05016144479481],[25.896745232606406,57.03755239482712],[25.89566002788797,57.02626109537323],[25.904341668333302,57.01396210376805],[25.911162956805015,57.00675324256804],[25.919999626881236,57.00008698192863],[25.923565301197698,56.99295563419514],[25.920774774136476,56.98189687783861],[25.91782921744442,56.97523061809852],[25.886358269818288,56.96422353768611],[25.854060499892114,56.962569892186764],[25.85033979684414,56.9663681104999],[25.844913770554058,56.970269679801845],[25.841813185130377,56.97383535411825],[25.83747236535737,56.97678091081036],[25.833906691040966,56.97972646840179],[25.82972089999953,56.982413641776134],[25.8225895531653,56.98499746416161],[25.81370120624564,56.98675446244846],[25.79602786609314,56.98499746416161],[25.7875012552787,56.9816901722636],[25.77943973155834,56.98101837779586],[25.769517856763684,56.98349884739389],[25.754893426090746,56.99329153097932],[25.727143182411908,56.99869171794842],[25.705439080848862,56.99367910370762],[25.69732588118444,56.98613434482411],[25.629526401322323,56.96308665612423],[25.63355716273287,56.97486888289262],[25.63913821775452,56.98448069932476],[25.636967808317706,56.99021678307804],[25.638518101029547,56.99295563419514],[25.638518101029547,56.994764309325376],[25.634022250726275,56.99471263338131],[25.60270633273103,56.98437734653726],[25.582345819204193,56.98189687783861],[25.565137567045042,56.98210358341362],[25.51718183767167,56.995126044531276],[25.50399548410428,56.994820478282406],[25.51016896842316,57.008064971221415],[25.492946516868244,57.02685310108973],[25.507037613594946,57.036247165574196],[25.528957098291414,57.020590390534096],[25.547745228159727,57.020590390534096],[25.58688716441111,57.050338262300954],[25.616635037077288,57.065995037341054],[25.618200714491365,57.08008613496713],[25.59471555238082,57.10983400673399],[25.56496768061396,57.112965361562146],[25.541482518503415,57.12235942694599],[25.563402002300563,57.147410266470615],[25.57279606768435,57.17089542858116],[25.575927422512507,57.203774655176176],[25.560270647472407,57.22256278504449],[25.575927422512507,57.23665388177119],[25.599412584623053,57.24761362456911],[25.60097826203713,57.26483607702329],[25.638554521773756,57.26483607702329],[25.669868070954692,57.274230141507815],[25.709010008105395,57.26640175443737],[25.74512658092692,57.27510895451462]]]},"properties":{"adm1_code":"LVA-5797","name":"Vecpiebalgas","name_alt":"Wolmar","name_en":"Valmiera","adm0_a3":"LVA"}}