{"type":"Feature","geometry":{"type":"Polygon","coordinates":[[[26.430678413000066,57.561764252],[26.430923706000016,57.56170725500009],[26.44756351700005,57.552922261999996],[26.481049846000133,57.5271357220001],[26.499550008000057,57.51581858300001],[26.515052938000082,57.517265524000024],[26.528695516000084,57.523880107000096],[26.542234741000073,57.52816925100008],[26.551743205000065,57.526825664000015],[26.570243367000074,57.519590963000056],[26.57985518300009,57.517833965000065],[26.59008711800007,57.52036610900005],[26.594841349000063,57.52648976700003],[26.59835534700011,57.53385365900003],[26.604763224000067,57.54031321300006],[26.634322144000095,57.55442087900009],[26.666981649000064,57.564859518000034],[26.70046797600014,57.57075063100005],[26.778085978000064,57.56847686800002],[26.795759318000137,57.571319071000104],[26.806003385248005,57.55384266750508],[26.808281793370043,57.51966654837247],[26.808281793370043,57.503717693316844],[26.758156820081183,57.503717693316844],[26.721702292826535,57.490047245483936],[26.71486706935974,57.464984758839535],[26.70347502964887,57.42397341624013],[26.687526174593245,57.417138192773336],[26.64423642477118,57.417138192773336],[26.614617121882645,57.419416600895374],[26.59422204021496,57.39130341242253],[26.567712029986183,57.39742706980343],[26.544405958867912,57.395618395572455],[26.531073439387683,57.39887400972776],[26.525802442728548,57.40187124326326],[26.52022138770684,57.40647044545466],[26.475831332649875,57.405075182373764],[26.480637241315605,57.38740184222121],[26.47924197823471,57.38238922798047],[26.47474612793144,57.375051175571286],[26.446840854621712,57.369160061287744],[26.43314659993564,57.3614085959299],[26.421054314804792,57.35794627530032],[26.397024774173985,57.35427724909573],[26.393924187850985,57.350711574779325],[26.394699334206905,57.34714590136224],[26.39904015487923,57.34401947751684],[26.404466180269992,57.342236639909004],[26.41113244001008,57.3428567575333],[26.424154901127793,57.34699087173129],[26.43004601361264,57.34600901980042],[26.43004601361264,57.33970449526623],[26.42353478440276,57.33215973638272],[26.359456007588676,57.3225479190512],[26.276153598809515,57.331022853921525],[26.277548861890466,57.36471588782791],[26.286230503235117,57.36582693096807],[26.302043491413997,57.374844469096956],[26.301423373789646,57.37983124491598],[26.299097934721885,57.389468898870575],[26.302818637769917,57.39613515950998],[26.30979495587252,57.40220714004744],[26.312740512564574,57.409726061408605],[26.315065951632334,57.41809764349142],[26.320491977922416,57.42378205040126],[26.318941685210575,57.42900137021701],[26.315065951632334,57.43313548441506],[26.308554722422457,57.43615855637228],[26.300803257064615,57.438974920955786],[26.293516879700235,57.44269562400382],[26.29615237802983,57.45000783978992],[26.304523960112647,57.455356349915576],[26.312740512564574,57.45866364181359],[26.325969679257298,57.46760366557669],[26.311035191121164,57.469774075013504],[26.31150027821525,57.49933299382258],[26.361781446656437,57.512820542933696],[26.362866652274192,57.5156369093159],[26.362556593911677,57.51984853787968],[26.35449507019132,57.52281993299346],[26.34984419115648,57.52966705988689],[26.344263137034147,57.533232734203295],[26.341162550711147,57.53778026045063],[26.3441081074032,57.54237946174271],[26.345658400115042,57.551913763809125],[26.35216963112356,57.56087962509457],[26.35697553888997,57.57069814710178],[26.352634719116963,57.576227525280046],[26.35132514973583,57.580203000867755],[26.430678413000066,57.561764252]]]},"properties":{"adm1_code":"LVA-5782","name":"Apes","name_alt":"Wolmar","name_en":"Valmiera","adm0_a3":"LVA"}}