{"type":"Feature","geometry":{"type":"Polygon","coordinates":[[[29.13718879172933,47.48400843214341],[29.140008993000095,47.48015208000005],[29.15561527500003,47.44999888100007],[29.163883504000097,47.43937937400007],[29.182073609000042,47.429870911000094],[29.192408895000142,47.4358137010001],[29.20186568200012,47.44658823700003],[29.218350464000082,47.45160085000002],[29.23261315900004,47.44632985500006],[29.250699910000094,47.42537506100008],[29.28139571100013,47.41147410100008],[29.288217001000078,47.40077708000008],[29.2927128500001,47.38886566200004],[29.30082605000007,47.378194479000044],[29.31467533300014,47.372716777000065],[29.330384969000136,47.37049469000006],[29.345836222000116,47.365843811000005],[29.358910360000095,47.352717998000045],[29.3640780020001,47.336879171000035],[29.36449141500009,47.32243560800002],[29.36759200000006,47.30822459000005],[29.370881518567217,47.30443393287965],[29.370693393885006,47.30434805032223],[29.369504836379065,47.30380544706372],[29.352141553689705,47.2871914741072],[29.354260288081832,47.27695954005071],[29.355448845587716,47.2635495062047],[29.347180617191725,47.25187063312319],[29.335811801573357,47.2428530949943],[29.302842238078824,47.22192413978718],[29.276590610268443,47.19639598238865],[29.29447065599595,47.150042223469825],[29.29638268391369,47.14381521330142],[29.298811475768957,47.13779490780871],[29.292624640115037,47.13589501354403],[29.292248568816376,47.135779527103466],[29.290875664680186,47.140192432934384],[29.29080162889204,47.14043040613831],[29.277934198304592,47.14244578684355],[29.264370795875493,47.14808058355209],[29.263878208412564,47.148285224283654],[29.24986022566884,47.158269254822244],[29.24951216015802,47.158517158340146],[29.236541374984427,47.16244456606387],[29.226722852977275,47.149267076214585],[29.220807335590052,47.149267076214585],[29.220521681230593,47.149267076214585],[29.2127652830913,47.15796133954416],[29.212615187141182,47.158129583813206],[29.200264519591883,47.1631163605316],[29.187603793680125,47.16285797811315],[29.178922153234737,47.15611420310796],[29.179697299590657,47.14533966669222],[29.187603793680125,47.134797675172535],[29.193753290382006,47.12384227250283],[29.189154087291286,47.11174998647266],[29.179128858809747,47.109527900192404],[29.166726515316384,47.112680162459526],[29.15608117010987,47.113610338446335],[29.147864617657945,47.09655711501881],[29.1300362478745,47.08177765651362],[29.1243001650206,47.07418121988735],[29.118902872069896,47.07796689625525],[29.09868297923606,47.09214918603607],[29.098513625203623,47.09226797118987],[29.08440595936753,47.09888255498589],[29.069620948448005,47.101421395081275],[29.069058058282735,47.10151805331549],[29.078359816352418,47.116865953500906],[29.094172803631977,47.13490102796004],[29.11194949657198,47.14988719293956],[29.144402297028364,47.16290965405727],[29.1631608418993,47.1919001329847],[29.178922153234737,47.197067775957066],[29.163264193787484,47.230812485807576],[29.163333323773827,47.230895741445295],[29.189567498441306,47.26249013900866],[29.174477979774906,47.290292060430204],[29.13355024624684,47.27907827444278],[29.125324314765294,47.27433059238291],[29.125178664164025,47.27424652825465],[29.150965203980945,47.24481679975548],[29.110140822341066,47.23360301376806],[29.073657261373512,47.2463154165232],[29.076654494009688,47.26982819321654],[29.07112511583142,47.29584727613087],[29.021670769690274,47.333131821876066],[29.003118931293614,47.351037706025295],[28.98187991682471,47.36333669673115],[28.999449904189703,47.37661754026726],[29.008389927053486,47.39638377549085],[29.02544314958169,47.40087962489474],[29.051384719029556,47.39038930931912],[29.06549238486565,47.40211985924407],[29.082390577762908,47.40640900307301],[29.09014204312075,47.43728567239583],[29.10709191286145,47.454158026871426],[29.110502556647646,47.46397654887858],[29.107970412004875,47.46942841179174],[29.108287200893585,47.46936462018107],[29.126832309663314,47.46563019527724],[29.13603071494549,47.479376125907436],[29.137115919663927,47.48371694657982],[29.13718879172933,47.48400843214341]]]},"properties":{"adm1_code":"MDA-1628","name":"Stîngă Nistrului","name_alt":"Dubăsari","name_en":"Transnistria","adm0_a3":"MDA"}}