{"type":"Feature","geometry":{"type":"Polygon","coordinates":[[[45.783903436094704,-19.882713717863794],[45.808139683199784,-19.854653415822497],[45.81325565022803,-19.845558364227145],[45.814960971671496,-19.840132337937064],[45.81775149873266,-19.821632174585204],[45.81930179234382,-19.81615447414964],[45.82364261211683,-19.807214451285915],[45.83046390238718,-19.800238132283994],[45.83857710115228,-19.793933607749807],[45.8458634776174,-19.786957288747885],[45.85144453263905,-19.77837900198938],[45.85361494297524,-19.773418063692702],[45.85532026531797,-19.767888685514436],[45.85857588127186,-19.729183038266626],[45.85764570528505,-19.721638278483795],[45.85128950390748,-19.699985853764133],[45.84927412320218,-19.68970224376352],[45.847878859221964,-19.674612725996496],[45.84570844888577,-19.663398940009074],[45.82395267137866,-19.614513034648837],[45.814340854946465,-19.578752944093083],[45.810310092636655,-19.569812921229357],[45.806434360857054,-19.56345671985173],[45.80286868743997,-19.559942721479445],[45.80038821784194,-19.553896580262972],[45.79976810111697,-19.545835055643295],[45.80147342256038,-19.5320891250131],[45.80410892088997,-19.524492690185525],[45.807209507212974,-19.518549899957918],[45.80906985918665,-19.51338225698555],[45.809534946280735,-19.50702605560798],[45.80751956557549,-19.452197360919456],[45.985892797214774,-19.468900615870723],[46.161277938725846,-19.44384559539793],[46.39930063231833,-19.406263064688687],[46.49952071331023,-19.43131808516148],[46.5746857738294,-19.418790574925083],[46.66237834548423,-19.331098004169576],[46.78765344694898,-19.255932942751087],[46.91292854841373,-19.230877923177616],[47.02567613964209,-19.24340543251469],[47.06325867035133,-19.29351547346033],[47.20106128205248,-19.31857049393318],[47.33886389375368,-19.31857049393318],[47.439083974745586,-19.255932942751087],[47.47666650545483,-19.155712861759184],[47.589414096683186,-19.155712861759184],[47.564359076210394,-19.29351547346033],[47.564359076210394,-19.418790574925083],[47.739744218620785,-19.49395563634357],[47.87535200429153,-19.594307549853568],[47.87535200429153,-19.600922132750213],[47.87380171068037,-19.60836353884622],[47.86992597800145,-19.617355238553444],[47.85840213365151,-19.63228972668952],[47.85499148896599,-19.639162692903938],[47.853906284247614,-19.650738214097316],[47.85530154822783,-19.71192311016341],[47.8574719576647,-19.723498629558094],[47.860262485625185,-19.73311044688961],[47.86186445518041,-19.741120293766528],[47.86186445518041,-19.74695973120663],[47.85922895685087,-19.772177830242697],[47.84987552283707,-19.795587254148472],[47.818869663204396,-19.845299980909374],[47.81204837383336,-19.852741387904757],[47.79680382733471,-19.8658672009106],[47.779750603907246,-19.877494398947363],[47.77230919781118,-19.88436736426246],[47.7692086123875,-19.888294772885445],[47.76362755736585,-19.896976414230153],[47.76130211829809,-19.902815850770878],[47.75959679505604,-19.91025725686694],[47.75975182468693,-19.94508717143583],[47.757581415250115,-19.953923841512108],[47.753860711302764,-19.964414157986994],[47.726523878773946,-20.011129653011096],[47.72202802937005,-20.02813119869586],[47.717842238328615,-20.075208428925862],[47.71505171126745,-20.069058933123245],[47.71241621293785,-20.065958346800244],[47.70869550988982,-20.062496026170663],[47.70404463085498,-20.059912204684508],[47.698928663826734,-20.057896823979263],[47.675622592708464,-20.053556004206257],[47.66895633296838,-20.05164397628846],[47.663685337208506,-20.048905125171416],[47.660584750885505,-20.045339450854954],[47.65918948780461,-20.040740247764234],[47.6601196628921,-20.03603769278527],[47.66244510285918,-20.031748548956386],[47.66942142096178,-20.024410495647885],[47.67221194802295,-20.020586439812348],[47.6732971536407,-20.01583220799],[47.67205691929138,-20.011284681742666],[47.66802615698151,-20.00787403705715],[47.662135043597345,-20.00637542118875],[47.65205814007106,-20.00864918431239],[47.64585696832438,-20.011336357686787],[47.64105105965865,-20.015160413522267],[47.62720177624095,-20.029836521038646],[47.623015985199515,-20.032678724943196],[47.617434930177865,-20.03448740007343],[47.58658410017608,-20.039344984683282],[47.57614546144384,-20.04332407014971],[47.52560590968494,-20.07133269624694],[47.52043826671263,-20.07226287223375],[47.51516727095276,-20.071074313828547],[47.51082645028043,-20.065648288437785],[47.50571048415151,-20.055106296018778],[47.50245486819756,-20.051230564239177],[47.49826907715618,-20.048285006647745],[47.49237796377196,-20.04647633151751],[47.48571170403187,-20.046166274054315],[47.47609988759973,-20.04952524189639],[47.47144900856489,-20.0539694144569],[47.46834842314121,-20.059240411116093],[47.46617801280502,-20.06420134851345],[47.46318078016884,-20.06838713955483],[47.4593050465906,-20.07169443055352],[47.45201867012548,-20.07308969453379],[47.44163170823674,-20.072159518546925],[47.37972334175879,-20.056604912786497],[47.374762404361434,-20.054434502450306],[47.3625150895997,-20.045184421224064],[47.357864210564856,-20.04254892289447],[47.351663038818174,-20.040895278294443],[47.34385989841553,-20.040740247764234],[47.33254275874128,-20.042858982156304],[47.313474154608514,-20.048491713122075],[47.30944339409734,-20.050610446614826],[47.306962925398636,-20.05262582821939],[47.29218346509481,-20.070454197103516],[47.288462762046834,-20.073864840889712],[47.28334679501853,-20.07536345765743],[47.276680536177764,-20.073864840889712],[47.26908409955155,-20.068128757136435],[47.26489830940943,-20.06280608453318],[47.261952751818,-20.057380059142417],[47.259007196025266,-20.053245944944422],[47.25466637625226,-20.050455417883256],[47.24893029159966,-20.0497319474714],[47.241798943866115,-20.051954033751656],[47.23694135925632,-20.055106296018778],[47.23260053858394,-20.058671969435864],[47.21942304873471,-20.06688852278711],[47.21554731605579,-20.07014413784168],[47.20857099795319,-20.077378839262053],[47.20547041163019,-20.081564630303433],[47.20298994293148,-20.08616383159557],[47.20143965021964,-20.09158985788565],[47.20081953259535,-20.109728285132235],[47.1957035655671,-20.139700615990648],[47.19430830338547,-20.14512664228073],[47.18888227709539,-20.14874399164188],[47.17968387181321,-20.150087578778766],[47.16216556219092,-20.15029428525304],[47.1451123387634,-20.153549900307667],[47.1254236179056,-20.162334892641184],[47.11746544787212,-20.16383351030828],[47.07137006957305,-20.166055596588535],[47.04113935719556,-20.178716322500293],[47.034473098354795,-20.179491468856213],[47.02641157373512,-20.178406264137777],[47.00744632328917,-20.170086357999025],[46.996284214145135,-20.163265068627993],[46.99132327674778,-20.161249687922748],[46.985122105001096,-20.160009453573423],[46.975510287669636,-20.161404717553694],[46.96946414555384,-20.164040215883233],[46.956234978861175,-20.173135267478642],[46.95282433507498,-20.176855970526617],[46.9439876649987,-20.18946501959499],[46.91298180536597,-20.222486260832284],[46.89014082224111,-20.242381687265038],[46.88362959213197,-20.25018482766768],[46.879908889083936,-20.253595473252517],[46.875878126774126,-20.256696058676198],[46.87029707175242,-20.259073174587343],[46.84513064955979,-20.260571790455742],[46.83567386275854,-20.262587172060364],[46.81924075695537,-20.27312916358005],[46.799397007366,-20.279898777006963],[46.77996666802727,-20.270493666149775],[46.76296512234251,-20.258401381018928],[46.74885745560704,-20.262897230422823],[46.73232099791568,-20.272095635705],[46.707981398023094,-20.274214369197807],[46.68596723809753,-20.268013197451126],[46.61920128790911,-20.236025485887467],[46.60302656362501,-20.239384453729542],[46.58633507720202,-20.256230970682736],[46.56731814991264,-20.271475518080706],[46.54411543158187,-20.270493666149775],[46.536312290279966,-20.263724053622184],[46.53098961767671,-20.25597258916366],[46.52535688671094,-20.24956471094265],[46.51652021663466,-20.246929212613054],[46.50432457871631,-20.246360771832144],[46.48530765232624,-20.242485040052543],[46.46520551941916,-20.235353691419732],[46.45662723176133,-20.23054778365332],[46.447222120904144,-20.22698211023618],[46.434871454254164,-20.22641366945527],[46.42329593306084,-20.23028940213419],[46.39936974521754,-20.243931979976878],[46.38645063688733,-20.246929212613054],[46.36712365123549,-20.242536715996664],[46.34417931532312,-20.231943047633536],[46.30392337356483,-20.205949802241605],[46.2860950046807,-20.189723402912705],[46.276121453941926,-20.172980238747016],[46.28010053940835,-20.157218926512257],[46.30392337356483,-20.143886407032085],[46.294621616394465,-20.132672621044605],[46.28454471196886,-20.108643079514536],[46.27658654193533,-20.096085707289546],[46.291882765277364,-20.09117644583631],[46.297877232348355,-20.07805063193115],[46.296533644312206,-20.06187590854637],[46.289609002153725,-20.047664889922714],[46.278446893009686,-20.03872486705899],[46.24842288620721,-20.02410043728537],[46.235658806608626,-20.01350676802292],[46.227907342150104,-20.02988819788203],[46.218657260923806,-20.038828219846494],[46.19405927861277,-20.055106296018778],[46.170133090769525,-20.082753187809374],[46.16269168467346,-20.083683363796183],[46.159901156712976,-20.061927586289073],[46.15478519058405,-20.041515395019474],[46.14196943504135,-20.03603769278527],[46.12532962366316,-20.034073988923467],[46.10837975392246,-20.024410495647885],[46.10047325983305,-20.008390801893995],[46.095150588129115,-19.97325082806327],[46.08419518366077,-19.958884779808727],[46.075255160796985,-19.955939223116673],[46.05711673444972,-19.958988131696913],[46.050037061760975,-19.958884779808727],[46.04244062693334,-19.954388929505512],[46.029418165815684,-19.94239999806149],[46.0227519060756,-19.938420911695744],[45.95820804216737,-19.935010267909547],[45.90901207934394,-19.91408131270242],[45.88611941937569,-19.90958546329847],[45.87888471885469,-19.90731170017483],[45.871753371121144,-19.907776788168235],[45.86198652505806,-19.914546400695826],[45.855785353311376,-19.917543634231322],[45.84741377122856,-19.918887220468832],[45.83868045393979,-19.918938897312273],[45.83154910710556,-19.917957044482023],[45.80602094880771,-19.90457284905773],[45.783903436094704,-19.882713717863794]]]},"properties":{"adm1_code":"MDG-5881","name":"Vakinankaratra","name_alt":"Tananarive","name_en":"Antananarivo","adm0_a3":"MDG"}}