{"type":"Feature","geometry":{"type":"Polygon","coordinates":[[[49.47501372380058,-17.513685014152433],[49.50407962300005,-17.66301848799992],[49.50961347700007,-17.727715752999927],[49.49773196700005,-17.796807549999926],[49.46265709700003,-17.91570403399993],[49.41391035200007,-18.067071221999925],[49.41260826900009,-18.08456796699994],[49.41391035200007,-18.101820570999905],[49.417979363000086,-18.115492445999905],[49.422618035000085,-18.12273528399993],[49.43376712300005,-18.135511976999908],[49.438487175000034,-18.142836195999905],[49.44076582100007,-18.154229424999926],[49.43474368600005,-18.15992603999996],[49.424571160000085,-18.16383228999996],[49.41456139400009,-18.170098565999922],[49.38412519600007,-18.22551848799992],[49.35922285200007,-18.424004815999922],[49.352224155000044,-18.43678150799991],[49.33326256600009,-18.45956796699994],[49.32585696700005,-18.471856377999927],[49.30193118600005,-18.540134372999944],[49.243174675000034,-18.65683359199994],[49.19117272200003,-18.842543226999908],[49.11345462300005,-19.012465101999908],[49.076914910000085,-19.065606377999927],[48.98585045700008,-19.378838799999926],[48.85962975400008,-19.684665622999944],[48.82553144600007,-19.84221770599993],[48.823252800000034,-19.865492445999905],[48.82374108200008,-19.90276458099993],[48.791351759000065,-19.99309661299992],[48.78500410200007,-19.980726820999905],[48.77271569100009,-19.964450778999947],[48.75953209700003,-19.95549895599993],[48.75049889400009,-19.96575286299992],[48.754649285000085,-19.977308851999908],[48.77898196700005,-20.009209893999923],[48.78451582100007,-20.02434661299992],[48.78174889400009,-20.03720468499995],[48.699229363000086,-20.199883721999925],[48.64177493600005,-20.34539153399993],[48.616221550000034,-20.419773044999943],[48.6079171079881,-20.416066175713468],[48.52564822798331,-20.394775486199705],[48.45474816269751,-20.395343926980672],[48.40462202298795,-20.38469858177416],[48.39687055763011,-20.38118458430114],[48.38803388935247,-20.372813002218265],[48.384623243767635,-20.36578500727228],[48.38338301031763,-20.358550306751283],[48.38400312704266,-20.352245782217096],[48.38400312704266,-20.33937835073033],[48.382762891794016,-20.333745618865237],[48.37857710075258,-20.323875420913964],[48.37547651622822,-20.319844658604097],[48.37051557793154,-20.315658867562718],[48.35341067855995,-20.304548435262063],[48.347674594806676,-20.29948414507726],[48.341473423059995,-20.29586679481673],[48.335117221682424,-20.294058118787177],[48.32442019963247,-20.294936618829922],[48.29320763532411,-20.302791436075893],[48.28669640521491,-20.303463229644365],[48.27972008621299,-20.303618259275254],[48.26933312432419,-20.3010344377891],[48.257240838294024,-20.29622853002263],[48.2351750024244,-20.283981215260894],[48.21765669100347,-20.2717339004991],[48.21424604721727,-20.268013197451126],[48.19316206237926,-20.232873223620402],[48.190009800112136,-20.228894138153976],[48.18628909706416,-20.225586847155284],[48.181173130035916,-20.22300302476981],[48.174971958289234,-20.221556084845417],[48.16598025858207,-20.221866143207933],[48.159158970110354,-20.22300302476981],[48.15326785672619,-20.225018405475055],[48.148772007322236,-20.22780893253622],[48.14505130427426,-20.23106454759079],[48.142260777213096,-20.235095309900657],[48.140245395608474,-20.23953948246117],[48.140245395608474,-20.244810479120304],[48.14195071795126,-20.24956471094265],[48.14737674334202,-20.257987969868907],[48.14892703605386,-20.26227711369785],[48.147996860966316,-20.266617933470854],[48.141640658689425,-20.27390431083529],[48.138695102896634,-20.278090101876728],[48.136628045348004,-20.283051039274028],[48.13466434058682,-20.294213148418066],[48.13259728393746,-20.298967380240413],[48.122520378612535,-20.310232843071276],[48.11972985155137,-20.314470310056777],[48.11631920776517,-20.3253223608383],[48.11538903177836,-20.331420179797476],[48.11368371033495,-20.336742851501413],[48.083091261852246,-20.38428516972482],[48.07968061716673,-20.394930514931332],[48.078750441179864,-20.400511569952982],[48.07926720601671,-20.40624765370626],[48.08061079315354,-20.41151864946613],[48.087483757569316,-20.425212905051524],[48.08763878809958,-20.43017384154956],[48.08562340739434,-20.43441130853506],[48.08216108586538,-20.437925306907403],[48.07751020683054,-20.440457451550174],[48.0720841823391,-20.44211109794884],[48.065727980062206,-20.44226612668041],[48.05689130998593,-20.438700453263323],[48.046039260103726,-20.43249928061732],[48.026763950395946,-20.417668145268692],[48.00862552314936,-20.40681609448717],[48.00319949685928,-20.405782565712855],[47.9938977387896,-20.40547250645102],[47.981650424927125,-20.406712741699664],[47.96981652221473,-20.40934824002926],[47.964545525555536,-20.411363620734505],[47.95121300607536,-20.419476821298247],[47.939895868199756,-20.42955372482453],[47.935244989164914,-20.4320858694673],[47.92966393414321,-20.433584487134397],[47.92315270403407,-20.434256279803492],[47.91648644429392,-20.43420460385937],[47.90992353734134,-20.43348113344757],[47.89752119294866,-20.431000664748865],[47.884498731831,-20.42960540076865],[47.877987501721805,-20.430018812817934],[47.87178632997512,-20.4309489888048],[47.86620527495347,-20.43265431114753],[47.861244337556116,-20.434669691852775],[47.84320926309698,-20.44598682972844],[47.837938267337165,-20.447950534489564],[47.83204715395294,-20.44908741605144],[47.80584720208668,-20.450482680031655],[47.79401329937423,-20.452808119099416],[47.78750206926509,-20.452653089468527],[47.78114586788746,-20.45094776802506],[47.77463463687894,-20.447175388133644],[47.77013878837437,-20.443196302667218],[47.76672814278953,-20.438752130106707],[47.763937615728366,-20.43441130853506],[47.760992059036255,-20.430483900811396],[47.75727135598828,-20.42707325612588],[47.74812462665017,-20.421698906679183],[47.7441972189265,-20.4185983212555],[47.733655225608175,-20.4077979464181],[47.72931440583511,-20.40485238972599],[47.7245084980687,-20.40237192102734],[47.70838545062804,-20.39663583727406],[47.70450971884844,-20.39353525185038],[47.701099074162926,-20.389762871958965],[47.694897902416244,-20.374931735711016],[47.69210737535508,-20.37064259188213],[47.68849002509455,-20.36707691756567],[47.6855444684025,-20.362994480211114],[47.68321902933474,-20.35426116292234],[47.6790332382933,-20.271888930130046],[47.682753941341275,-20.246205743100575],[47.69923872308857,-20.181971937554863],[47.70962568497737,-20.153549900307667],[47.71427656401221,-20.143886407032085],[47.717067091972694,-20.12548959646773],[47.717842238328615,-20.075208428925862],[47.72202802937005,-20.02813119869586],[47.726523878773946,-20.011129653011096],[47.753860711302764,-19.964414157986994],[47.757581415250115,-19.953923841512108],[47.75975182468693,-19.94508717143583],[47.75959679505604,-19.91025725686694],[47.76130211829809,-19.902815850770878],[47.76362755736585,-19.896976414230153],[47.7692086123875,-19.888294772885445],[47.77230919781118,-19.88436736426246],[47.779750603907246,-19.877494398947363],[47.79680382733471,-19.8658672009106],[47.81204837383336,-19.852741387904757],[47.818869663204396,-19.845299980909374],[47.84987552283707,-19.795587254148472],[47.99029442155029,-19.769560859745866],[48.0654594820694,-19.719450818800226],[48.14062454348789,-19.782088369083],[48.30348217476251,-19.794615879319394],[48.34106470547175,-19.569120696862683],[48.428757277126635,-19.569120696862683],[48.39117474641739,-19.381208044215896],[48.56655988792846,-19.331098004169576],[48.57908739816486,-19.180767882231976],[48.66677996981974,-19.155712861759184],[48.66677996981974,-18.96780021001166],[48.57908739816486,-18.742305026655686],[48.52897735811854,-18.591974904718086],[48.52897735811854,-18.391534742734223],[48.56655988792846,-18.25373213103302],[48.691834990292534,-18.228677110560227],[48.817110091757286,-18.15351205004106],[48.80458258152089,-18.053291968149836],[48.71689000986606,-17.953071887157876],[48.65425245958329,-17.877906826638764],[48.71689000986606,-17.852851806165916],[48.842165111330814,-17.852851806165916],[48.87974764204,-17.752631725173956],[49.017550253741206,-17.727576704701164],[49.16788037567875,-17.71504919446477],[49.29315547714356,-17.677466663755524],[49.29315547714356,-17.602301603236413],[49.330738007852744,-17.52713654181798],[49.47501372380058,-17.513685014152433]]]},"properties":{"adm1_code":"MDG-5868","name":"Atsinanana","name_alt":"Tamatave","name_en":"Toamasina","adm0_a3":"MDG"}}