{"type":"Feature","geometry":{"type":"Polygon","coordinates":[[[-89.66418798799992,22.371069109000075],[-89.68458230099992,22.380737837000083],[-89.69172582699991,22.387598838000088],[-89.6892464629999,22.399856861000046],[-89.69797173799992,22.417544062000047],[-89.6943877779999,22.424873421000086],[-89.67755395499995,22.42966756900006],[-89.65710439999992,22.446689219000064],[-89.65516467999993,22.472001270000078],[-89.67271790399991,22.49254389500004],[-89.68766341299994,22.507352138000044],[-89.69107183699992,22.52862850400004],[-89.71401664199993,22.541046090000066],[-89.73876902099994,22.54938823000009],[-89.75652256599994,22.543782055000065],[-89.76191796299992,22.529095854000047],[-89.77075566699995,22.533241273000044],[-89.76713830299991,22.547123043000056],[-89.75643459899993,22.560140758000045],[-89.74570742299994,22.57724911300005],[-89.72972515299995,22.582868579000035],[-89.69261012599992,22.567073036000068],[-89.65824757199994,22.54066988900007],[-89.62491973699991,22.497943699000075],[-89.6101519099999,22.461080928000058],[-89.62188280099991,22.409829168000044],[-89.63427615599994,22.37889104900006],[-89.65057469399994,22.367576495000037],[-89.66418798799992,22.371069109000075]]]},"properties":{"adm1_code":"MEX+99?","name":"","name_alt":"","name_en":"","adm0_a3":"MEX"}}