{"type":"Feature","geometry":{"type":"MultiPolygon","coordinates":[[[[32.11388431800009,-26.840014342999936],[32.11739831600005,-26.582252298999904],[32.107063029000074,-26.500293477999932],[32.05983077000013,-26.41482065799991],[32.05233768700009,-26.386812031999895],[32.03988366700008,-26.283665872999876],[32.04474125200005,-26.254520364999863],[32.07781416800009,-26.175455423999964],[32.08143151900009,-26.148790384999927],[32.074558553000145,-26.11416717599991],[32.06272465000012,-26.07716684999987],[32.057453654000085,-26.041200052999983],[32.07057946800006,-26.00978078199995],[32.004020223000055,-25.99438120499987],[31.975288127000056,-25.980428568999884],[31.949243204000084,-25.958104349999914],[31.909969116000127,-25.84296925899993],[31.90583500100007,-25.81299692799989],[31.91193282000006,-25.785298359999956],[31.954410848000066,-25.6849427289999],[31.96226566600012,-25.672850443999906],[31.975081421000084,-25.661688333999876],[31.984796590000144,-25.656313984999912],[31.991617880000092,-25.65021616599995],[31.995751994000045,-25.636883646999934],[31.995648641000116,-25.615179544999933],[31.986398560000055,-25.552444356999985],[31.980559122000102,-25.53156707699992],[31.970120484000063,-25.510896503999987],[31.966399781000064,-25.479683938999926],[31.967640015000086,-25.44681772899989],[31.971670776000053,-25.421496276999918],[31.988723999000115,-25.372610371999926],[31.987225382000076,-25.1553626499999],[31.98629520700007,-24.99630259099989],[31.9856234130001,-24.87693003299995],[31.984589885000105,-24.708464863999964],[31.983763062000094,-24.569145201999916],[31.99192793800006,-24.500415546999946],[31.98655358900004,-24.42310760499994],[31.961335490000067,-24.346316425999888],[31.926310767000075,-24.276739754999895],[31.94211266516737,-24.267717379953126],[32.0671696306739,-24.211648450915277],[32.07461103676991,-24.211235039765256],[32.08220747159754,-24.211700127758718],[32.0913542009356,-24.213198743627117],[32.1152803887789,-24.22002003299815],[32.17362308094039,-24.22828826319278],[32.1861804540647,-24.235161227608558],[32.19052127473702,-24.23810678519999],[32.20871137882705,-24.243842868953266],[32.24095747190978,-24.24895883598151],[32.24948408362354,-24.25102589263082],[32.27387536035957,-24.2626014138242],[32.39118086140763,-24.278104342741244],[32.40699384868714,-24.283892104237225],[32.41598554929362,-24.289318128728667],[32.42404707211466,-24.29572600694968],[32.478048943603824,-24.351226495206618],[32.48362999862553,-24.354792168623703],[32.51360232858457,-24.36548918977428],[32.541507602793615,-24.381612237214995],[32.55659712056064,-24.387606702487346],[32.56651899625467,-24.3897771137228],[32.57551069506252,-24.39039723044783],[32.58248701316512,-24.389673760935295],[32.58884321544201,-24.38822682101096],[32.61292443201688,-24.380216974134044],[32.63307824086809,-24.376341240555803],[32.641139763689125,-24.376754652605143],[32.64734093633513,-24.378459974947873],[32.65214684410154,-24.380785414015634],[32.656539340717984,-24.383730970707745],[32.66863162584883,-24.38982878966692],[32.693746372097394,-24.39747690223726],[32.699482455850614,-24.4001640756116],[32.705528598865726,-24.40496998517665],[32.70893924265192,-24.409724216099676],[32.71095462425649,-24.414685153497032],[32.71157474098152,-24.4190776510128],[32.71064456589397,-24.434322197511392],[32.71545047366038,-24.533282565737807],[32.71720747194723,-24.53896697354702],[32.719532911914314,-24.54392791094432],[32.722323438975536,-24.548527114035096],[32.760615675972645,-24.59002328924339],[32.82236901192033,-24.676374606602792],[32.82738162616107,-24.686089775822495],[32.8311023292091,-24.697096856234907],[32.83575320824394,-24.72184986727757],[32.840404087278785,-24.72841277423015],[32.84800052300574,-24.735647474751147],[32.863503451922725,-24.747378024676095],[32.87699100103384,-24.755284518765507],[32.92804731583095,-24.774508151629902],[32.9366256043881,-24.78179452899434],[32.938279249887444,-24.793783460438362],[32.921691115352644,-24.84887053754528],[32.920140821741484,-24.86390838026756],[32.920915968996724,-24.87910125082209],[32.93052778542892,-24.895844414987778],[32.93347334212103,-24.905559584207424],[32.93393843011444,-24.912380872679137],[32.93114790215395,-24.916514987776452],[32.927737258367756,-24.920442397298814],[32.92432661278292,-24.92380136514089],[32.921691115352644,-24.9278838024955],[32.92029585137243,-24.932172947223762],[32.926962111112516,-25.037437839084987],[32.929442579811166,-25.04777312592904],[32.934248487577634,-25.05180388823885],[32.940036249073614,-25.053664239313207],[32.962205437730745,-25.055627944074388],[32.97212731342478,-25.05795338314215],[32.986855095985845,-25.064051202101325],[32.99398644371939,-25.06916716912957],[32.9980172060292,-25.074954928826912],[32.99894738111675,-25.08069101258019],[32.997293734718085,-25.09128468184258],[32.99615685405553,-25.095625501615586],[32.99677697078056,-25.09955291113795],[32.99832726439172,-25.103945407754395],[32.99992923394694,-25.11309213619313],[32.99946414595354,-25.130558769871357],[33.00473514171341,-25.16104786556656],[33.00395999535749,-25.16662891968889],[32.999774204316054,-25.179599704862483],[32.9991540866917,-25.18301034864868],[32.99894738111675,-25.18766122768352],[33.000549350671974,-25.196962985753203],[33.00395999535749,-25.20574797898604],[33.00814578639893,-25.207039890178805],[33.079200881315614,-25.2142745906998],[33.09609907421287,-25.219390557728047],[33.11025841599309,-25.226315198987265],[33.11723473499501,-25.23143116601551],[33.12204064276142,-25.236547133043757],[33.13056725357586,-25.25013803494238],[33.1352181326107,-25.260214938468664],[33.13692345585281,-25.265744316646874],[33.139713982913975,-25.28434783278624],[33.13955895418235,-25.290445651745415],[33.13552819187254,-25.31313160613871],[33.13103234156927,-25.32909962304916],[33.130257196112666,-25.33468067807081],[33.132007748059095,-25.37916531392807],[32.87273196700005,-25.54387786299992],[32.844737175000034,-25.57268645599993],[32.79232832100007,-25.640069268999923],[32.769541863000086,-25.68173593499995],[32.75131269600007,-25.745863539999903],[32.737315300000034,-25.767347914999903],[32.74463951900009,-25.81698984199994],[32.73991946700005,-25.82586028399993],[32.74073326900009,-25.820082289999903],[32.73878014400009,-25.81308359199994],[32.734711134000065,-25.80396900799991],[32.728526238000086,-25.80396900799991],[32.72152754000007,-25.81218840899993],[32.71225019600007,-25.817803643999923],[32.70427493600005,-25.824151299999926],[32.70069420700008,-25.834649346999925],[32.69971764400009,-25.84889088299991],[32.69703209700009,-25.862399997999944],[32.69288170700008,-25.87468840899993],[32.68702233200008,-25.885918877999927],[32.65876094528441,-25.910562024588252],[32.630202581284095,-25.887343172049725],[32.5527117345589,-25.865817936648455],[32.5268814517176,-25.918913517245016],[32.516612175000034,-25.949965101999908],[32.50017337300005,-25.95476653399993],[32.48519941500007,-25.96542734199994],[32.47681725400008,-25.984551690999922],[32.480804884000065,-26.00318775799991],[32.49138431100005,-26.01409270599993],[32.501963738000086,-26.00945403399993],[32.500987175000034,-26.004571221999925],[32.501963738000086,-25.972100518999923],[32.508799675000034,-25.968519789999903],[32.52361087300005,-25.97079843499995],[32.53882897200009,-25.975274346999925],[32.54712975400008,-25.97893645599993],[32.55209394600007,-25.986586195999905],[32.55941816500007,-26.00318775799991],[32.56413821700005,-26.00945403399993],[32.57390384200005,-26.01490650799991],[32.59538821700005,-26.02239348799992],[32.60572350400008,-26.030450127999927],[32.61280358200008,-26.04143645599993],[32.621755405000044,-26.064222914999903],[32.628916863000086,-26.075290622999944],[32.63754316500007,-26.08261484199994],[32.645274285000085,-26.08757903399993],[32.650726759000065,-26.093357028999947],[32.656586134000065,-26.12395598799992],[32.67465254000007,-26.166680596999925],[32.68083743600005,-26.188164971999925],[32.69809004000007,-26.173435153999947],[32.72348066500007,-26.17831796699994],[32.748057488000086,-26.19150155999995],[32.76286868600005,-26.201836846999925],[32.78443444100009,-26.225681247999944],[32.79737389400009,-26.24846770599993],[32.81169681100005,-26.26848723799992],[32.831065300000034,-26.28378671699994],[32.842458530000044,-26.288669528999947],[32.85279381600009,-26.284600518999923],[32.86451256600009,-26.278741143999923],[32.87940514400009,-26.277520440999922],[32.870127800000034,-26.24578215899993],[32.86882571700005,-26.219414971999925],[32.87419681100005,-26.192803643999923],[32.88559004000007,-26.160821221999925],[32.89478600400008,-26.114678643999923],[32.903086785000085,-26.102634372999944],[32.91529381600009,-26.094414971999925],[32.95443769600007,-26.078871351999908],[32.955088738000086,-26.105645440999922],[32.92945397200009,-26.26604583099993],[32.91822350400008,-26.54420338299991],[32.904633009000065,-26.619886976999908],[32.895518425000034,-26.642510674999926],[32.89307701900009,-26.654229424999926],[32.89926191500007,-26.695245049999926],[32.89307701900009,-26.77434661299992],[32.89087975400008,-26.784356377999927],[32.87940514400009,-26.811944268999923],[32.881195509000065,-26.822035414999903],[32.88990319100009,-26.836602471999925],[32.89307701900009,-26.84612395599993],[32.73844567900011,-26.85024627699991],[32.59809248800008,-26.853966979999925],[32.46890140800008,-26.85737762499994],[32.352216024000086,-26.86027150399994],[32.29583703600008,-26.852003274999987],[32.2230249430001,-26.841357930999905],[32.19408614100013,-26.840324401999922],[32.14318485500007,-26.845698750999887],[32.11388431800009,-26.840014342999936]]],[[[32.90674889400009,-26.057793877999927],[32.89535566500007,-26.028415622999944],[32.918304884000065,-26.001397393999923],[32.95435631600009,-25.98056405999995],[32.98259524800005,-25.969008070999905],[32.98194420700008,-25.98015715899993],[32.97510826900009,-26.00945403399993],[32.96452884200005,-26.03801848799992],[32.961273634000065,-26.044122002999927],[32.951914910000085,-26.052992445999905],[32.94939212300005,-26.05396900799991],[32.94613691500007,-26.049899997999944],[32.93474368600005,-26.044122002999927],[32.93083743600005,-26.03948333099993],[32.930349155000044,-26.032647393999923],[32.926768425000034,-26.02825286299992],[32.91358483200008,-26.030450127999927],[32.91382897200009,-26.034600518999923],[32.90674889400009,-26.057793877999927]]]]},"properties":{"adm1_code":"MOZ-1927","name":"Maputo","name_alt":"","name_en":"Maputo","adm0_a3":"MOZ"}}