{"type":"Feature","geometry":{"type":"Polygon","coordinates":[[[57.47104861849891,-20.328818263052426],[57.46332547279229,-20.321953245046245],[57.46010386919818,-20.30477135831154],[57.459206876396195,-20.290864167547284],[57.51119297957234,-20.276627212475887],[57.528764591112974,-20.296541705435345],[57.48312739581263,-20.32206343717786],[57.47104861849891,-20.328818263052426]]]},"properties":{"adm1_code":"MUS-5196","name":"Vacoas-Phoenix","name_alt":"","name_en":"Vacoas-Phoenix","adm0_a3":"MUS"}}