{"type":"Feature","geometry":{"type":"Polygon","coordinates":[[[-76.2491881082057,-13.320443368694184],[-76.27428137899994,-13.287286065999922],[-76.30695451799994,-13.25704470699992],[-76.37096106699994,-13.17359791499996],[-76.4509504429999,-13.071710554999925],[-76.48334719299993,-13.036295975999906],[-76.49094831699995,-13.012079023999945],[-76.50548255099994,-12.990166924999926],[-76.51647444299994,-12.946153000999914],[-76.51167287999994,-12.910820269999931],[-76.51623308699993,-12.869918827999925],[-76.53197180899991,-12.843926690999922],[-76.5423070949999,-12.831963799999926],[-76.61107337099992,-12.77434661299992],[-76.63003495999993,-12.750664971999925],[-76.67247473899994,-12.668552341999941],[-76.68179277299993,-12.655368747999944],[-76.68065344999991,-12.62867603999996],[-76.68146725199995,-12.619317315999922],[-76.68932044199994,-12.609633070999905],[-76.70476694099995,-12.594410910999954],[-76.73618046299993,-12.55241525599996],[-76.78001668499991,-12.523388818999933],[-76.79907928699993,-12.50934209299993],[-76.79246476873408,-12.505541273610902],[-76.78486833390645,-12.502647392862912],[-76.77683264770849,-12.497479749890545],[-76.76373267312437,-12.485077405497861],[-76.7585908676744,-12.47370859077887],[-76.75781572131848,-12.461874688066416],[-76.75890092603692,-12.451797783640814],[-76.75869422136122,-12.4403772929777],[-76.75050350643164,-12.413143813236388],[-76.69458960612542,-12.389631035643788],[-76.68655392082678,-12.383274835165537],[-76.68234229226294,-12.37790048571884],[-76.67962927866824,-12.373094577952429],[-76.6803527490801,-12.369632256423529],[-76.68482276096165,-12.367358494199152],[-76.68807837601622,-12.36363779115112],[-76.69055884471487,-12.35960702884131],[-76.68893103673793,-12.34224374795059],[-76.68606299531098,-12.332270196312493],[-76.68218726263206,-12.326844170921731],[-76.67776892759395,-12.31878264720143],[-76.673479783765,-12.31413176816659],[-76.669138963992,-12.306742038913967],[-76.66611589203478,-12.296458428913354],[-76.65585811955657,-12.281678968609526],[-76.64774492079147,-12.25857960396553],[-76.64676306796122,-12.249794609833373],[-76.64459265762503,-12.241991468531467],[-76.64622046560197,-12.23455006243546],[-76.64929521440263,-12.228503919420348],[-76.65867448593877,-12.220804131805266],[-76.66766618474662,-12.211088961686244],[-76.68510698090245,-12.179824720534441],[-76.68862097837541,-12.17481210719302],[-76.69567481084385,-12.169954521683849],[-76.70301286505168,-12.16049773488254],[-76.70952409516087,-12.146235039415558],[-76.71079016793192,-12.134762871909004],[-76.71559607569833,-12.125616142570948],[-76.72805009603508,-12.112852064771005],[-76.73324357832848,-12.100553074065147],[-76.72949703595941,-12.088925876927703],[-76.71949764679897,-12.08324146911849],[-76.71254716711803,-12.077712090940224],[-76.70740536166807,-12.077402031678446],[-76.6799651763518,-12.091302991939529],[-76.67691626687218,-12.089856052015193],[-76.67919002999588,-12.083448174693501],[-76.6938144597695,-12.064948012240961],[-76.70797380244903,-12.051047051979879],[-76.72706824410415,-12.036164238888546],[-76.73704179574224,-12.03373544703328],[-76.74394059857974,-12.033115330308249],[-76.74766130162777,-12.030324801448444],[-76.75197628387838,-12.026035657619502],[-76.75306149039545,-11.995236504461104],[-76.75014177122574,-11.985934747290742],[-76.7384370588232,-11.97802825320133],[-76.731925828714,-11.976012871596765],[-76.72412268741209,-11.97477263814676],[-76.70655270004704,-11.962835381747482],[-76.6968375308274,-11.949967950260714],[-76.6979227364451,-11.941803073752851],[-76.70102332186877,-11.932036227689764],[-76.71577694375094,-11.910590508545113],[-76.71908423474963,-11.903769220073457],[-76.72275326185354,-11.897568047427455],[-76.74546505376918,-11.874623711515085],[-76.75414669511389,-11.867492363781594],[-76.76716915623155,-11.859947604898082],[-76.77383541507231,-11.859947604898082],[-76.78613440577817,-11.875760593076905],[-76.8244783187194,-11.913536065237224],[-76.83166134329633,-11.91767017943522],[-76.84256507002198,-11.921855970476656],[-76.85010982890549,-11.928057143122658],[-76.8565952223916,-11.93565357795029],[-76.86478593642181,-11.939632663416717],[-76.88057308617897,-11.943198336833802],[-76.90796159465185,-11.954773858027124],[-76.916100632738,-11.9574093554574],[-76.92493730281427,-11.957099297994205],[-76.92883887391491,-11.957926121193566],[-76.93224951860037,-11.957099297994205],[-76.93558264802078,-11.951983330965959],[-76.93826982319376,-11.939322605054201],[-76.93506588408326,-11.93022755255953],[-76.93441992893656,-11.923871352081221],[-76.93527258965827,-11.91885873784048],[-76.93506588408326,-11.913691094868113],[-76.93563432486417,-11.907024835128027],[-76.93374813536815,-11.891005140474874],[-76.93108679861683,-11.886147555865023],[-76.92754696272215,-11.882736912078826],[-76.9228960836873,-11.87607065143942],[-76.92359371567744,-11.870024508424308],[-76.92646175800371,-11.863513279214487],[-76.9370812647885,-11.862893161590137],[-76.94713233079244,-11.863823336677626],[-76.95310095944171,-11.859947604898082],[-76.95568478092787,-11.848062026241507],[-76.95568478092787,-11.83752003292318],[-76.95413448821603,-11.830078626827174],[-76.94837256514177,-11.825892835785737],[-76.93806311671943,-11.815815932259454],[-76.93258541538461,-11.806462498245708],[-76.93116431298262,-11.791372978680045],[-76.92659094921294,-11.784241631845816],[-76.91989885105113,-11.781502780728772],[-76.91292253294853,-11.780520928797841],[-76.90542945000908,-11.780986015891926],[-76.8942673408651,-11.779435724079406],[-76.88767859639012,-11.776128432181395],[-76.86116858616128,-11.741711927863207],[-76.85662105991395,-11.733340345780334],[-76.85920488140016,-11.728999526007328],[-76.86928178582576,-11.724400322916551],[-76.895662603946,-11.721919854217902],[-76.91548051601296,-11.715098564846869],[-76.93178443060697,-11.713289889716634],[-76.94441931809706,-11.71763071128828],[-76.95005204906278,-11.726105645259338],[-76.9596638663943,-11.734012140248069],[-76.9659942293502,-11.73597584410993],[-76.97718217601658,-11.729981377938259],[-76.98245317177646,-11.723780206191577],[-76.98873185878824,-11.717940768751475],[-76.99769772007369,-11.707398777231788],[-77.00565589100654,-11.683110854182587],[-77.00601762621244,-11.67158700893333],[-77.00906653479274,-11.668641453140538],[-77.01557776580125,-11.667401217891893],[-77.02451778776566,-11.668641453140538],[-77.04513668461027,-11.663318779637962],[-77.04952918212604,-11.65923634228335],[-77.05296566433395,-11.65427540488605],[-77.05381832505566,-11.63308806726053],[-77.04676449168795,-11.61531137521979],[-77.04343136316686,-11.603684177183027],[-77.03929724806954,-11.59453744874429],[-77.03971065921951,-11.589473157660109],[-77.04376725905178,-11.583840426694337],[-77.0580816313622,-11.570146172907585],[-77.06596228702989,-11.564978529935217],[-77.0731453107075,-11.55924244618194],[-77.08089677606534,-11.55495330145368],[-77.09329911955871,-11.553403008741839],[-77.09789832175011,-11.556193535803061],[-77.10061133534481,-11.559397474913567],[-77.11045569487442,-11.592677096770615],[-77.1201967034151,-11.607146497812607],[-77.12768978455591,-11.616344903094785],[-77.13836096908346,-11.622546074841466],[-77.14161658413803,-11.631847832911149],[-77.14234005365051,-11.639702651056496],[-77.14024715857948,-11.644870294028863],[-77.13905860107354,-11.650451349050513],[-77.14223670086307,-11.65350025763081],[-77.16825578467672,-11.6609933405702],[-77.19533423478708,-11.68026865027798],[-77.19742713075749,-11.680733738271385],[-77.19760971350672,-11.68077431220668],[-77.19981848899994,-11.670098565999922],[-77.21092688699991,-11.646416924999926],[-77.22545325399994,-11.627211195999905],[-77.24006100199995,-11.619398695999905],[-77.25300045499995,-11.614841403999947],[-77.26423092399995,-11.604261976999908],[-77.28136145699995,-11.58212655999995],[-77.28473873599995,-11.575372002999927],[-77.27774003799993,-11.565850518999923],[-77.27794348899994,-11.557305596999925],[-77.28189042899993,-11.549493096999925],[-77.29898027299993,-11.529961846999925],[-77.31273352799991,-11.50481536299992],[-77.32046464799993,-11.493747653999947],[-77.32945716099994,-11.489027601999908],[-77.34032141799992,-11.485935153999947],[-77.34801184799994,-11.47828541499996],[-77.36046301999994,-11.461114190999922],[-77.37779700399994,-11.449883721999925],[-77.42080644399994,-11.430759372999944],[-77.45335852799991,-11.403741143999923],[-77.60850989499994,-11.322442315999922],[-77.63418535099993,-11.303399346999925],[-77.64725670599995,-11.292316286999949],[-77.64484993899993,-11.279902764999918],[-77.64701713799991,-11.25676343899994],[-77.65208976299994,-11.23699214599992],[-77.64513417599994,-11.230823806999922],[-77.6479675409999,-11.222346117999905],[-77.63984978999991,-11.213929789999952],[-77.63063069099991,-11.213418070999921],[-77.61855712499994,-11.21630575699993],[-77.6093328529999,-11.210719672999915],[-77.59779929899992,-11.206836516999942],[-77.59367704499994,-11.191068729999927],[-77.59468411699993,-11.165117081999938],[-77.60833064699995,-11.141921577999938],[-77.61860031599991,-11.127193636999948],[-77.6127617759999,-11.115396226999906],[-77.63336825699992,-11.09268953399993],[-77.62868952399992,-11.082571884999936],[-77.63898243099993,-11.064978995999923],[-77.63431646299995,-11.056557865999935],[-77.64286552099992,-11.03728244599995],[-77.66130667699991,-11.014460244999952],[-77.65722139299993,-11.006014782999955],[-77.64680611499995,-10.996477374999927],[-77.65588135999991,-10.976118735999933],[-77.6643812929999,-10.96026614099992],[-77.66314234299995,-10.947298411999952],[-77.67053876699993,-10.927519692999908],[-77.6813487679999,-10.90996674899992],[-77.69615571199995,-10.890697914999919],[-77.71155430699991,-10.86803423899994],[-77.70916981399995,-10.852246908999916],[-77.73493404899995,-10.832289320999905],[-77.75315523499995,-10.815768816999935],[-77.7530518239999,-10.801091318999909],[-77.7478033829999,-10.792072210999947],[-77.76487744399992,-10.768851042999927],[-77.7636761999999,-10.761524056999917],[-77.79246985599991,-10.734958591999941],[-77.80768214099993,-10.72404361599996],[-77.81346594999991,-10.71217213299991],[-77.81920325399994,-10.701348565999922],[-77.82689368399991,-10.692803643999923],[-77.84850012899994,-10.673760674999926],[-77.89060060151266,-10.602543212956828],[-77.89060060143657,-10.60254321289898],[-77.86289038838072,-10.581472670227583],[-77.85777442135247,-10.578837171897987],[-77.84023027240914,-10.57248097052036],[-77.83108354397035,-10.568140150747354],[-77.82209184426318,-10.560388686288832],[-77.81439205574878,-10.549278253088914],[-77.80622718014024,-10.53051970821798],[-77.80214474188631,-10.517652275831892],[-77.8007494779061,-10.508298841818089],[-77.80139543305279,-10.502407728433923],[-77.80578792966918,-10.485871269843244],[-77.80687313528693,-10.476207777466982],[-77.80462520968564,-10.466182549884763],[-77.79007829517718,-10.425358168244884],[-77.78798539920678,-10.41466114709425],[-77.78581498887064,-10.375180351691881],[-77.78095740426079,-10.367118828870844],[-77.76871009039832,-10.361744479424203],[-77.75666948121159,-10.359677422774837],[-77.70049719938623,-10.36572356489063],[-77.68530432793239,-10.381019789131983],[-77.68117021373439,-10.386600844153634],[-77.6721526756055,-10.406858004893024],[-77.67721696579031,-10.424841404307358],[-77.68509762235738,-10.443238213972393],[-77.69067867737903,-10.45207488404867],[-77.69693152506983,-10.459774671663752],[-77.71191769094867,-10.47269377999396],[-77.73667070199127,-10.489023533009629],[-77.75124345582083,-10.501270846872103],[-77.75336218931358,-10.50468149155762],[-77.75612687885234,-10.511657809660221],[-77.75395646761689,-10.520649508468068],[-77.74581743043007,-10.528504326613415],[-77.72855750232685,-10.534085381635066],[-77.71470821800983,-10.535067233565997],[-77.69034277969553,-10.532741793598916],[-77.67897396497648,-10.532741793598916],[-77.66830278224757,-10.53646249754621],[-77.6497251036306,-10.55516936557376],[-77.63977739131354,-10.563075859663172],[-77.6120529851571,-10.574341321594716],[-77.60200191915322,-10.581420994283462],[-77.59595577703749,-10.593564954459112],[-77.59476721863223,-10.603280124578077],[-77.59667924744929,-10.614080498516216],[-77.60355221186506,-10.634234308266741],[-77.60569678377954,-10.644931328517998],[-77.60631690140389,-10.654336440274506],[-77.6050766670545,-10.665136814212588],[-77.60254452241179,-10.675110364951365],[-77.59543901220064,-10.69469573302166],[-77.59303605786778,-10.705082695809779],[-77.59241594114275,-10.716348157741265],[-77.59419877785132,-10.727510267784623],[-77.59347530833878,-10.736863701798427],[-77.58781673895135,-10.744253431950312],[-77.57016923722051,-10.746527195074009],[-77.50916520920703,-10.74828419426018],[-77.49358476412556,-10.745441989456253],[-77.44245093496266,-10.726166680647793],[-77.4096622377221,-10.704979343022273],[-77.37452226389138,-10.641675713463428],[-77.27261633987217,-10.584418226919638],[-77.24765662325456,-10.5663314747178],[-77.19742713075749,-10.518169040668681],[-77.17603308755696,-10.48788665054849],[-77.16546525671623,-10.465665785047975],[-77.16290727365174,-10.454245293485485],[-77.15810136588533,-10.404997653818668],[-77.1548457508307,-10.394197279880586],[-77.15014319495248,-10.384792169023399],[-77.10557227184285,-10.358023777275491],[-76.93162940097608,-10.286813652727915],[-76.92661678673528,-10.319473157859932],[-76.92142330624057,-10.32887826871712],[-76.91113969623996,-10.341125583478913],[-76.90083024781768,-10.346138196820334],[-76.88948727062103,-10.347120049650584],[-76.8761805886632,-10.346138196820334],[-76.86132361489291,-10.34644825608217],[-76.83951616144168,-10.352856134303181],[-76.82964596169177,-10.361899509055092],[-76.82440080435362,-10.373475030248471],[-76.82055091009642,-10.39636769021672],[-76.81272193127211,-10.417089938949516],[-76.77504981099997,-10.440654391586918],[-76.76861609615588,-10.442204685198078],[-76.74996090407245,-10.443754977909919],[-76.724691128193,-10.484734389180744],[-76.71608700211345,-10.503906345201699],[-76.6981294420201,-10.581937758220988],[-76.69022294793069,-10.599249363167587],[-76.66262773298348,-10.646171562867323],[-76.65466956205063,-10.663586520601427],[-76.6494502431342,-10.678676039267827],[-76.63800391315004,-10.741927991983232],[-76.61730750193965,-10.77314055809029],[-76.58743852386874,-10.806110120685503],[-76.57255571167673,-10.829467868647214],[-76.56705217192018,-10.91612924616777],[-76.57017859576558,-10.971733087212215],[-76.56798234700767,-10.984910577061498],[-76.5655793926748,-10.994264011075245],[-76.55917151625243,-11.002170505164713],[-76.51181006518237,-11.031316012823766],[-76.49757320813706,-11.045372002715737],[-76.48744462776733,-11.070435072120915],[-76.4865919661463,-11.084387709225382],[-76.48829728938836,-11.09766855186217],[-76.4932582258864,-11.166863294805239],[-76.48535173179698,-11.268975925298719],[-76.4757657537865,-11.312125746006359],[-76.42685401090387,-11.360443209686366],[-76.41380571226381,-11.381320488949427],[-76.41055009630986,-11.402662856205836],[-76.37773556244622,-11.503741957025682],[-76.36181922058057,-11.524464206657797],[-76.35342180007598,-11.53976043089915],[-76.34176876541619,-11.548442070445219],[-76.31722245994854,-11.561102797256297],[-76.30766232035978,-11.570456231270043],[-76.29650021031642,-11.583892103537778],[-76.28861955374941,-11.584202161900237],[-76.27265153683896,-11.573401787962155],[-76.26006832529299,-11.57117970078258],[-76.23823503342004,-11.577587579003591],[-76.22779639378854,-11.585545749936443],[-76.22193111792672,-11.59474415521862],[-76.21976070759058,-11.607301527443553],[-76.21999325158725,-11.65210499365054],[-76.21144080325047,-11.696701755181834],[-76.2097613193294,-11.736492608047456],[-76.20575639544126,-11.751633802657864],[-76.19976192926958,-11.761348971877567],[-76.15506181495078,-11.804240411066132],[-76.14733618801466,-11.818193048170656],[-76.14059241390873,-11.848217054973134],[-76.13464962368118,-11.85777719456189],[-76.12658810086015,-11.864598483932866],[-76.10741614483919,-11.876949150582846],[-76.0737231109328,-11.903304132080052],[-76.0362835346574,-11.991205743050614],[-76.02662004318046,-12.002729586501232],[-76.01238318613514,-12.01466684290051],[-76.00251298728455,-12.015907078149155],[-75.9849171623971,-12.012083022313618],[-75.93680640339278,-11.990275567063748],[-75.92324133991588,-11.987278333528252],[-75.90251909028376,-11.985573012084842],[-75.88980668842794,-11.988260185459183],[-75.80975989380403,-12.022883396251757],[-75.80084571026129,-12.028206068855013],[-75.79288753932849,-12.03430388781419],[-75.76627417721147,-12.050633639930538],[-75.68883704339481,-12.078745618815276],[-75.64075212281222,-12.11755461974991],[-75.63586869978064,-12.125616142570948],[-75.63008093918398,-12.143289482723446],[-75.64881364563325,-12.179152926966026],[-75.64617814820298,-12.198531588561991],[-75.63400834780697,-12.21682504543952],[-75.56300492973372,-12.365033054232072],[-75.54967241115281,-12.380174248842536],[-75.53758012602196,-12.41686451628442],[-75.54631344331074,-12.504972832829992],[-75.55199785022057,-12.526160169556192],[-75.56711320730864,-12.56099008592372],[-75.57463212777049,-12.592202651131458],[-75.57383114299284,-12.608790784766882],[-75.56874101438632,-12.620624687479335],[-75.56044694666923,-12.626360772131932],[-75.52311072497997,-12.645326022577876],[-75.46719682467369,-12.686563816267096],[-75.46745520709214,-12.715709323926148],[-75.4903737045828,-12.76087452623841],[-75.51644446523989,-12.795859469538868],[-75.55912919795412,-12.834978529735338],[-75.59395911342233,-12.854925632112213],[-75.60233069460588,-12.866862887612172],[-75.6099271312321,-12.885001315758132],[-75.62173519642215,-12.945824476618327],[-75.63465430385304,-12.982049656066806],[-75.66108679881671,-12.993573499517368],[-75.68832027855802,-13.011453546144253],[-75.70242794529344,-13.015897718704764],[-75.79699581600408,-13.028868502979037],[-75.86489864775439,-13.031193942946118],[-75.88892818928451,-13.025664564767851],[-75.93618628576849,-13.003185316848885],[-75.94029456244408,-13.0007565240943],[-75.94199988478687,-12.99998137773838],[-75.94510047110987,-12.99920623048314],[-75.95166337806245,-12.999774672163369],[-75.95962154809598,-13.004322197511385],[-75.96729549818866,-13.01600107149227],[-75.98083472414316,-13.048815606255232],[-75.98773352698066,-13.059719333880139],[-75.99765540177538,-13.070984795811682],[-76.14038570833378,-13.185293064223515],[-76.14901567193567,-13.195680027011633],[-76.18555090974667,-13.26440968196124],[-76.20219072112485,-13.287043958611832],[-76.24918810774494,-13.320443368366739],[-76.2491881082057,-13.320443368694184]]]},"properties":{"adm1_code":"PER-591","name":"Lima","name_alt":"Lima province","name_en":"Lima","adm0_a3":"PER"}}