{"type":"Feature","geometry":{"type":"Polygon","coordinates":[[[122.47210522078421,10.68713447614125],[122.45101972700002,10.686346747000073],[122.36540774800005,10.672674872000073],[122.35718834700003,10.670396226000037],[122.34359785200002,10.660630601000037],[122.33838951900009,10.658392645000049],[122.30404707100001,10.659735419000071],[122.29330488400001,10.658392645000049],[122.28239993600005,10.654038804000038],[122.26856530000009,10.642726955000057],[122.25928795700008,10.637884833000044],[122.24854576900009,10.637925523000092],[122.23755944100003,10.641424872000073],[122.22657311300009,10.642238674000055],[122.21452884200005,10.634466864000046],[122.17359459700003,10.60065338700008],[122.16195722700002,10.59373607000009],[122.15202884200005,10.592352606000077],[122.14161217500009,10.59243398600006],[122.12891686300009,10.59007396000004],[122.10181725400003,10.56932200700004],[122.03956139400009,10.466620184000078],[122.03321373800009,10.46092357000009],[122.02948205015639,10.461842353541783],[122.0096382996677,10.47331452104828],[122.00602094940723,10.492124741863336],[122.01532270657765,10.535739651463757],[122.0241077007098,10.606588039906114],[122.03475304591632,10.63712881154538],[122.05573367706745,10.67025340377154],[122.07599083870616,10.68973541905433],[122.12446333201706,10.718570868350866],[122.14782107997883,10.735934150140906],[122.16353071537014,10.75164378553228],[122.17851688034966,10.769782212778864],[122.19112593031741,10.78978099199918],[122.20755903522127,10.83504954709889],[122.2298832544086,10.882695217210482],[122.2437325378263,10.903469142786719],[122.25386111909529,10.912977607330674],[122.27814904214449,10.930185859489825],[122.28652062422736,10.939332587029241],[122.28931115128853,10.949202785879834],[122.2872440937399,10.967909653907384],[122.29013797358857,10.977883206444801],[122.2960290869728,10.983877671717153],[122.31246219277591,10.993799547411186],[122.31835330616013,10.999794013582857],[122.33085900334027,11.0526590035102],[122.31897342288516,11.077928779389651],[122.29375532384904,11.107694403773678],[122.24032189314084,11.156787013809605],[122.28817426972671,11.201538804971847],[122.31525271983708,11.216214910689587],[122.34264122920933,11.216008206013896],[122.40279259740043,11.18965322541601],[122.41581505671945,11.187224433560743],[122.44299686141596,11.19234039968967],[122.45653608557188,11.19347728125149],[122.47451948498622,11.190480047715994],[122.49002241390326,11.186242580730493],[122.50500857978204,11.183865464819348],[122.52154503837278,11.186242580730493],[122.53828820163915,11.19332225251992],[122.55069054603177,11.202779039321172],[122.55823530491534,11.21549144117705],[122.56050906803898,11.232337958130245],[122.58665734306192,11.23611033802166],[122.61373579317228,11.228875637500664],[122.64143436090694,11.217506821882296],[122.66954633979174,11.208980211067853],[122.74530398968727,11.219418849800093],[122.78240766827923,11.215956529170455],[122.7907792503621,11.188206285491674],[122.8206482284329,11.200505276197532],[122.82684940017964,11.201487128128463],[122.84431603385781,11.195337633225165],[122.86240278516038,11.193063870101525],[122.87759565571491,11.198179836230452],[122.88607059058529,11.21435456051455],[122.88679406099709,11.228823961556543],[122.88545047386026,11.261276760214287],[122.88679406099709,11.270165107133948],[122.90105675736345,11.283600979401683],[122.91810997899233,11.290008856723318],[122.95614383357099,11.297915350812787],[122.94828901632502,11.314968573340991],[122.94518843000196,11.334347235836276],[122.95118289617369,11.35057363516512],[122.9700964697762,11.358221746836136],[122.99004357305239,11.362355861933452],[123.00420291573198,11.370934150490655],[123.03190148256726,11.39398183829121],[123.04099653506205,11.409071356957554],[123.0433736509732,11.451497708152715],[123.06621463409806,11.483898830866337],[123.08554161974985,11.528392238710808],[123.08961022200003,11.529689846000053],[123.11784915500004,11.548163153000075],[123.14234459700003,11.572699286000045],[123.15674889400009,11.598089911000045],[123.16358483200008,11.598089911000045],[123.16439863400001,11.537990627000056],[123.15674889400009,11.522406317000048],[123.14909915500004,11.519354559000078],[123.13786868600005,11.518011786000045],[123.12728925900001,11.515448309000078],[123.12208092500009,11.508734442000048],[123.12322024800005,11.498724677000041],[123.12924238400001,11.493801174000055],[123.13884524800005,11.492743231000077],[123.14991295700008,11.49445221600007],[123.14039147200003,11.479315497000073],[123.14812259200005,11.476955471000053],[123.17042076900009,11.48078034100007],[123.17481530000009,11.467474677000041],[123.16928144600001,11.453599351000037],[123.16114342500009,11.438950914000088],[123.15674889400009,11.423081773000092],[123.16089928500003,11.394354559000078],[123.16041100400003,11.380438544000071],[123.14942467500009,11.361883856000077],[123.14926191500001,11.356350002000056],[123.14771569100003,11.352484442000048],[123.12916100400003,11.349351304000038],[123.12566165500004,11.344875393000052],[123.12476647200003,11.338324286000045],[123.12208092500009,11.330633856000077],[123.12387129000001,11.329291083000044],[123.12208092500009,11.302679755000042],[123.12134850400003,11.301581122000073],[123.11589603000004,11.282171942000048],[123.11353600400003,11.26666901200008],[123.11589603000004,11.230658270000049],[123.11890709700003,11.221502997000073],[123.12598717500009,11.21678294500009],[123.13306725400003,11.210435289000088],[123.13624108200008,11.196519273000092],[123.13135826900009,11.18268463700008],[123.11133873800009,11.168036200000074],[123.10824629000001,11.15180084800005],[123.08562259200005,11.162543036000045],[123.06088300900001,11.169419664000088],[123.04127037900003,11.163397528000075],[123.02833092500009,11.109849351000037],[123.01490319100003,11.091620184000078],[122.99537194100003,11.078802802000041],[122.97169030000009,11.069891669000071],[122.97706139400009,11.057033596000053],[122.97242272200003,11.049017645000049],[122.95069420700008,11.03579336100006],[122.95240319100003,11.046087958000044],[122.95167076900009,11.05573151200008],[122.94727623800009,11.062323309000078],[122.93824303500003,11.063666083000044],[122.93336022200003,11.058417059000078],[122.93034915500004,11.036851304000038],[122.92457116000003,11.028957424000055],[122.91407311300009,11.026271877000056],[122.90739993600005,11.029730536000045],[122.90040123800009,11.034491278000075],[122.88990319100003,11.03579336100006],[122.88502037900003,11.03318919500009],[122.86255944100003,11.015285549000055],[122.86255944100003,11.028957424000055],[122.83912194100003,11.018052476000037],[122.81202233200008,10.998480536000045],[122.78931725400003,10.976060289000088],[122.78003991000003,10.95693594000005],[122.78516686300009,10.92568594000005],[122.79428144600001,10.900539455000057],[122.79802493600005,10.875433661000045],[122.78687584700003,10.844549872000073],[122.76148522200003,10.810736395000049],[122.74480228000004,10.79564036700009],[122.72852623800009,10.78937409100007],[122.71900475400003,10.791489976000037],[122.70240319100003,10.800848700000074],[122.69410241000003,10.80296458500004],[122.68653405000009,10.800848700000074],[122.66675866000003,10.78937409100007],[122.65552819100003,10.78701406500005],[122.64275149800005,10.78123607000009],[122.63062584700003,10.774359442000048],[122.61475670700008,10.761460679000038],[122.53280433365308,10.799527746308456],[122.48990658931757,10.771770381797694],[122.47210522078421,10.68713447614125]]]},"properties":{"adm1_code":"PHL-2529","name":"Iloilo","name_alt":"","name_en":"Iloilo","adm0_a3":"PHL"}}