{"type":"Feature","geometry":{"type":"Polygon","coordinates":[[[124.18376712295435,7.226385808558234],[124.19459069100003,7.253648179000038],[124.21273847700002,7.270575262000079],[124.21924889400009,7.279974677000041],[124.22087649800005,7.289292710000041],[124.21924889400009,7.32094961100006],[124.25110578030751,7.314710034340578],[124.2809954940468,7.26579959367632],[124.30545071437894,7.222323646419113],[124.2809954940468,7.165261466543427],[124.22936780667885,7.1815649467648655],[124.18376712295435,7.226385808558234]]]},"properties":{"adm1_code":"PHL-5527","name":"Cotabato","name_alt":"","name_en":"Cotabato","adm0_a3":"PHL"}}