{"type":"Feature","geometry":{"type":"Polygon","coordinates":[[[36.597694126382805,55.27287974690279],[36.59128624906111,55.27463674608896],[36.5872554867513,55.277401434728404],[36.58591189961447,55.280708727525735],[36.584775018052596,55.28411937131193],[36.58415490132762,55.287633368784896],[36.58384484206579,55.29135407183293],[36.58415490132762,55.295152289246744],[36.58622195797693,55.30391144495718],[36.58632531076444,55.308665675880206],[36.58384484206579,55.31476349483938],[36.57847049261909,55.31729564128079],[36.57175255693494,55.31882009557091],[36.557593215154725,55.31967275719194],[36.5447774587127,55.31928518356432],[36.53340864399371,55.317502345956484],[36.52844770659635,55.31590037730052],[36.52400353403584,55.31398834938278],[36.511704543329984,55.306676134496],[36.50726036987015,55.30525503209401],[36.502092725998466,55.305151679306505],[36.44803917766592,55.3170372588624],[36.43315636637317,55.31879425714919],[36.42292443231668,55.318690904361745],[36.38571740093727,55.304014797744685],[36.352954543017745,55.29714183242959],[36.34861372234536,55.29569489250525],[36.34706342963352,55.29316274696316],[36.34737348799604,55.29006216153948],[36.35264448375591,55.28060537383891],[36.354091423680245,55.277246405996834],[36.35574507007891,55.27409414283039],[36.356985305327555,55.2707868518317],[36.358535597140076,55.267789619195526],[36.359465773126885,55.26479238476071],[36.35998253796373,55.2627253281114],[36.359465773126885,55.2603482122002],[36.356985305327555,55.257764390714044],[36.3452030776599,55.25068471892462],[36.33951866985069,55.244483548077255],[36.335384555652695,55.24226146089768],[36.33063032383035,55.24068532976412],[36.32628950405734,55.2387991402681],[36.32422244560934,55.23549184837009],[36.3208118018232,55.22815379506159],[36.31760786271269,55.22531159115698],[36.31295698367785,55.223709622501076],[36.295697055574635,55.22107412417148],[36.28536176873064,55.218438625841884],[36.275646600410255,55.2149763052123],[36.267171664640614,55.210738837327426],[36.26314090323007,55.20820669178539],[36.2595235529696,55.20531281193672],[36.256733025908375,55.20174713851958],[36.25228885334786,55.198026435471604],[36.23802615698156,55.19371145322094],[36.13973758322288,55.184952298409826],[36.12754194530453,55.185882473497315],[36.10749148924083,55.201333727369615],[36.1007735526573,55.203814195168945],[36.09116173712442,55.205984606404456],[36.072144809835095,55.20810333899789],[36.06222293504038,55.21022207338996],[36.055608351244416,55.21285757082023],[36.04692671079903,55.219368800929374],[36.03907189265368,55.22334788729512],[36.032870720907,55.22432973922605],[36.02739301867285,55.224278063281986],[35.997730747076275,55.21590648119911],[35.93830285019635,55.23456167328254],[35.91556521985899,55.2368095970852],[35.892104120009094,55.23575023078848],[35.85644738134158,55.238489081006264],[35.84321821464886,55.242778224835206],[35.754954867573076,55.286858222428975],[35.74317264170401,55.29068227826451],[35.70668908073645,55.29429962852498],[35.69738732266677,55.2936019965349],[35.691496209282604,55.29140574777699],[35.68436486244843,55.28579885523294],[35.6798173362011,55.283757636105975],[35.67392622191761,55.28293081290667],[35.57863488079511,55.29047557179018],[35.56747277165107,55.28985545506515],[35.566439242876754,55.2873749863665],[35.567782830912904,55.284584459305336],[35.57791141128257,55.26900401512319],[35.57274376831026,55.26324209294819],[35.535226677669016,55.258539537069964],[35.526545038123004,55.2530101588917],[35.52189415908816,55.241615505750985],[35.518276807928316,55.23776561149373],[35.51393598815531,55.23510427474247],[35.48272342294757,55.222934475245836],[35.47342166487789,55.220764064909645],[35.46536014205691,55.220350653759624],[35.40458865714078,55.237352200343764],[35.369655388885064,55.2387991402681],[35.33627241424051,55.26556753201595],[35.30123579319729,55.29910553719077],[35.295448031701255,55.306908678492675],[35.28976362479142,55.324116929752506],[35.29658491416245,55.33636424451424],[35.29668826694996,55.34184194584907],[35.29534467981313,55.35253896789902],[35.290487095203275,55.37010895436475],[35.290797152666414,55.37496653897455],[35.292037387915116,55.38085765235877],[35.30785037609394,55.41452484784344],[35.31405154784062,55.43178477594665],[35.314361607102455,55.4365131702466],[35.313948195053115,55.441422430800515],[35.31064090315516,55.44767527939058],[35.30692020010713,55.4515510120695],[35.29637820768812,55.459922594152374],[35.295137974238116,55.463798325931975],[35.296274854900616,55.468604233698386],[35.3021659691841,55.476304023112164],[35.30692020010713,55.48059316694105],[35.31653201743865,55.487517809099586],[35.318599074087956,55.49227204002261],[35.319942661224786,55.499455065498864],[35.31766889810115,55.522192694936905],[35.31580854702679,55.52782542590268],[35.314361607102455,55.531055203434846],[35.30692020010713,55.540279446239424],[35.30061567557294,55.545343736424286],[35.291623975865775,55.54968455709661],[35.28614627543027,55.55154490817097],[35.28232221869541,55.55469717133735],[35.2820121603329,55.55924469668537],[35.28883344880461,55.56740957319323],[35.295448031701255,55.57040680582941],[35.30309614427159,55.57120779150637],[35.34464399632333,55.56327545809586],[35.37244591594623,55.562241930220864],[35.377406854242906,55.563068753420225],[35.38050743966659,55.56430898687023],[35.38329796672775,55.56601430921296],[35.392599724797435,55.57469595055767],[35.3953902518586,55.580173651892494],[35.39756066309411,55.587873440406895],[35.3984908381816,55.61086945316271],[35.39714725104477,55.61707062401007],[35.38536502517576,55.626992498804725],[35.37378950398238,55.64559601494409],[35.36934533142187,55.650350246766436],[35.36417768665092,55.653812568295336],[35.35477257669305,55.658050035280894],[35.35084516807001,55.66050466645714],[35.34743452338455,55.665336411745955],[35.33802941342668,55.69200145070636],[35.334618767841846,55.69691071215959],[35.329761183231994,55.699081122495784],[35.32428348189717,55.70094147446946],[35.319942661224786,55.70321523669378],[35.31642866375182,55.70652252949111],[35.313638136690656,55.710656642789786],[35.31177778471698,55.71737457937331],[35.31270796070379,55.722387192714734],[35.316118605389306,55.72693471896207],[35.32459354025963,55.73044871733441],[35.33833947088982,55.73287750918968],[35.342680290662884,55.7343761259574],[35.34402387869903,55.73703746180939],[35.34123335073855,55.74080984170081],[35.334412062266836,55.747088527813276],[35.33368859185504,55.751532701273106],[35.333791944642485,55.75525340432114],[35.347124465022034,55.76941274700067],[35.35208540241939,55.77623403637165],[35.353532342343726,55.77938629773945],[35.35208540241939,55.78452810318936],[35.34702111223453,55.78961823179594],[35.333791944642485,55.79783478514719],[35.31250125512878,55.806878159899156],[35.30785037609394,55.80982371749053],[35.3044397323078,55.81375112611357],[35.30257938033412,55.82046906179772],[35.30185590992227,55.82527497046351],[35.30030561721043,55.829305731874],[35.294104444564425,55.838840033940414],[35.28573286338093,55.84837433510745],[35.27860151474806,55.85483388927253],[35.25855105958374,55.866564440096795],[35.252349887837056,55.87106028950075],[35.24811241995218,55.87596955005466],[35.244598423378534,55.88573639611775],[35.244391716904204,55.892040921551256],[35.24501183362918,55.89749278446442],[35.249042595939045,55.91038605437291],[35.248629184789024,55.91390005094655],[35.24625206887788,55.91607046218206],[35.23963748598118,55.9152436389827],[35.23529666530885,55.91271149433999],[35.23136925578649,55.90932668717687],[35.22847537593782,55.906045233700524],[35.22444461362801,55.90366811778938],[35.21989708827999,55.90366811778938],[35.21555626760767,55.90622610085387],[35.2134892109583,55.91271149433999],[35.21307579890896,55.9176207548939],[35.213179151696465,55.922219957085304],[35.21410932768333,55.930152288697116],[35.2103886246353,55.93462230147799],[35.206977979949784,55.937929593376],[35.17411176924276,55.948264879320675],[35.171321242181534,55.960047106089064],[35.17690229720324,55.97089915597127],[35.20976850791027,56.01880320940057],[35.21824344278065,56.026554673859096],[35.22909549266285,56.03381521280181],[35.254830357435026,56.04722524754709],[35.26971316872772,56.05239289051946],[35.28118533713359,56.0543049184372],[35.31715213416362,56.0540465360188],[35.32542036255967,56.055441799999016],[35.329761183231994,56.058516547001034],[35.332448358404974,56.061823838899045],[35.33720259022732,56.075233872745],[35.33802941342668,56.0786186790088],[35.33802941342668,56.080659898135764],[35.337099237439816,56.083347073308744],[35.334618767841846,56.08582754200745],[35.307230259368964,56.10355255810407],[35.30464643698343,56.10696320278953],[35.30350955632093,56.111743273033596],[35.30536990739529,56.11543813676059],[35.30847049281897,56.11859039992697],[35.328727655357,56.1319229194072],[35.332861768655675,56.137736518425584],[35.335548943828655,56.143472602178804],[35.33740929490301,56.15057811149063],[35.34081993958853,56.15440216732611],[35.34547081862337,56.15708934249915],[35.36066369007722,56.162205309527394],[35.372755975208065,56.1688198924241],[35.37864708769291,56.17385834418718],[35.38236779074094,56.17884512000626],[35.384124789927114,56.1831342638352],[35.38505496591392,56.18732005487658],[35.385468377063944,56.1911957875555],[35.38505496591392,56.19481313691671],[35.38298790926456,56.19796540008309],[35.37937055810477,56.20060089841269],[35.37502973833176,56.20277130784956],[35.36469445238703,56.20685374610349],[35.36045698360289,56.210212713945566],[35.35766645744104,56.2147602401929],[35.35911339736538,56.223622747791524],[35.36190392442654,56.22876455324149],[35.36572798026208,56.23243358034546],[35.37068891765938,56.23419057953157],[35.40655236190196,56.239409898448],[35.42133182130647,56.244112454326284],[35.46194949737139,56.24116689673485],[35.48365359893444,56.24163198472826],[35.49998335105079,56.24462921826381],[35.51176557781912,56.24865998057362],[35.51755333841584,56.25227732993483],[35.520757276626966,56.25610138577031],[35.520963983101296,56.25977041287422],[35.52044721916383,56.26333608719062],[35.51879357276516,56.26654002540181],[35.516726515216476,56.269537258937305],[35.51176557781912,56.27545420984387],[35.50928510912047,56.2787873401636],[35.50773481640863,56.281474514437264],[35.50742475804611,56.28912262610828],[35.52602827328616,56.32552867271005],[35.524477979675,56.33041209574162],[35.52168745261383,56.33635488506985],[35.500913527037596,56.34284027855597],[35.49874311670146,56.346250922342165],[35.49832970555144,56.34948069897507],[35.50143029097512,56.35552684199013],[35.505150994922474,56.3608753530151],[35.50928510912047,56.36332998329209],[35.51455610488034,56.36369171849799],[35.51910363112768,56.36193471931182],[35.53160932830781,56.35470001879082],[35.53688032406768,56.352994697347356],[35.54235802630183,56.35232290287962],[35.54824913878673,56.35490672526515],[35.550419549122864,56.35929922098222],[35.55010949076035,56.366275539984144],[35.54804243321172,56.370719713443975],[35.54514855336305,56.37418203407361],[35.54173790867753,56.37674001713805],[35.53863732325385,56.380951647500524],[35.53584679529337,56.38640351041363],[35.533676384957175,56.39598948842411],[35.530369093958484,56.39976186831552],[35.52695844927297,56.39981354425964],[35.51042199068229,56.390770169507675],[35.50608117000996,56.389039007843905],[35.50122358629943,56.391131903814255],[35.49739952956463,56.39743642834844],[35.48706424272058,56.424334011305575],[35.483963657296954,56.43061269831736],[35.477969191125226,56.43614207649563],[35.4579187359609,56.44828603846986],[35.46308637893321,56.45887970593367],[35.46897749231738,56.46161855705071],[35.475488722426576,56.463582261811894],[35.48262007016007,56.4640473498053],[35.50029341031262,56.46327220344938],[35.64509077262102,56.4741242542309],[35.677233513815565,56.46451243779876],[35.695526970693095,56.4553140334159],[35.70338178883844,56.450327256697506],[35.709789666160134,56.444875392885024],[35.728289828612674,56.42461823214569],[35.736454706019856,56.41226756549571],[35.73790164594419,56.408934435176036],[35.74234581940402,56.404877835343825],[35.74906375508823,56.40038198504055],[35.76518680162957,56.393870754931356],[35.77490197084927,56.392139594166906],[35.78286014178212,56.391958727013616],[35.81376264772797,56.40120880823986],[35.831435987880525,56.403844306569454],[35.849316033608034,56.404877835343825],[35.85934126208957,56.403895982513575],[35.86698937376059,56.40229401295829],[35.875774366993426,56.3977981635544],[35.88435265465125,56.3917003436959],[35.8914840023848,56.3877987743939],[35.905436638590004,56.38198517537552],[35.915048455921465,56.37981476503933],[35.9231099787425,56.37906545710513],[35.92900109212667,56.379969793770954],[35.954012485587725,56.386946112772875],[35.96724165228039,56.389039007843905],[35.97571658715077,56.388651435115605],[35.98253787562243,56.387152818347886],[36.05736535043053,56.36211558736443],[36.07844933436928,56.344106350427694],[36.09612267362246,56.346793524701354],[36.09922325994546,56.34927399429938],[36.10346072783028,56.354157416431576],[36.106251254891504,56.3604102650217],[36.112969190575654,56.371133123694676],[36.118240187234846,56.37624909072292],[36.1250614757065,56.37960805946432],[36.14180463987219,56.3846723505485],[36.14779910694318,56.38911652310901],[36.15947798002475,56.40317251210172],[36.16578250455893,56.406583156787235],[36.172500441142404,56.40844350876091],[36.213634881144856,56.40844350876091],[36.32329227142117,56.4390359563443],[36.32918338390601,56.43978526517782],[36.38551069536226,56.43820913404426],[36.43005578005017,56.43262807902261],[36.43646365737186,56.43304149017263],[36.453723586374394,56.43583201813311],[36.459924758121076,56.43619375333901],[36.49289432071629,56.433196519803516],[36.51294477677999,56.43448843009696],[36.5216264181247,56.43722728121401],[36.52658735462268,56.44048289716795],[36.53433881998052,56.46337555623688],[36.537025995153556,56.47541616542367],[36.54147016771407,56.480377101921704],[36.550461867421234,56.48704336256111],[36.58136437426646,56.49453644550056],[36.675002068990295,56.532053535242426],[36.74693566305041,56.550553696795646],[36.78672651501665,56.55662567823242],[36.79571821472382,56.5589769557219],[36.801609328107986,56.56212921798897],[36.80501997189418,56.565358995521194],[36.814115025288174,56.57742544223032],[36.819282668260485,56.58197296847766],[36.82579389836968,56.5832390412487],[36.83292524610323,56.5832390412487],[36.978136021360285,56.55833100057521],[36.9834070171201,56.556315619869906],[36.98526736819446,56.55321503444628],[36.98526736819446,56.54946849207721],[36.98423384031946,56.545334377879215],[36.98361372179579,56.54140696925617],[36.98454389778266,56.53794464772727],[36.9868176609063,56.53499909103522],[36.99053836395433,56.53277700475496],[36.99549930225095,56.53133006483063],[37.016996698238984,56.52941803691283],[37.02237104678636,56.5277127145701],[37.02567833778505,56.525128893083945],[37.031879510431054,56.51815257408202],[37.04025109161455,56.51474193029583],[37.04655561704806,56.51438019508993],[37.052136672069764,56.51551707575243],[37.0554439630684,56.51755829487939],[37.057304315042074,56.52342356984184],[37.06257531080195,56.53334544553587],[37.06701948426178,56.53468903357202],[37.075597771919604,56.53618764944042],[37.104743279578656,56.53812551488056],[37.11239139214899,56.5412002627819],[37.11776574069637,56.54461090836668],[37.120556267757536,56.548176580884444],[37.13492231601208,56.56026886691467],[37.14091678218375,56.56724518501727],[37.1463944844179,56.57649526624351],[37.14897830590405,56.58274811483358],[37.150218540253434,56.58739899386842],[37.14980512910341,56.591429755278966],[37.14866824664227,56.59473704717698],[37.14401736760743,56.60067983740453],[37.13130496575155,56.611635240074236],[37.12851443869039,56.61556264869728],[37.12686079319104,56.62047191015051],[37.12696414597855,56.62910187375246],[37.12934126188969,56.6341144879932],[37.132855259362714,56.63799022157144],[37.14515425006857,56.645173245249055],[37.154249301663924,56.65235626892667],[37.15569624158826,56.65669708869967],[37.15321577288961,56.65995270375424],[37.14794477712974,56.66222646777726],[37.1433972508824,56.664655260531845],[37.14122684144553,56.667885037164694],[37.14494754359424,56.67028799149756],[37.15765994634944,56.676566676710706],[37.15941694463629,56.67948639588042],[37.159106887173095,56.68170848216067],[37.15703982872509,56.68315542298433],[37.12272667809367,56.70444611339741],[37.117042271183834,56.70945872673883],[37.118385858320664,56.7181920440276],[37.120556267757536,56.72584015569862],[37.12407026523056,56.73240306355052],[37.15207889222705,56.754055488270126],[37.16282759022107,56.74974050601952],[37.23104048033389,56.772917385029245],[37.24706017408772,56.77550120741478],[37.256982048882435,56.77537201620555],[37.259669224055415,56.77250397387928],[37.261012811192245,56.76919668198127],[37.262769810378416,56.76191030551615],[37.264113396615926,56.7585771760958],[37.26742068941326,56.75576080971359],[37.27155480271193,56.756949368118796],[37.28695437974079,56.764235745483234],[37.29656619617299,56.766561184550994],[37.33584028510103,56.76805980131877],[37.3464856303076,56.770798652435815],[37.3587846210134,56.77648305934571],[37.36674279194625,56.77880849931279],[37.373977491567985,56.7802296008154],[37.44322391135438,56.786198229464674],[37.48508182086931,56.782012438423294],[37.493350051064,56.78299429035417],[37.49893110518633,56.7847512877417],[37.50089480994751,56.786430773461404],[37.503685337008676,56.78919546210085],[37.506165805707326,56.79245107715548],[37.50823286325601,56.79643016172258],[37.51133344867969,56.804750067861335],[37.51567426935202,56.81306997310077],[37.52859337678291,56.82645416942432],[37.557222121403754,56.849605210911704],[37.558979119690605,56.85211151803213],[37.559392530840626,56.85384267789726],[37.55815229739056,56.8553412955643],[37.555878534266924,56.85704661700777],[37.55350141835572,56.85952708570642],[37.55257124236891,56.8625759960853],[37.555878534266924,56.866555081551724],[37.56269982273858,56.87291128203003],[37.56373335061363,56.87637360355893],[37.562803176425405,56.87952586492668],[37.559702590102404,56.88236806883128],[37.547610304971556,56.889628607774],[37.544509718648555,56.892264106103596],[37.5441996602861,56.89601064757329],[37.54668012898475,56.90017060019301],[37.553398064668954,56.90562246400549],[37.5600126475656,56.90719859513905],[37.56652387857412,56.90675934556731],[37.581510043553635,56.903762112031814],[37.59205203597264,56.90329702403841],[37.597116327056824,56.90526072879959],[37.59990685411799,56.908257962335085],[37.598873325343675,56.911306870915325],[37.598046502144314,56.91507925080674],[37.598046502144314,56.91921336500474],[37.60207726355486,56.92525950801985],[37.60693484906403,56.92836009434285],[37.65644087114924,56.943501288053994],[37.71163130104367,56.952751370179556],[37.723930291749525,56.95357819337892],[37.738813103941595,56.95184703171509],[37.75111209464745,56.92407095051391],[37.76454796691513,56.91647451388769],[37.83234744587793,56.90557078716205],[37.85084760922979,56.90071320345157],[37.85952924967512,56.89719920507923],[37.86469689264743,56.89365937008381],[37.86604047978432,56.890274562920695],[37.868107538232266,56.88148956968786],[37.87224165243032,56.87559845630369],[37.87875288343878,56.872756253298405],[37.88609093584802,56.871205959687245],[37.8930155780065,56.87110260689974],[37.89859663302815,56.872394518092506],[37.903144159275485,56.874513250685936],[37.90727827257422,56.87694204433984],[37.91368615079523,56.87885407225758],[37.921437616153014,56.87993927697602],[37.9343567235839,56.87931916025104],[37.94128136574244,56.87658030913394],[37.97156375496331,56.85673655954457],[37.97435428202448,56.85384267789726],[37.975801221948814,56.850638739686076],[37.97683475072313,56.84717641905644],[37.97766157392249,56.843662421583474],[37.979831984258624,56.83849477771179],[37.983552687306656,56.832500312439436],[37.99812544113615,56.81730744098559],[38.00101932098488,56.81332835641848],[38.001639438609175,56.8102794460396],[38.00215620344602,56.79932404247057],[38.003189732220335,56.792244371580466],[38.00349978968353,56.785268053477864],[38.004326612882835,56.78232249588643],[38.007220492731506,56.77741323533252],[38.01125125504137,56.774881089790426],[38.01466189972689,56.77358917949698],[38.05548628136677,56.77338247302271],[38.25650760324328,56.770230210755585],[38.279141879893814,56.7643907742148],[38.29402469298515,56.75477895778266],[38.306013625328546,56.74434031815116],[38.31107791461403,56.73844920476694],[38.31386844257452,56.73374664978803],[38.31407514814953,56.72739044930978],[38.31479861766206,56.722817083741404],[38.318105909560074,56.715143134547986],[38.322756788594916,56.71098318102895],[38.328131138041556,56.708166816445384],[38.3741231626538,56.69659129525206],[38.365131462946636,56.687392889969885],[38.35252241387826,56.68248362941591],[38.32740766762976,56.67545563446993],[38.32317019974488,56.67188996015352],[38.32286014228174,56.668660183520615],[38.337742953574434,56.65866079436012],[38.34074018710993,56.65587026639963],[38.34322065580858,56.65183950498914],[38.34539106614477,56.64700775790169],[38.34632124213158,56.63881704387143],[38.34425418458295,56.63390778331751],[38.32317019974488,56.611066800192646],[38.319656203171235,56.60476227475914],[38.31779585119756,56.59954295494339],[38.31841596882191,56.596028958369686],[38.319449496696905,56.59261831278491],[38.327717725992215,56.57556509115602],[38.32906131402842,56.57050080007184],[38.32957807796589,56.562284246720594],[38.32689090279291,56.55778839821596],[38.322550083019905,56.554791165579786],[38.31035444510155,56.55313751918112],[38.30353315573052,56.551122138475876],[38.296505160784534,56.546832993747614],[38.29371463372337,56.53830638293317],[38.29340457536085,56.533035387173356],[38.295368280122034,56.52890127207604],[38.304463331717386,56.52236420444444],[38.309837681164026,56.516808986945136],[38.3151086769239,56.505026760176804],[38.31872602718437,56.49892894121763],[38.322550083019905,56.4944847677578],[38.38001427603797,56.468414008000025],[38.383734979086,56.46606273140992],[38.388075798859006,56.46254873303758],[38.39334679461888,56.455727444565866],[38.395000441017544,56.450714830325126],[38.39562055774252,56.446451524018585],[38.39438032429251,56.44053457311202],[38.38001427603797,56.41107900709045],[38.380117628825474,56.406221422480655],[38.38259809662486,56.402707425007634],[38.39624067626619,56.39588613473728],[38.400168083989854,56.39340566693795],[38.403682082362195,56.38937490552746],[38.406782667785876,56.384207262555094],[38.41112348755888,56.37480215079859],[38.41236372190821,56.368962714257805],[38.411950310758186,56.36100454422433],[38.410400018046346,56.35196116857304],[38.40915978369702,56.33457204926066],[38.40957319484704,56.326174627856744],[38.41102013477138,56.31821645782327],[38.41691124905486,56.29837270823384],[38.41784142414241,56.29129303734379],[38.41711795373055,56.285892849475374],[38.41391401462005,56.282869778417535],[38.40605919827334,56.27635854830834],[38.402338495225365,56.27155263874323],[38.40182173038852,56.267676906963686],[38.40275190637533,56.26424042385645],[38.41257042838254,56.25207062435982],[38.420631952102895,56.24380239506445],[38.45649539634542,56.21804169456851],[38.47137820763817,56.21522532818631],[38.496699660361,56.22566396781781],[38.503934360882,56.226955878111255],[38.50631147589388,56.225767319705994],[38.506001418430685,56.21992788406459],[38.49204878132616,56.189180405950935],[38.4924621933755,56.17817332643784],[38.50104048013401,56.169000759577386],[38.502694125633354,56.166442776512895],[38.506001418430685,56.16044831034122],[38.51633670437536,56.13246552176639],[38.52057417226024,56.12375804289934],[38.52460493277141,56.11781525357105],[38.55126997173181,56.09662791594553],[38.56232872898761,56.08324372052124],[38.56584272556131,56.06288320609508],[38.56987348787112,56.053555610503],[38.58010542192767,56.0367349310722],[38.58299930177634,56.02833751146693],[38.583102654563845,56.02180044203675],[38.580415480290185,56.01797638620121],[38.57101037033232,56.00702098173292],[38.56821984237183,56.002628486015794],[38.567289667284285,56.000871486829624],[38.56697960802245,56.00009634137302],[38.581965773002025,55.983198147576445],[38.59509158690719,55.965059719430485],[38.59788211396835,55.962320869212704],[38.605633579326195,55.95885854858312],[38.61400516140907,55.960615545970654],[38.64366743300559,55.96743683534163],[38.65699995338514,55.96593821947323],[38.663614536281784,55.96325104430025],[38.69172651516652,55.95627472619765],[38.71115685360587,55.95642975492922],[38.722422316436734,55.95506033026999],[38.72914025212094,55.953484199136426],[38.77833621584364,55.919584458755764],[38.78402062365285,55.91793081325642],[38.788361444325176,55.91818919477549],[38.79755984870803,55.92020457638006],[38.820710890195414,55.921909897823525],[38.839417759122284,55.900903429149935],[38.85822797993728,55.90563182255056],[38.878691847151,55.919946193961664],[38.88727013480883,55.9233568395465],[38.89533165942851,55.924183661846484],[38.9124882338449,55.9186284452465],[38.9302649267849,55.91459768293669],[38.947111443738095,55.91250478786566],[38.95641320180778,55.91265981749655],[38.966851841439336,55.91483022693342],[38.9980644057477,55.92506216098991],[39.008399692591695,55.926095689764225],[39.01584109868776,55.92521718972148],[39.01914838968639,55.92258169229126],[39.021732212071925,55.91968781244259],[39.025142856757384,55.913796699058366],[39.027519971769266,55.907285468049906],[39.028243443080385,55.90387482426371],[39.02917361816793,55.888010159241446],[39.03072391087977,55.882403265798075],[39.03764855303825,55.869458319945466],[39.047363722257955,55.85767609317713],[39.05439171720394,55.85245677336138],[39.09935021304187,55.83444753732397],[39.112682733421366,55.8311919222694],[39.123121372153605,55.829770819867406],[39.192264439152495,55.83964101781868],[39.30977664577557,55.83064931901083],[39.324659457967584,55.82760041043059],[39.32900027774059,55.82527497046351],[39.3323075696386,55.822639472133915],[39.33478803923657,55.8196939154418],[39.33633833194841,55.81643830038723],[39.33644168473592,55.81287262607083],[39.33571821522344,55.809151923022796],[39.333547804887246,55.80543121997482],[39.330860629714266,55.801813869714294],[39.320835402132104,55.79209870139391],[39.317734815809104,55.78858470302163],[39.3153576998979,55.78512238239199],[39.31473758317293,55.781608384919025],[39.31649458235904,55.77855947543941],[39.322385694843945,55.77468374276049],[39.348223910604986,55.76315989841055],[39.35814578629896,55.7610411649178],[39.36558719329429,55.76109284086186],[39.370341424217315,55.76300486877966],[39.37809288867584,55.76429677997237],[39.388324822732386,55.765020250384225],[39.420260858351924,55.76300486877966],[39.42863244043474,55.763624986403954],[39.448166130762274,55.77049795171905],[39.46077518072997,55.77246165648023],[39.48185916466872,55.77354686119867],[39.55523969865317,55.77607900674076],[39.565161574347144,55.77757762350848],[39.57870079940233,55.78093659135061],[39.58593549992338,55.784657294398585],[39.5997847842404,55.78982493827027],[39.60908654231008,55.7914785828703],[39.61797488833042,55.79165945092291],[39.665620558442015,55.78248688406245],[39.67378543494982,55.78359792720255],[39.679883253909,55.78667267510383],[39.68422407368206,55.79209870139391],[39.69703982922471,55.800470283476784],[39.731559686330456,55.81220083340173],[39.79853234209389,55.829977525442416],[39.82313032440493,55.83281972934702],[39.83749637176015,55.83064931901083],[39.85672000462449,55.82561086724769],[39.87894087102438,55.81594737397211],[39.88441857325853,55.8127175973392],[39.8884493337697,55.8096170110162],[39.891239861730185,55.806826483955035],[39.89351362485388,55.80388092726298],[39.89527062404005,55.800676988152475],[39.89630415191505,55.79731802031034],[39.89692426864008,55.79375234599394],[39.89682091675189,55.79013499573341],[39.89620079912754,55.786233426431465],[39.890929803367726,55.76998118778158],[39.88886274581904,55.74724355744422],[39.90023156143741,55.7344794787449],[39.95500857928249,55.699494534545124],[40.06218549996083,55.63174673152639],[40.0850264830857,55.61260061302784],[40.08471642382386,55.6088023947147],[40.08295942643633,55.60471995736009],[40.08078901520088,55.60068919505028],[40.04781945170629,55.561466782965624],[40.03686404813726,55.545653794786745],[40.03500369616364,55.53909088783416],[40.034073521076095,55.53097768816974],[40.03593387215045,55.51655996397113],[40.03986128077349,55.51113393858037],[40.04482221907011,55.509247748184976],[40.085336542347534,55.52092662216586],[40.11758263543027,55.52637848597834],[40.122543572827624,55.525965073929],[40.12802127506177,55.524518134004666],[40.13618615067031,55.52059072538162],[40.14052697134264,55.51723175753955],[40.14331749930312,55.51392446654086],[40.14486779201496,55.51072052743035],[40.18042117699571,55.459715888577364],[40.18197146970755,55.45615021426096],[40.18290164569436,55.45273957047476],[40.183418409631884,55.44917389615836],[40.18279829290685,55.44560822184195],[40.18073123625754,55.44232676926498],[40.17701053231019,55.43997549087618],[40.16636518710368,55.4376500509091],[40.13732303223213,55.43418773117884],[40.13732303223213,55.424136664275636],[40.14269738077945,55.40612742823822],[40.18558881996802,55.32633901603276],[40.19220340286472,55.319827785923565],[40.20646609923108,55.30933747034794],[40.13112186138477,55.25437958445025],[40.029112582779476,55.21254751245772],[40.01205936115059,55.20350413680643],[40.00141401504476,55.20040355138275],[39.91976525176494,55.18676097354006],[39.82695438024041,55.182575182498624],[39.81734256380827,55.17947459617562],[39.805663689827384,55.17379018836647],[39.77558800618152,55.15224111643437],[39.76742312967366,55.144851386282426],[39.75646772610463,55.139425360891664],[39.72019087071209,55.12604116546737],[39.71926069472528,55.12273387356936],[39.741894972275134,55.10779938453396],[39.7508866719823,55.103251858286626],[39.7604984884145,55.09947947929453],[39.76566613138681,55.098781847304394],[39.77031701042165,55.09958283118266],[39.774864535769666,55.10118480073794],[39.80969445213725,55.11834137605365],[39.8198230316076,55.12139028643253],[39.82530073384174,55.12237213836346],[39.83780643102193,55.12260468236019],[39.844627720392964,55.121855374425934],[39.85785688708563,55.11896149457726],[39.868708936967835,55.11503408505496],[39.87284305206515,55.11265696914376],[39.88018110537371,55.10748932617145],[39.883178338009884,55.10469879821096],[39.88576216039536,55.101494859100455],[39.88793256983223,55.09787750883993],[39.889172805080875,55.09286489549851],[39.88948286344339,55.08862742851301],[39.889172805080875,55.08477753425575],[39.88824262909401,55.08134105114857],[39.81279503756093,54.99747020068918],[39.75584760937966,55.016461290456164],[39.71212934699173,55.02255910941534],[39.68453413294384,55.020724595863385],[39.602575311301564,55.005893460514756],[39.60009484170354,54.994524644896444],[39.5997847842404,54.99106232426681],[39.5966841979174,54.98610138597019],[39.591413202157526,54.982173977347145],[39.544387647871645,54.969461575491266],[39.526094190994115,54.961761786976865],[39.50263309114422,54.947292385035496],[39.48837039567718,54.94083283087042],[39.482685987868024,54.93638865830991],[39.47627811144565,54.92972239856982],[39.46077518072997,54.90791494421927],[39.45467736177079,54.901817125260095],[39.448992953961636,54.897760525427884],[39.3977299326902,54.87608226228656],[39.39245893693038,54.87189647124512],[39.387084588383004,54.865798652285946],[39.37912641834953,54.85339630789326],[39.37592247923902,54.84626496015977],[39.37416548005285,54.840632229194],[39.37385542169034,54.83443105744732],[39.374785596777826,54.82600779942038],[39.374785596777826,54.82233877231647],[39.37406212726535,54.8148198509553],[39.37261518734101,54.80686168092183],[39.37137495299169,54.802805081089616],[39.369204542655496,54.79825755484228],[39.36620731001932,54.793554998964],[39.360316195735834,54.78673371049234],[39.331067336188596,54.75872508439511],[39.328586866590626,54.755366116553034],[39.32744998592807,54.75174876629251],[39.328380161015616,54.7484414743945],[39.33168745291357,54.74585765200902],[39.33644168473592,54.74371308009455],[39.35587202317532,54.739553128374155],[39.35907596228583,54.73707265877613],[39.35835249187397,54.73319692609721],[39.354735141613446,54.7288561063242],[39.34812055781748,54.722990831361756],[39.33985232942143,54.71958018757556],[39.328690220277394,54.71753896844859],[39.29148318889804,54.72038117145388],[39.264921501825825,54.719709377885465],[39.23794640540228,54.71102773744008],[39.23401899587992,54.70325043455989],[39.233708936618086,54.70089915617109],[39.233708936618086,54.6972301299665],[39.23494917186679,54.6868948431225],[39.23670617015358,54.679970200963965],[39.2432174011621,54.66348541921667],[39.243940870674635,54.659971421743705],[39.244457634612104,54.65640574832662],[39.244147577148965,54.652633369334524],[39.24290734190026,54.64875763575628],[39.24135704918842,54.64498525676419],[39.23866987491476,54.641445420869445],[39.23556928859176,54.63826732018066],[39.23205529201812,54.635270087544484],[39.225234001747765,54.63325470593992],[39.21572553900239,54.63216950122148],[39.17645145007435,54.63552846906356],[39.168596632828326,54.63516673385766],[39.15960493312116,54.63175609007146],[39.15061323431331,54.62963735657871],[39.1399678891068,54.62813873981099],[39.04012902173696,54.62462474233797],[39.02762332455677,54.622170112060985],[38.98576541504184,54.60824331337818],[38.97822065615833,54.60281728798742],[38.97129601399985,54.59664195376314],[38.967575310951815,54.59392894106776],[38.962511020766954,54.592895413192764],[38.95672326017029,54.59341217713023],[38.94979861801181,54.597494615384164],[38.946181267751285,54.60090526006968],[38.93956668485458,54.61064626681173],[38.9364660994309,54.61341095635055],[38.9325386899086,54.6159689403143],[38.92716434136122,54.6174933955038],[38.92137658076456,54.61821686501628],[38.9090775900587,54.61801015944127],[38.83693729042358,54.60630544703872],[38.8204008318329,54.601938787944675],[38.80768842997702,54.58994985650065],[38.79549279205867,54.56912425408103],[38.78143680216664,54.553776353895614],[38.779266391830504,54.543492743895],[38.791048617699516,54.519618231995764],[38.79383914566,54.50974803314517],[38.79394249934683,54.506569933355706],[38.79456261607186,54.502926743774196],[38.79425255681002,54.50013621671303],[38.78763797391332,54.477656968794065],[38.787431268338366,54.47388458890265],[38.78805138506334,54.47037059232895],[38.79053185376205,54.463756009432245],[38.79383914566,54.457399807155355],[38.79766320239486,54.45119863540867],[38.8034509620922,54.448149725929056],[38.81233930811254,54.445049140505375],[38.887373487596335,54.42660065399696],[38.918999464853414,54.41213125295491],[38.91775922960471,54.40453481722801],[38.91486534975604,54.40127920217344],[38.908767530796865,54.397661851912915],[38.89688195214035,54.3942512072274],[38.88137902232398,54.39182241537213],[38.87559126172732,54.39022044491759],[38.87021691318,54.38742991785642],[38.86535932767083,54.38097036369129],[38.86070844863599,54.376474514287395],[38.85554080566362,54.37327057607621],[38.847169223580806,54.37285716402687],[38.84272505102024,54.3745624863696],[38.83962446469724,54.377456367117645],[38.838074171985454,54.38060862938471],[38.83342329295061,54.381642158159025],[38.82567182759277,54.380505275697885],[38.81016889777641,54.37285716402687],[38.79414920402252,54.36753449232293],[38.781230095692365,54.36613922834266],[38.776579216657524,54.36466644999666],[38.77306522008382,54.36231517250718],[38.77151492737198,54.357974351834855],[38.768827752199,54.355080471086865],[38.762936638814836,54.35244497275727],[38.73689171657941,54.345055244403966],[38.73079389762023,54.33931915975137],[38.72448937398542,54.3299657248383],[38.71518761591574,54.3076415074496],[38.71219038327956,54.297409573393054],[38.711260207292696,54.28994232887533],[38.7125004407427,54.28294017235106],[38.7125004407427,54.279322822090535],[38.71208702959274,54.27172638636364],[38.71001997204405,54.26681712491035],[38.705059034646695,54.261003525891965],[38.69730757018817,54.25358795821768],[38.67508670378834,54.24467377377562],[38.637052850108944,54.253329575799285],[38.59509158690719,54.271623033576134],[38.521194288985214,54.28883128483591],[38.51571658675107,54.31205984248771],[38.51375288288921,54.36404633237231],[38.509102003854366,54.38195221652154],[38.50455447760703,54.38856680031756],[38.499283481847215,54.3931143265649],[38.49370242682551,54.3950005151616],[38.4734452651868,54.39947052704315],[38.467657504590136,54.401356717438546],[38.46331668481713,54.403604641241145],[38.459699333657284,54.40618846272736],[38.422388950389745,54.44205190696988],[38.39582726421685,54.463032538121126],[38.3903495619827,54.46861359314278],[38.38838585812084,54.47233429619081],[38.387455682133975,54.477011012747994],[38.38662885893467,54.48899994599071],[38.38445844859848,54.496157132145925],[38.382804803099134,54.499619452775505],[38.37577680815315,54.50840444600834],[38.37546674979063,54.51166006106297],[38.3772237489768,54.51476064738591],[38.38528527179784,54.51780955686553],[38.39158979723135,54.519489040786596],[38.426419711800236,54.52457916939312],[38.436444940281774,54.527369697353606],[38.44099246562979,54.52933340121547],[38.456288689871144,54.544681301400885],[38.47292850124933,54.566282050176426],[38.48223025931901,54.57491201377837],[38.48998172377753,54.57971792334348],[38.50786176860572,54.581733303149406],[38.5128227069024,54.58312856712962],[38.51664676273788,54.58591909419084],[38.51685346921221,54.59279206040526],[38.51509647002604,54.597701320959175],[38.49421919076303,54.62263520005439],[38.48099002496963,54.63315135405173],[38.47633914593479,54.63617442510963],[38.4715849141125,54.638370672968165],[38.46217980325531,54.640334377729346],[38.3934501483057,54.64426178725165],[38.386318800572155,54.64591543185168],[38.368232049269636,54.65573395385883],[38.36389122859731,54.65671580668908],[38.35727664570061,54.654752101927954],[38.34787153484342,54.65079885488319],[38.344150831795446,54.64986867889638],[38.340430128747414,54.64953278301152],[38.21878380702702,54.659558009694365],[38.20927534428171,54.663278714541036],[38.20276411327319,54.66945404696668],[38.19925011580017,54.673820706060724],[38.19211876806668,54.68400096327383],[38.18943159379302,54.6868948431225],[38.185090773120635,54.68901357751457],[38.178579543011494,54.68994375350138],[38.161009555646444,54.6868948431225],[38.1563586766116,54.68529287446654],[38.14819380100312,54.68167552330675],[38.14302615713143,54.68105540658172],[38.13682498628407,54.68245067056199],[38.13062381363807,54.68699819591001],[38.1173946469454,54.69940054030269],[38.10488894976521,54.70358633134407],[38.0665450377233,54.704103095281596],[38.0494918151951,54.70927073825396],[38.039259881138605,54.71366323487035],[38.03553917809057,54.71691884992498],[38.03274865102941,54.72097544975719],[38.03192182783005,54.72800344470318],[38.03285200381691,54.73327444136237],[38.03553917809057,54.742291979491256],[38.03584923735241,54.74616771127086],[38.03553917809057,54.74973338468794],[38.03161176856827,54.75394501415104],[38.0253072449334,54.75867340845099],[38.01083784389135,54.765753079341096],[38.002569613696664,54.768646959189766],[37.99657514842431,54.77004222317004],[37.97280398931264,54.7693704287023],[37.966602817565956,54.76993887038253],[37.961331820906764,54.7723676622378],[37.95833458827059,54.77665680606674],[37.958851353107434,54.785028388149556],[37.95988488098243,54.7908161478469],[37.958851353107434,54.798360908529105],[37.9574044131831,54.80347687375871],[37.943451776078575,54.822648831578306],[37.938594190569404,54.83226064711113],[37.84371626239556,54.83830679012624],[37.83007368275423,54.83618805573417],[37.8063025254412,54.82680878419802],[37.79555382744718,54.82466421228355],[37.768475376437436,54.82507762343357],[37.75586632736906,54.823165595515775],[37.74987186119739,54.820323390711906],[37.75028527234741,54.80952301677377],[37.752455681784284,54.80580231372579],[37.75545291531978,54.80249502182778],[37.764237908552616,54.794278469375854],[37.76640831888881,54.79128123584036],[37.768268669963106,54.78818065041668],[37.76971561078676,54.78492503536205],[37.77002566914928,54.781204332314076],[37.76971561078676,54.77738027647854],[37.75834679516845,54.73621999805442],[37.7407768078034,54.72709910713803],[37.67132368334131,54.71350820613878],[37.56425011634974,54.73650421799522],[37.559599237314956,54.7384679227564],[37.55773888534128,54.74275706568602],[37.55691206214192,54.74663279926426],[37.5566020037794,54.75040517825636],[37.554948358280114,54.75345408773592],[37.55226118310708,54.75598623327801],[37.5485404800591,54.75836334918921],[37.503271925858655,54.77606252686411],[37.49800093009884,54.77929230439628],[37.484771763406115,54.78916250324693],[37.47908735469764,54.79469188142514],[37.474539829349624,54.800634670753425],[37.46947553916476,54.81014313439812],[37.46544477685495,54.816240953357294],[37.46079389782011,54.822261257950686],[37.457589958709605,54.82497426974675],[37.45438602139774,54.82729970971383],[37.44766808391489,54.83024526640588],[37.44115685380575,54.8310204127618],[37.43247521336036,54.83114960397103],[37.38410607283697,54.822416287581575],[37.25904910733044,54.83582632142759],[37.19941450397613,54.859442450908375],[37.18752892442029,54.867891547356976],[37.18856245319466,54.87060456005236],[37.19155968583084,54.875410467818824],[37.19652062412746,54.881818346039836],[37.19910444471435,54.886210843555546],[37.20024132717549,54.89117178005358],[37.199001091926846,54.899284979718004],[37.19600385929067,54.90383250596534],[37.19228315624264,54.907398180281746],[37.15879682791126,54.927629503498736],[37.152699008952084,54.9331847191994],[37.14990848189092,54.93835236307109],[37.15011518656661,54.942253933272355],[37.14835818917908,54.94791250355917],[37.14484419080674,54.955018011971674],[37.12003891836139,54.99082417569514],[37.21073155551687,55.01642545067398],[37.21621078569916,55.08378090916159],[37.283676361674736,55.148991034908306],[37.33952849834151,55.11859979354563],[37.42475346609956,55.18424411467413],[37.46303603718337,55.28071730525943],[37.41125417903709,55.320476431841826],[37.46296973196752,55.37901783010875],[37.565594257469,55.35849292500848],[37.62794870297023,55.47530756259391],[37.65911544682041,55.56891644303937],[37.69563369643794,55.5782800969489],[37.75743381062182,55.60449832753574],[37.812679368058355,55.649443865042315],[37.83983396376641,55.71686217175181],[37.878423627248594,55.71514164636983],[37.88854604456429,55.737635907571075],[37.842869940994944,55.76253380119397],[37.83140667497804,55.80675324766423],[37.80050661788607,55.8376533047562],[37.72599734929821,55.87204214143168],[37.61147341356718,55.90366508797342],[37.55655578222354,55.89542744372153],[37.50987579513179,55.88718979857032],[37.4589206288839,55.88126966945964],[37.41376993983084,55.9393615487964],[37.375327597890305,55.92288625939335],[37.431105591749656,55.8777231048374],[37.39974223811379,55.85638061257521],[37.38382402745685,55.81798963181603],[37.35573306572837,55.78053501707734],[37.34824214296049,55.74401676745981],[37.41407840279601,55.65985871041113],[37.21057470296017,55.60161811468424],[37.17487824303646,55.44784874692209],[37.02385475639187,55.44784874692209],[37.021108874375045,55.51924166766878],[36.912781945630286,55.516590057085466],[36.91401949280532,55.42588169348534],[37.014455569369034,55.301191475106464],[36.9043420753265,55.22913564699246],[36.89648725808047,55.22836050153592],[36.88718550001079,55.22510488558197],[36.88181115056415,55.222159328889916],[36.878710565140466,55.21854197952871],[36.87819380120294,55.21502798115637],[36.877160272428625,55.21048045490903],[36.874783155618104,55.20567454714262],[36.86909874870827,55.19947337539594],[36.8577299330899,55.196682848334774],[36.785589634354096,55.1905850293756],[36.780421991381786,55.19213532208744],[36.776701288333754,55.19435740836769],[36.775771112346945,55.19730296505975],[36.77659793464693,55.200093492120914],[36.781558872044286,55.20624298792353],[36.78538292787982,55.219833888922835],[36.7825924008186,55.22603506156884],[36.77949181539492,55.23130605732865],[36.775357700297604,55.23611196599438],[36.751483189297744,55.2557490100088],[36.738770785643226,55.261226712242944],[36.73205284995902,55.263345444836375],[36.72502485501303,55.26479238476071],[36.6896781756073,55.26729869188108],[36.64978396995423,55.27931346354546],[36.638518508022685,55.280657049782974],[36.63242068906351,55.280346992319835],[36.62704633961687,55.279158433914574],[36.61671105277287,55.27486929008563],[36.60988976430116,55.27303477653368],[36.597694126382805,55.27287974690279]],[[37.25408128112622,55.959506850960395],[37.302060167143,55.99705554467761],[37.2937160125839,56.0304321611153],[37.20193031782986,56.05963670027347],[37.17689785505195,55.9907974287583],[37.25408128112622,55.959506850960395]],[[37.0433913902005,55.669547496219934],[37.11014462307588,55.68623580443881],[37.153951431813084,55.69666599673832],[37.16438162411265,55.7321286518158],[37.08094008301839,55.742558845014685],[37.00167061920371,55.7321286518158],[36.98081023460463,55.69875203537811],[36.99124042690414,55.67997768941882],[37.0433913902005,55.669547496219934]]]},"properties":{"adm1_code":"RUS-2364","name":"Moskovskaya","name_alt":"Moskovskaya Oblast","name_en":"Moscow","adm0_a3":"RUS"}}