{"type":"Feature","geometry":{"type":"Polygon","coordinates":[[[55.52808655802082,-4.736832084276617],[55.5196609537231,-4.739172529914872],[55.51685241895719,-4.750406668978492],[55.52574611238256,-4.770066412339828],[55.50967069574597,-4.771348347148489],[55.50571945688739,-4.761250738530748],[55.504402377267866,-4.743250652195854],[55.50503229660319,-4.739088617645621],[55.507946713370075,-4.719832337592322],[55.50967069574597,-4.72525056676028],[55.52808655802082,-4.736832084276617]]]},"properties":{"adm1_code":"SYC-5202","name":"Anse Royale","name_alt":"","name_en":"Anse Royale","adm0_a3":"SYC"}}