{"type":"Feature","geometry":{"type":"Polygon","coordinates":[[[55.45993682209207,-4.598546432796902],[55.45993682209207,-4.606479028114127],[55.45884595359554,-4.618115330384728],[55.44732893518221,-4.62076226376746],[55.44864601390242,-4.6128597869496275],[55.44074353708453,-4.604518283591915],[55.45435335892034,-4.597493859853785],[55.45993682209207,-4.598546432796902]]]},"properties":{"adm1_code":"SYC-5213","name":"English River","name_alt":"","name_en":"La Rivière Anglaise","adm0_a3":"SYC"}}