{"type":"Feature","geometry":{"type":"Polygon","coordinates":[[[55.478001021330044,-4.7064062913173075],[55.4681711496815,-4.70547011272401],[55.45834127800084,-4.690959349766833],[55.44897949510761,-4.677852854125945],[55.449963093521944,-4.673884467893913],[55.44645088210251,-4.672567388274331],[55.44688990864233,-4.666421017615903],[55.455231411100726,-4.665103938895697],[55.4591826499593,-4.657640488617687],[55.47981689463393,-4.672128362633828],[55.47749005442245,-4.6651478411000085],[55.48272359431837,-4.6622530988015],[55.49518282172983,-4.677835706752489],[55.491670609411074,-4.688372341910053],[55.48069494771363,-4.697152871807589],[55.478001021330044,-4.7064062913173075]]]},"properties":{"adm1_code":"SYC-5210","name":"Grand'Anse","name_alt":"Grand' Anse Mahé","name_en":"Grand'Anse Praslin","adm0_a3":"SYC"}}