{"type":"Feature","geometry":{"type":"Polygon","coordinates":[[[-60.654711119054895,11.307976167608473],[-60.63581295499995,11.314846096000053],[-60.60757402299993,11.320705471000053],[-60.595814581999946,11.327297268000052],[-60.583648240999935,11.32953522300005],[-60.56773841099994,11.32029857000009],[-60.56037350199995,11.321193752000056],[-60.54133053299995,11.343410549000055],[-60.530506964999915,11.351060289000088],[-60.52306067599994,11.34365469000005],[-60.52208411399994,11.318833726000037],[-60.52554277299993,11.28815338700008],[-60.53302975199995,11.266506252000056],[-60.544178839999915,11.269110419000071],[-60.55036373599995,11.269110419000071],[-60.55650794199994,11.254095770000049],[-60.565297003999945,11.252427476000037],[-60.57526607999995,11.25576406500005],[-60.58511308499993,11.255519924000055],[-60.58706620999993,11.251125393000052],[-60.60204016799992,11.23143138200004],[-60.605580206999946,11.230658270000049],[-60.62877356699994,11.216538804000038],[-60.6360570949999,11.210760809000078],[-60.64712480399993,11.20416901200008],[-60.66455702928346,11.218604122482247],[-60.67901629946266,11.23099778302128],[-60.70424187546217,11.240745891709537],[-60.694412008507356,11.250258654113566],[-60.66662263892363,11.268178763738945],[-60.64699934374471,11.29193327999684],[-60.654711119054895,11.307976167608473]]]},"properties":{"adm1_code":"TTO-50","name":"Eastern Tobago","name_alt":"Tabago","name_en":"Tobago","adm0_a3":"TTO"}}