{"type":"Feature","geometry":{"type":"Polygon","coordinates":[[[30.503595818991812,-0.2559013812437456],[30.561163363898117,-0.2351791316116305],[30.62152143676485,-0.22722096067877828],[30.605088331860998,-0.28742400481399955],[30.63795454256808,-0.32277068421973354],[30.665756463090304,-0.3292819152281936],[30.679399040932992,-0.3509343399478553],[30.67526492673494,-0.38684946013449917],[30.699449496996692,-0.4126876767948602],[30.809727003998034,-0.49774708386081556],[30.779651320352116,-0.5435324028981086],[30.774276970905476,-0.5739181449064858],[30.765181919310123,-0.6050273582260388],[30.72869835834257,-0.6045622702325772],[30.707407667929488,-0.6139673801904451],[30.68839074064016,-0.6173263480325204],[30.647463006212774,-0.612055352272705],[30.639608188966747,-0.6462134741724981],[30.640951776103577,-0.664920343099368],[30.635474073869375,-0.6835238574400933],[30.639504836179242,-0.7263119438411536],[30.64017189481706,-0.8138357019560658],[30.589998814093974,-0.8056869439972729],[30.563540479809262,-0.8067721487157087],[30.555892368138245,-0.8124048796814805],[30.549174431554775,-0.8193811986834021],[30.53925255676006,-0.8235669897247817],[30.528917270815384,-0.8255823704300838],[30.514447869773335,-0.8177275531840564],[30.498324823231997,-0.8214999321761525],[30.482925246203138,-0.8289930151155431],[30.45615685355591,-0.8233602841498282],[30.434349400104736,-0.8065654440400181],[30.413472120841675,-0.7975220674894103],[30.39331831199047,-0.8105962045511887],[30.36386274596896,-0.8177792291281207],[30.297096794881156,-0.8119397916880189],[30.262576938674783,-0.800622653812411],[30.258546177264236,-0.7811406385296777],[30.27270551904445,-0.7549406875626801],[30.33843794135788,-0.7141679827661847],[30.42515099482256,-0.6302971332061702],[30.440447219063913,-0.5924699851017294],[30.446751742698723,-0.5606373022696971],[30.46886925631111,-0.4873601210727543],[30.47000613787293,-0.4459672986519081],[30.467008905236753,-0.4124292934771461],[30.496774529620836,-0.3837488747108182],[30.492847120997794,-0.3157426901730105],[30.503595818991812,-0.2559013812437456]]]},"properties":{"adm1_code":"UGA-3374","name":"Mbarara","name_alt":"","name_en":"Mbarara","adm0_a3":"UGA"}}