{"type":"Feature","geometry":{"type":"Polygon","coordinates":[[[29.660804078000126,51.49313710600002],[29.682714885000053,51.491199240000086],[29.69997481300004,51.48370615700004],[29.71651127100006,51.46567108200004],[29.72529626500011,51.4504523720001],[29.737905314000045,51.43949696900005],[29.828649129000098,51.429962668000044],[29.8466325280001,51.43290822400006],[29.856761108000057,51.43985870400003],[29.87360762500009,51.4591856900001],[29.88626835100007,51.4647925820001],[29.896551961000057,51.46419830400005],[29.91257165500008,51.45742869100012],[29.92507735200013,51.45786794100003],[29.985745483000073,51.47786672000005],[30.00868981900004,51.48207835000001],[30.14862959800007,51.48442962700004],[30.177310018000128,51.479494527],[30.205370320000043,51.466497904000065],[30.24278405700005,51.43440684000005],[30.25689172300008,51.42505340600012],[30.307379598000068,51.40960215300002],[30.320195353000145,51.40208323200007],[30.326189819000092,51.39526194300002],[30.32903202300008,51.38862152100002],[30.330117229000052,51.38071502700008],[30.330013876000123,51.370353903000066],[30.328256877000058,51.362473247000096],[30.319885294000073,51.34159596800005],[30.31709476700013,51.340588277000066],[30.32453617400006,51.32996877100008],[30.355128621000063,51.30526743600008],[30.36846114100007,51.2976710010001],[30.383757365000122,51.293924458999996],[30.413522990000047,51.29405365000012],[30.428095744000075,51.29175404900009],[30.44277185100009,51.283046570000025],[30.46504439300014,51.261936748],[30.480702351000048,51.258862000000065],[30.494654989000082,51.25992136700005],[30.508090861000085,51.25767344200004],[30.52080326400005,51.25240244600009],[30.532017050000036,51.24462514300008],[30.539613484000085,51.2351683560001],[30.550672242000076,51.23679616300005],[30.55465684400008,51.24250742700009],[30.55718427933101,51.235115872299616],[30.55640913297509,51.23170522671484],[30.553773634645495,51.229121406127945],[30.54958784360406,51.227364406941774],[30.544161818213297,51.226640937429295],[30.52478315571807,51.22772614214773],[30.519615512745702,51.226795966160864],[30.51589480969767,51.2247547470339],[30.51480960497929,51.22033641199579],[30.51635989769113,51.21465200508595],[30.52788374204107,51.19475657775382],[30.53036421073972,51.18783193649466],[30.531397738614714,51.18028717671183],[30.53077762188974,51.172122301103286],[30.51279422427399,51.11675100405557],[30.51124393066283,51.10804352518852],[30.508143345239148,51.04675527633492],[30.512329136280584,51.01667959178968],[30.51356936973059,51.01316559521604],[30.51666995605359,51.010220038523926],[30.521475863820058,51.008101305031175],[30.532379592344284,51.008308009706866],[30.53811567609756,51.01029755288971],[30.5430766125956,51.012907212797586],[30.546642286912004,51.01531016713051],[30.55098310668501,51.01667959178968],[30.55578901535074,51.01717051910413],[30.561060012009932,51.01574941670219],[30.5677262708507,51.01316559521604],[30.57950849761903,51.00704193783514],[30.591962517955835,51.00469066034566],[30.600489128770278,51.00417389640819],[30.606845331047168,51.00487152839827],[30.61459679460637,51.003657132470664],[30.624673699931293,51.00022064936343],[30.649064975768,50.985570380268825],[30.654180942796245,50.98133291328327],[30.656661410595575,50.97838735569189],[30.658831820931766,50.97523509432409],[30.660382113643607,50.97192780242614],[30.662862583241576,50.9650031602676],[30.663482699966607,50.96130829474197],[30.663947787960012,50.95745840138409],[30.663172641604092,50.949164334566376],[30.658831820931766,50.931413479148716],[30.652630650084404,50.91467031498303],[30.65154544356733,50.910407009575806],[30.651080357372564,50.90624705695609],[30.651080357372564,50.90216461870216],[30.651700474097595,50.89839223881074],[30.65294070844692,50.89500743344627],[30.65511111788379,50.89198436148905],[30.661467319261362,50.88872874643448],[30.671544223686965,50.88526642490558],[30.725701124807017,50.87239899431813],[30.73469282361492,50.86901418715496],[30.767300652802874,50.85302033092353],[30.775982293248205,50.847413439278796],[30.78016808428964,50.84356354412222],[30.780013054658752,50.84035960591103],[30.77474205889888,50.81937897386052],[30.77148644384431,50.811162421408596],[30.76528527209763,50.799922796999454],[30.75567345566543,50.78615102794754],[30.741824172247732,50.770648098131176],[30.73949873228065,50.76726329186738],[30.73794843866949,50.7638268087602],[30.737638381206295,50.76020945939899],[30.740893996260922,50.757367255494444],[30.746475051282573,50.75566193315166],[30.757688836370676,50.75555858036415],[30.786524285667213,50.76072622333652],[30.79396569176322,50.759641017718764],[30.80249230257766,50.75710887307599],[30.81386111819603,50.75093353885171],[30.81928714358679,50.74667023434381],[30.825953403326878,50.74010732739123],[30.83044925273083,50.73814362173073],[30.836340366114996,50.73700674106823],[30.845332065822163,50.73785940178993],[30.850603061582035,50.74005565054779],[30.8544787942609,50.74294953129578],[30.862540317981257,50.75240631809709],[30.866571079391804,50.75442169880233],[30.871738722364114,50.75530019794576],[30.919177686900696,50.746980291807006],[30.93085656088158,50.74646352786948],[30.93876305497099,50.74747121822213],[30.95380089679395,50.75628204987669],[30.96341271322609,50.75884003384044],[30.97571170393195,50.75922760746806],[31.02986860505206,50.75581696188328],[31.041805860552017,50.75643707950758],[31.052347852971025,50.758142401850364],[31.056998732005866,50.7595893417747],[31.068780958774198,50.765687160733876],[31.073121779446524,50.767392483076605],[31.077772657582045,50.76868439426937],[31.08366377096621,50.768736070213436],[31.08939985471949,50.7672891302891],[31.094567498591175,50.76460195601544],[31.097668084014856,50.75902090099373],[31.10138878796215,50.75457672843322],[31.105729607735213,50.75031342212668],[31.113636101824625,50.745378323151044],[31.11472130744238,50.741580104837965],[31.11394616108646,50.73798859299916],[31.111930780381215,50.73426788995113],[31.110535516400944,50.73052134938075],[31.11007042840754,50.726955675064346],[31.11317101383122,50.723674220688736],[31.119217156846275,50.72109040010184],[31.132704705957394,50.71928172497161],[31.148879429342173,50.71886831292227],[31.154460484363824,50.71791229941306],[31.15849124487505,50.71545766913607],[31.159731480123696,50.710341702107826],[31.159111361600026,50.70197012002501],[31.160661655211186,50.699334621695414],[31.162211947923026,50.69783600492764],[31.185156283835397,50.685640367009285],[31.199263949671547,50.67613190426397],[31.205206739899097,50.67078339323899],[31.209547559672103,50.664814765488984],[31.21295820525694,50.65876862247393],[31.21822920101681,50.64533275020625],[31.221019728077977,50.63468740499974],[31.221019728077977,50.63091502510832],[31.220244581722056,50.62683258685439],[31.218539260278646,50.622879339809685],[31.214043409975375,50.61572215455374],[31.21140791164578,50.61251821634261],[31.208307326222098,50.609676012438],[31.204431594442497,50.60776398452026],[31.199574008933325,50.6069371613209],[31.189342074876834,50.60714386689591],[31.185621371828802,50.606058661278155],[31.182830844767636,50.603371487004495],[31.179730259343955,50.59530996418346],[31.17911014171966,50.591227525030206],[31.17988528807558,50.58766185251244],[31.18252078640512,50.584871324551955],[31.185621371828802,50.5822875030658],[31.21450849796878,50.56358063413893],[31.219624464997025,50.561539415011964],[31.225980666374653,50.559989122300124],[31.245669387232397,50.56029918156196],[31.252955762798194,50.55975657830339],[31.258381789088276,50.55774119669883],[31.261999139348802,50.55239268747255],[31.26292931533561,50.54761261722848],[31.26153405135534,50.53836253510286],[31.26137902172445,50.53428009684899],[31.26292931533561,50.53097280495098],[31.265254754403372,50.52813060194569],[31.268200311095484,50.52546926519443],[31.271455926150054,50.523014634917445],[31.275176629198086,50.52076671021547],[31.28060265458879,50.51919057908191],[31.287113884697987,50.51810537436353],[31.298120965110456,50.51769196231419],[31.306337517562383,50.51611583118063],[31.315845982106396,50.511645820198396],[31.321427036228727,50.50983714506816],[31.328248324700382,50.50844188108789],[31.33925540511285,50.50978546822478],[31.34576663612137,50.511439113724066],[31.350882603149614,50.51376455279183],[31.364060092998898,50.51410045047538],[31.384420607425056,50.51270518739443],[31.462917108437807,50.50022532773664],[31.473459099957495,50.50601308923268],[31.48338097475215,50.51379039211287],[31.487463413006083,50.51593496402734],[31.49180423367841,50.51733022710829],[31.496610142344196,50.5178986678892],[31.500485874123797,50.51795034383326],[31.561309034983935,50.50911367555568],[31.56720014836816,50.50911367555568],[31.572161085765458,50.51014720343068],[31.576501906437784,50.51180084893002],[31.584253370896306,50.51608999275891],[31.588904249931147,50.51748525673918],[31.594485304053535,50.5178986678892],[31.607714470746203,50.51727855116417],[31.6134505553988,50.51764028637007],[31.61825646316521,50.51893219756283],[31.62197716621324,50.52120595978721],[31.63158898264544,50.52934499787335],[31.635309685693414,50.53179962815028],[31.639340448003225,50.53365998012396],[31.644456415031527,50.53461599453249],[31.65582522975052,50.53562368398582],[31.660631138416306,50.53696727202197],[31.66435184056496,50.539189358302224],[31.67086307067416,50.544563706849544],[31.67799441930697,50.54936961551533],[31.68187015198589,50.55138499622058],[31.686521030121412,50.55283193614491],[31.691792026780604,50.553658759344216],[31.69783816889634,50.55394298018439],[31.73773237544873,50.551540024952146],[31.743468459202006,50.55200511294561],[31.748429395700043,50.55319367135081],[31.752305129278284,50.55536408078768],[31.755560744332854,50.55794790317316],[31.761606887347966,50.563683986926435],[31.764294060722307,50.567017117246166],[31.767394647045307,50.569833481829676],[31.771580438086744,50.57169383380335],[31.780417108162965,50.57453603770796],[31.783362664855076,50.57644806652502],[31.784447869573512,50.57934194637369],[31.783982781580107,50.582545885484194],[31.783207635224187,50.58590485332627],[31.783517693586646,50.58941884989997],[31.785223015929432,50.59233856906968],[31.791269158944488,50.59717031525781],[31.793129510018844,50.600296739103214],[31.793749626743875,50.6038365749979],[31.793904657274084,50.607634793311036],[31.794679802730684,50.611277981093906],[31.79669518433525,50.61422353778602],[31.80026085775239,50.61634227217809],[31.804601678424717,50.617840888046544],[31.824962192850876,50.622026679087924],[31.847441440769842,50.62393870700572],[31.8562781099468,50.62135488551951],[31.867130160728323,50.61647146338731],[31.8960172868683,50.598772284813094],[31.908884719254388,50.59282949548481],[31.944128044973297,50.561771959008695],[31.953894891036384,50.55453725848764],[31.96195641475674,50.55009308502781],[31.967847528140908,50.54895620436531],[31.980094842003325,50.54797435243438],[32.02246951725442,50.548232733953455],[32.02836062973927,50.54508047078707],[32.03254642078065,50.53929271108973],[32.035181919110244,50.525159206831916],[32.03394168476092,50.51154246741089],[32.03285648004248,50.507821764362916],[32.03084109933724,50.50441111877808],[32.02820560100764,50.50208567971032],[32.02401980996626,50.50022532773664],[32.02339969324123,50.50012197494914],[32.02184939963007,50.50017365179258],[32.000920444422945,50.50249909086034],[31.997819858999264,50.50226654686361],[31.99487430230721,50.50136221019784],[31.993013950333534,50.500432034210974],[31.99177371598421,50.49960521101167],[31.980714958728356,50.490045071422855],[31.97497887497508,50.483843898776854],[31.972963495169154,50.47991649015387],[31.973583611894128,50.47534312638413],[31.97730431494216,50.46991710099337],[32.00107547405389,50.4569721542415],[32.00448611784003,50.45459503833035],[32.00758670416303,50.45105520333493],[32.00991214413011,50.44451813390475],[32.01022220159331,50.439557197406714],[32.00991214413011,50.43511302304756],[32.01022220159331,50.43149567278704],[32.01115237758012,50.42808502900084],[32.01316775918474,50.425294501040355],[32.015338168621554,50.422814033241025],[32.02014407728734,50.41976512286209],[32.02712039628926,50.416251126288444],[32.042519972418745,50.4114968944661],[32.0513566415957,50.41041168884834],[32.05879804859103,50.410282498538436],[32.07011518736596,50.411238512047646],[32.082052442865916,50.4103600120049],[32.08654829316919,50.4083963081431],[32.08949384896192,50.4057608098135],[32.08949384896192,50.401006577991154],[32.08701338116259,50.39800934535498],[32.08344770684619,50.39537384702538],[32.07941694543564,50.39346181910764],[32.07213056807126,50.388862616916185],[32.06902998174826,50.38627879543003],[32.0667045426805,50.383488268368865],[32.07275068479623,50.37801056613472],[32.078796827811345,50.37387645103735],[32.13915490067808,50.35010529192567],[32.11435021279209,50.306051134552206],[32.09895063666255,50.29129751177072],[32.094919875252,50.28855866155294],[32.09336958164084,50.2855355904951],[32.0952299327152,50.28160818097274],[32.098020460675684,50.278636785858964],[32.100190871011876,50.27548452449116],[32.10101769421118,50.27230642380238],[32.098020460675684,50.266699531258325],[32.095746697552045,50.263443915304435],[32.06949506974166,50.23869090426177],[32.056627638254895,50.24194652021572],[32.04779096907794,50.245925604782826],[32.03781741743984,50.24928457352422],[32.031771275324104,50.25057648381767],[32.019213902199795,50.25145498296109],[32.013632847178144,50.25093821902357],[32.00433108910846,50.24892283831832],[31.999370151711105,50.24654572240712],[31.99425418468286,50.24313507772166],[31.98350548668884,50.2346084660079],[31.978544549291485,50.22923411746052],[31.97513390460597,50.224066474488154],[31.973893670256643,50.220087389021785],[31.97327355263235,50.21605662671192],[31.973583611894128,50.21249095329483],[31.974358758250048,50.20954539750204],[31.975443962968484,50.2075816918416],[31.97714928621059,50.20535960646066],[31.982420281970406,50.20045034410805],[31.985882602599986,50.19802155225278],[31.991618687252583,50.19277639401537],[31.993944126320343,50.189830838222576],[31.995339390300614,50.186497707902845],[31.99564944776381,50.18280284327659],[31.99502933103878,50.17905630090752],[31.993013950333534,50.175542304333874],[31.98753624899865,50.16928945574375],[31.98133507725197,50.16386343035299],[31.95994103405144,50.14965241083007],[31.95435997902979,50.14753367823664],[31.947693719289703,50.145673326262965],[31.935601434158855,50.144536444701146],[31.928418409581923,50.145337429478786],[31.91849653478721,50.14789541344254],[31.91431074374583,50.14727529581825],[31.909969923972767,50.14148753522153],[31.90485395694452,50.13226329241701],[31.90004804917811,50.125416165523575],[31.893226759807078,50.12112702079537],[31.862014193700077,50.105830797453336],[31.853487582885634,50.099991360013234],[31.849611851106033,50.094978745772494],[31.85069705582447,50.09161977793036],[31.858138461920475,50.07911408075017],[31.8593786962698,50.07578095222914],[31.85999881389415,50.07208608670351],[31.860463901887556,50.06423126945748],[31.862169224230286,50.05694489209304],[31.864339633667157,50.05002024993456],[31.871160923038133,50.03741120086619],[31.873848097311793,50.03077077954782],[31.873331333374324,50.02702423807813],[31.871987746237494,50.023458563761665],[31.866355015271722,50.020228787128815],[31.85798343318885,50.01738658322421],[31.819381137829225,50.00966095628809],[31.814368523588485,50.00800731078874],[31.81002770381548,50.00563019487754],[31.806617059129962,50.00136688947032],[31.805841912774042,49.998240464725654],[31.806772087861532,49.99488149688352],[31.807857292579968,49.99162588182895],[31.809407586191128,49.98444285725202],[31.809717644553643,49.976794745581],[31.80925255656024,49.9686298690732],[31.806772087861532,49.96020661104626],[31.802431268088526,49.95297191052521],[31.79266442202544,49.939458522992425],[31.767239618313738,49.91780609827282],[31.764914178346658,49.91483470315899],[31.76377729678478,49.91147573531691],[31.765017531134163,49.900701198901174],[31.76439741440913,49.8969546583308],[31.762743768010466,49.89344065995846],[31.75974653537429,49.89065013289729],[31.742073195221735,49.878971258916465],[31.73122114444027,49.867395737723086],[31.721454299276445,49.853727322358],[31.716648389711395,49.84853384096397],[31.713392774656825,49.84750031218965],[31.707449985328537,49.84667348899029],[31.613140497036284,49.858145657396165],[31.608644646733012,49.86010936125797],[31.606164178034362,49.862951565162575],[31.605389031678442,49.866465563534916],[31.606629266027767,49.88677440021837],[31.606009149302793,49.89044342732228],[31.604458855691632,49.89364736643279],[31.601203240637005,49.89612783513144],[31.596552361602164,49.897626450999894],[31.59107466026734,49.8973163935367],[31.586423781232497,49.89561107029465],[31.583168166177927,49.8911152208907],[31.581927930929226,49.88775625304862],[31.5806876965799,49.88111583083088],[31.57820722788125,49.87271841122566],[31.576346876806895,49.86879100170336],[31.573866408108245,49.865432033861225],[31.570920851416133,49.86269318274418],[31.565339797293802,49.86054861082971],[31.558053419929365,49.85899831811787],[31.545030958811708,49.85861074538957],[31.53774458234659,49.85979930289551],[31.532421908844015,49.86186636044414],[31.528546177064413,49.864114285146115],[31.524515414754546,49.866026313063855],[31.5193994477263,49.866465563534916],[31.514283481597374,49.86460521156124],[31.50916751456913,49.85917918617048],[31.506532017138852,49.854269924717244],[31.503896518809256,49.845459093062686],[31.502191195567207,49.84207428589957],[31.499710727767877,49.84034312603444],[31.496920199807334,49.840033066772605],[31.49180423367841,49.841712550693615],[31.48854861772452,49.844244697135025],[31.483277621964646,49.84930898731989],[31.475939568656145,49.854657498344864],[31.473614128689064,49.857370510140925],[31.472218865608113,49.860677802038936],[31.471133660889734,49.868170884978326],[31.4700484561713,49.87158152876452],[31.468033074566733,49.8746304391434],[31.464622429881217,49.87705923099867],[31.460591667571407,49.87922964133486],[31.457025995053584,49.88155508130194],[31.454390496724045,49.88429393241904],[31.452220086387854,49.88713613542427],[31.450514764045124,49.89034007453478],[31.449274529695742,49.89380239516436],[31.448499383339822,49.897419745424884],[31.447104120258928,49.900701198901174],[31.44446862192933,49.903207506021545],[31.440747917982037,49.90491282836433],[31.43516686385965,49.90581716592942],[31.430205925562973,49.906101385870215],[31.422609490735397,49.9050678570959],[31.405039504269666,49.900882066054464],[31.394032423857254,49.899745185391964],[31.357238803627865,49.89984853817947],[31.345921664852938,49.89886668624854],[31.335999790058224,49.89674795185647],[31.2588985530258,49.86171133081325],[31.223655226407573,49.859075833382974],[31.21776411302335,49.85713796704351],[31.21202802927013,49.85395986635473],[31.204534946330682,49.847319444136986],[31.19507815863011,49.83468455754627],[31.191822543575483,49.8319198680075],[31.181900668780827,49.82450430033316],[31.179575229713066,49.82145538995428],[31.178645053726257,49.818251450843775],[31.180505404800556,49.81543508626021],[31.183916050385392,49.81308380787141],[31.192442661199834,49.80915639924842],[31.196163364247866,49.80701182733395],[31.198850539420846,49.804350491481955],[31.198333774584,49.800888169953055],[31.19678348187216,49.79737417337935],[31.185156283835397,49.78249136028802],[31.184226108747907,49.780605169892624],[31.182830844767636,49.77727204047227],[31.182055698411716,49.77380971894337],[31.18236575677423,49.77019236958216],[31.1848462263722,49.7675310328309],[31.188411899789344,49.7651280793973],[31.192287631568945,49.76300934500523],[31.195388217891946,49.76047720036246],[31.197093540234675,49.75727326125195],[31.196938510603786,49.75344920541647],[31.18810184142683,49.717637438017334],[31.185931431090637,49.71407176370093],[31.171978793986113,49.698930569090464],[31.16980838364998,49.69551992530427],[31.168878207663113,49.69195425098786],[31.169498325287464,49.68864695908985],[31.173529086697954,49.682574978552395],[31.175079380309114,49.67939687786361],[31.175544468302576,49.6757020132373],[31.17461429231571,49.67174876619259],[31.172753941241353,49.66807973908868],[31.16252200718486,49.655005602026904],[31.150274693322444,49.63268138283951],[31.146967401424433,49.62921906220993],[31.13472008576332,49.62198436078961],[31.13068932525215,49.618367011428404],[31.128208855654123,49.6144396019061],[31.127433709298202,49.60273489040287],[31.128053826922553,49.59901418735484],[31.129759149265283,49.59578440982261],[31.132859734688964,49.59338145638907],[31.13766564335475,49.59175364841212],[31.149344517335578,49.58978994455026],[31.15384036584021,49.587929592576586],[31.156785923431585,49.58519074235886],[31.15802615688159,49.58185761203913],[31.15864627540526,49.57816274741282],[31.158956332868456,49.57433869157734],[31.15787112815002,49.56224640644649],[31.15694095216321,49.558680732130085],[31.155855747444775,49.55638113148399],[31.15011966279218,49.55253123632747],[31.119062127215386,49.538423570491375],[31.109915398776593,49.53268748583878],[31.104024286291747,49.52770071091902],[31.087539503645132,49.5011648631679],[31.083353712603753,49.495997219296214],[31.08056318464321,49.49333588344422],[31.07730756958864,49.49070038511468],[31.034622836874405,49.47150259157132],[31.02873172438956,49.4676526964148],[31.022840610106073,49.46204580297143],[30.998190951850916,49.44690460926029],[30.987959018693743,49.43920481984651],[30.97881229025495,49.4308849155064],[30.97385135285765,49.42762930045183],[30.955971307130085,49.418534247057835],[30.950390252108434,49.414296780072334],[30.946204461066998,49.4104727242368],[30.922278273223696,49.382076524511945],[30.92041792214934,49.37853668951658],[30.919177686900696,49.37445425126265],[30.918764275750732,49.3704751648969],[30.91948774616253,49.358951321446284],[30.919177686900696,49.354558823930574],[30.915301955121095,49.35034719536674],[30.908015577756714,49.34613556590364],[30.89437299991397,49.3476858595148],[30.888326856898914,49.35016632821345],[30.884141065857477,49.35344778079042],[30.881970656420663,49.356470851848314],[30.879490186822636,49.3592613798088],[30.874839307787795,49.360915025308145],[30.86817304894703,49.36063080536735],[30.858509555671446,49.35672923426671],[30.848277621614898,49.34959788743254],[30.84238650913005,49.34758250582797],[30.83199954634199,49.34716909377863],[30.816496615626306,49.35187165055618],[30.810243767935503,49.352440091337144],[30.801097040396087,49.34871938738979],[30.795826042837575,49.34556712512273],[30.784818963324483,49.336988837464844],[30.78109826027645,49.33512848639049],[30.74833540235693,49.32872060816953],[30.73004194458008,49.321589260435985],[30.72539106644456,49.320788276557664],[30.720275099416313,49.321072496498516],[30.71500410275712,49.32365631798467],[30.711593458970924,49.32652436031094],[30.69185306216906,49.34941701937993],[30.68859744621517,49.35187165055618],[30.684566684804622,49.35383535441804],[30.67821048432637,49.354377956777284],[30.669218783719884,49.35362864794371],[30.65464602989033,49.35057973936347],[30.642398716027913,49.35161326813778],[30.6352156923503,49.35326691273781],[30.627154167730623,49.35796946951535],[30.62343346468265,49.35910635017791],[30.61940270417142,49.35853791029632],[30.61521691313004,49.35486888319235],[30.602194452012327,49.337763983820764],[30.59645836825905,49.33184703201488],[30.592737665211075,49.32993500409714],[30.58793175564597,49.3295991073129],[30.559974806392177,49.34003774694446],[30.555323928256655,49.34096792293127],[30.55020796122841,49.340657864568755],[30.53904585118505,49.33383657519778],[30.533929885056125,49.33192454727998],[30.501011996606337,49.324121405978076],[30.49822147044449,49.32386302355968],[30.49419070813468,49.32406972913469],[30.489384800368214,49.32691193303924],[30.486129185313644,49.32975413694385],[30.483648715715617,49.33311310478592],[30.47853274868737,49.338745835751695],[30.4752771336328,49.34112295256216],[30.467473993230158,49.345515449178606],[30.462978142926943,49.34737580025296],[30.457862175898697,49.34887441702068],[30.45212609214542,49.35001129858256],[30.44499474531125,49.35001129858256],[30.43770836794681,49.34851268181478],[30.427941521883724,49.343965156466766],[30.423135614117257,49.34003774694446],[30.419879999062687,49.33595530869053],[30.417192823889707,49.32784210902611],[30.41626264790284,49.319677232518245],[30.416572707164676,49.31189992873868],[30.416159295115335,49.30799835943674],[30.414609002403495,49.30422597954532],[30.408821241806834,49.29316722318879],[30.38990766820433,49.23859691001934],[30.387272169874734,49.235031235702934],[30.382001174114862,49.23296417905357],[30.37331953277021,49.23301585499769],[30.363242629243928,49.236607367735814],[30.359521926195896,49.240612290724584],[30.357971632584736,49.24474640582196],[30.358385043734756,49.24888052001995],[30.358385043734756,49.25244619433636],[30.357351514960442,49.255133369509394],[30.35419925269332,49.2567353381653],[30.34954837365848,49.25805308688041],[30.17421023881144,49.282470201138835],[30.169249302313403,49.2841238475375],[30.165838656728624,49.2865009634487],[30.164443393647673,49.28960154887238],[30.164443393647673,49.293270575976294],[30.166148715990403,49.296887926236764],[30.170799595025244,49.30360586192097],[30.181961704169282,49.31533641184592],[30.183356968149553,49.318540350956425],[30.18289188015615,49.3214859085478],[30.179171177108117,49.3233979364656],[30.157622105176017,49.32908234337543],[30.15188602142274,49.32954743136884],[30.14645999513266,49.32861725538203],[30.13586632676953,49.319263821368224],[30.129200067029444,49.31435455991499],[30.114937371562405,49.30898021136761],[30.108426140553945,49.3049494490578],[30.104395379143398,49.30128042285321],[30.104085320780882,49.298283189317715],[30.104860467136803,49.29647451418748],[30.10672081911048,49.294019883910494],[30.113852165944706,49.28572581619346],[30.115712517918325,49.28262522987046],[30.116952752267707,49.279421292558595],[30.115712517918325,49.276682441441494],[30.111526726876946,49.274977119098764],[30.102690056800668,49.27601064697376],[30.097884149034257,49.277250882222404],[30.08827233170274,49.28081655474017],[30.082536248848783,49.281953437201366],[30.052718946721996,49.2834003771257],[30.045432570256878,49.28474396426253],[30.038611280885902,49.28510569946843],[30.03241010913922,49.2834003771257],[30.024348586318183,49.27771596931649],[30.013599888324165,49.26676056574746],[30.00693362768476,49.26464183225471],[29.996856724158476,49.26355662753633],[29.963628778245493,49.26306570112121],[29.95355187381989,49.261308701935036],[29.93200280098847,49.25058584236268],[29.920065544589193,49.246245021690356],[29.916809930433942,49.243738715469306],[29.91427778489185,49.24040558514963],[29.909316846595175,49.2298119167865],[29.906371290802383,49.22510936090828],[29.898154738350456,49.2166344260379],[29.89148847771105,49.21157013585304],[29.87707075441176,49.202526760201806],[29.87412519682033,49.199787909984025],[29.87148969939011,49.19684235329197],[29.87009443540984,49.19338003176301],[29.86993940577895,49.18971100555842],[29.872109816115085,49.17903982193019],[29.869009229792084,49.175913398084845],[29.862342970951318,49.17384634143548],[29.836866488597536,49.174569810948014],[29.777903679711017,49.17064240232497],[29.761470574807163,49.17462148689208],[29.740955030750058,49.18446584732095],[29.733823683016567,49.18981435834593],[29.729482863243504,49.19521454531497],[29.72824262889418,49.201906643476775],[29.73056806796194,49.20547231689386],[29.734598830271807,49.207694404073436],[29.739249709306648,49.20903799121032],[29.743332146661203,49.21069163670967],[29.745295851422384,49.21337881098333],[29.74080000201843,49.21681529409051],[29.736304151715217,49.219631660472714],[29.69723676926145,49.22727977214373],[29.687728305616815,49.241232408348935],[29.676876254835292,49.24438467151538],[29.661683384280764,49.242963569113385],[29.648040806438075,49.243144436266675],[29.641994663422963,49.245108141027856],[29.638584018737447,49.24751109536072],[29.6365686380322,49.252807929542314],[29.62974734866117,49.26210968671262],[29.611402214940256,49.279989732440185],[29.597759637097568,49.29957510051048],[29.59357384605613,49.303709214708476],[29.58954308374632,49.30634471303807],[29.584737175979853,49.30755910896568],[29.556470168363546,49.31053050407945],[29.54670332230046,49.312545884784754],[29.53151045084661,49.317661851813],[29.5254643078315,49.321847642854436],[29.522673780770333,49.326214301049106],[29.52205366404536,49.33417247198196],[29.519573195346652,49.339676011738504],[29.515645785824347,49.34631643305693],[29.499832797645468,49.36566925713049],[29.499367709652063,49.36809804988508],[29.499522739282952,49.374790147147564],[29.500142856907303,49.37851085109486],[29.500607944001388,49.37990611417581],[29.501538119988254,49.382154038877786],[29.502623324706633,49.38378184685473],[29.504948764673713,49.386339829919166],[29.50773929173488,49.38879446109547],[29.511149937319715,49.39124909137246],[29.560810988136552,49.41272064893877],[29.564531691184584,49.41496857454007],[29.56716718861486,49.41801748312031],[29.56887251185691,49.421634833380836],[29.5698026869444,49.430626533088],[29.56964765821283,49.443804022937286],[29.566237012627994,49.45088369382739],[29.543137647984054,49.481941230303505],[29.540037061661053,49.48778066684429],[29.540037061661053,49.49139801710476],[29.541587355272213,49.49475698494689],[29.544687940695894,49.49723745454486],[29.54840864374387,49.498891100044204],[29.55445478675898,49.50033803996854],[29.558640577800418,49.50209503825539],[29.561896192854988,49.50385203744156],[29.564686720815473,49.50597077093431],[29.566237012627994,49.50839956278958],[29.567477247876695,49.520646878450634],[29.56716718861486,49.52808828454664],[29.565306838439824,49.53248078116309],[29.562051221586614,49.535684719374274],[29.52184695757103,49.54891388606694],[29.516110873817752,49.55167857470644],[29.510374790064475,49.55570933701625],[29.502313267243494,49.56335744868727],[29.498592564195462,49.56834422540567],[29.496267124228382,49.57278839796618],[29.494561801885652,49.584105535841786],[29.49487186024811,49.59232208919303],[29.495957065865866,49.596611233021974],[29.49719730021519,49.60040945133511],[29.498902621658658,49.60382009512125],[29.509289585346096,49.617230129866584],[29.511770054044746,49.62136424406458],[29.513630405119102,49.62593760783432],[29.51471560983748,49.63283641247045],[29.513320346756586,49.63694468914605],[29.51068484932631,49.64027781856646],[29.503243443230303,49.644050198457876],[29.496267124228382,49.646117255107185],[29.44722619013652,49.65087148692953],[29.45001671719774,49.665444240759086],[29.45327233225231,49.667924710357056],[29.458543328911503,49.67097361893735],[29.473787876309416,49.67567617481558],[29.477973667350852,49.679267687553704],[29.480919224042964,49.683970242532666],[29.48215945839229,49.68939626702405],[29.4830896343791,49.697431953222065],[29.482779575117263,49.702651272138496],[29.481539340767938,49.70673371039237],[29.478438755344257,49.708955797572],[29.47332278831601,49.70962759114042],[29.46789676292525,49.70952423835291],[29.445210809431273,49.706837063179876],[29.43265343630702,49.706630356705546],[29.41932091592753,49.70807729842858],[29.418390740839982,49.71011851755554],[29.419475945558418,49.71241811820158],[29.42660729329191,49.718180040376524],[29.43203331868267,49.72376109539823],[29.439629754409623,49.73326955814355],[29.442420282370108,49.738669745112645],[29.445210809431273,49.74549103538294],[29.449086541210875,49.75856517244472],[29.44939659957339,49.76530894655059],[29.44862145411679,49.77050242794468],[29.443350456558278,49.77742707010316],[29.440404900765543,49.782181301026185],[29.43745934407343,49.79083710394917],[29.439009636785272,49.79507457093467],[29.441955194376703,49.798356025310284],[29.449706658835225,49.80233510987739],[29.454512566601636,49.803420315495146],[29.459783563260828,49.80352366828265],[29.472082553966686,49.80274852192673],[29.478128696082422,49.804350491481955],[29.483554722372503,49.807657783379966],[29.490376010844216,49.814582425538504],[29.495802036234977,49.81711457018122],[29.500142856907303,49.81809642211215],[29.508824497352634,49.81711457018122],[29.51394046438088,49.81742462854373],[29.518746372147348,49.818458157318105],[29.555074904383332,49.83618317341467],[29.58752770394034,49.84595001947781],[29.59434899331137,49.849257311375766],[29.60628624881133,49.85675039341589],[29.61047203985271,49.858533230124465],[29.62535485204478,49.861969713231645],[29.630057407023685,49.8634683291001],[29.63388146285922,49.865432033861225],[29.638739048368393,49.86868764891585],[29.65486209490973,49.88289866843877],[29.661218296287302,49.89261383675915],[29.666644320778744,49.89752309821239],[29.671140171082016,49.900365302116995],[29.698321973979887,49.909408677768226],[29.70514326335092,49.91292267524125],[29.72746748163894,49.92878734026351],[29.733203566291536,49.93529857037271],[29.736304151715217,49.940827949450295],[29.73537397572835,49.944264430758835],[29.73351362465405,49.94744253234694],[29.676101109378692,50.00852407472627],[29.67377566941161,50.01219310183018],[29.671915318337255,50.01627554008411],[29.671915318337255,50.02263174146168],[29.675170933391826,50.02681753250312],[29.6812170746083,50.03131338190701],[29.683697544206268,50.03441396733069],[29.68447269056219,50.03684276008528],[29.67083011182018,50.07384308499036],[29.66912479037677,50.08291229906331],[29.66927981910834,50.089785265277726],[29.671140171082016,50.09394521699812],[29.67393069814318,50.09678742090273],[29.676876254835292,50.09802765615137],[29.679356724433262,50.09875112656323],[29.71289472780944,50.104073798267166],[29.719095899556123,50.10704519338094],[29.725607130564583,50.111360174732226],[29.73444380064086,50.12148875600127],[29.734133742278345,50.125829575774276],[29.731498243948806,50.13086802843674],[29.72731245290737,50.1362682163051],[29.72731245290737,50.14967825015111],[29.725607130564583,50.15631867146948],[29.723281690597503,50.161124579235945],[29.719250929187012,50.163243312728696],[29.70529829298181,50.16856598623127],[29.701267530672,50.170736396567406],[29.697701857254913,50.17306183473585],[29.69491133019369,50.17569733306544],[29.692895948589126,50.17890127217595],[29.69144900866479,50.18215688723052],[29.691138950302275,50.18561920786016],[29.691759067926625,50.19851247776859],[29.69243086059572,50.20277578407513],[29.69243086059572,50.20690989827318],[29.691138950302275,50.21838206577968],[29.69646162290553,50.2577595083946],[29.69491133019369,50.26685455998995],[29.69144900866479,50.2724356150116],[29.679976841158293,50.27501943649776],[29.675015902861617,50.2766730819971],[29.67145023034385,50.279050197908305],[29.66850467275242,50.28158234345034],[29.659823032307088,50.29204682150356],[29.64788577590781,50.31052114553444],[29.64540530810848,50.31346670222649],[29.642149693053852,50.31589549408176],[29.637808872381527,50.31788503726466],[29.63171105342235,50.318944404460694],[29.625199823313153,50.31946116839816],[29.61326256691393,50.318944404460694],[29.608301628617255,50.32147654910341],[29.603650749582414,50.32692841201657],[29.600705193789622,50.342663885829666],[29.587682732671965,50.363592841036734],[29.581171501663448,50.39131724719317],[29.57755415230224,50.39594228780629],[29.574970330816086,50.398500270870784],[29.572438185273995,50.401368313197054],[29.56964765821283,50.40405548837009],[29.56732221914507,50.40689769137532],[29.555074904383332,50.41718130137593],[29.547168410293864,50.42157379799238],[29.542362501628133,50.423201605969325],[29.536626417874857,50.42420929632192],[29.49409671389219,50.423201605969325],[29.48867068940075,50.42234894524762],[29.45017174682863,50.412013658403566],[29.444900750169438,50.41110932083848],[29.438854608053703,50.411806952828556],[29.43265343630702,50.41436493589305],[29.426142206197824,50.421987210041664],[29.42567711820442,50.42637970575879],[29.428312615634695,50.42932526335022],[29.45079186355366,50.43092723200613],[29.456062860212796,50.431857407992936],[29.46055870871743,50.43397614238506],[29.46365929504043,50.43720591901791],[29.46675988136343,50.441288357271844],[29.466036410951574,50.44451813390475],[29.462419060691104,50.446714383561925],[29.44722619013652,50.45257965852437],[29.442885370363513,50.45609365509807],[29.4422652518399,50.45955597572765],[29.444125603813518,50.46257904678555],[29.44800133559312,50.464258530706616],[29.453117302621422,50.46436188439344],[29.47099734924825,50.46180390132895],[29.47657840337058,50.46203644532568],[29.481074252774533,50.46353506119408],[29.48463992709094,50.46586050116116],[29.48758548378305,50.46875438100983],[29.48991092285081,50.47216502479603],[29.498902621658658,50.4916987169222],[29.499987827276414,50.49660797837549],[29.500142856907303,50.499501858224164],[29.499677768913898,50.50074209257349],[29.498592564195462,50.50265412049123],[29.496577182590897,50.50503123640243],[29.493476597167216,50.50751170510108],[29.482779575117263,50.511645820198396],[29.4773535497265,50.51505646398459],[29.473167758685122,50.52234284134903],[29.4734778179469,50.527097073171376],[29.477043491364043,50.52962921781415],[29.48867068940075,50.53055939380096],[29.49332156843559,50.53195465778123],[29.496577182590897,50.53438345053581],[29.498592564195462,50.53717397669766],[29.508514438990176,50.55595835999031],[29.51316531802496,50.567353014030346],[29.51239017076972,50.57133209949677],[29.509599643708555,50.57443268492045],[29.49223636191857,50.58241669427497],[29.48774051341394,50.58512970607103],[29.48370975110413,50.58846283639076],[29.479368931331123,50.59375967147162],[29.479368931331123,50.59789378477035],[29.480764194412018,50.60169200308343],[29.490376010844216,50.61520538971695],[29.499832797645468,50.62641917570437],[29.527944777429525,50.6535493035575],[29.537401564230777,50.667140204556745],[29.54034712092289,50.67003408530479],[29.543912795239294,50.67241120121594],[29.57507368270427,50.683728339091545],[29.579931268213443,50.686983954146115],[29.584737175979853,50.69158315723689],[29.590938347726535,50.70078156251907],[29.592488641337695,50.706465969428905],[29.592333611706806,50.711091010042026],[29.578484328289107,50.74527497036354],[29.57507368270427,50.75938263619969],[29.572128126911537,50.76615224872728],[29.57026777493786,50.769304510994345],[29.567477247876695,50.77209503805551],[29.560190871411578,50.77669424114629],[29.549338819730735,50.77956228347256],[29.536161329881452,50.7808283562436],[29.499057651289547,50.77754690186799],[29.49487186024811,50.77832204912323],[29.48991092285081,50.7808283562436],[29.48851565887054,50.784497382448194],[29.48851565887054,50.78873485033307],[29.50758426300331,50.85888560588597],[29.506964146278335,50.86560354336882],[29.50510379430466,50.87025442240366],[29.502313267243494,50.87257986147142],[29.478128696082422,50.89004649514959],[29.42257653188142,50.945107733834845],[29.419165887195902,50.947536525690055],[29.414670037792007,50.94903514335715],[29.4090889827703,50.949551907294676],[29.40314619344207,50.951825670418316],[29.39756513842036,50.95657990224066],[29.393069289016466,50.970119127295845],[29.393844435372387,50.97632029904253],[29.398185256044712,50.97942088536553],[29.42970787871559,50.97973094282872],[29.436064080992537,50.9788524436853],[29.441180047121463,50.97730215097346],[29.44924157084182,50.973013007144516],[29.452962273889796,50.97063589123337],[29.4573030936628,50.96949901057087],[29.462005650440403,50.96970571614588],[29.466036410951574,50.97595856383663],[29.46634647021341,50.983451646776075],[29.46324588389041,51.006189277113435],[29.462935824628573,51.01316559521604],[29.463555943152244,51.01936676696272],[29.46458947102724,51.02417267472913],[29.466449823000914,51.028513495401455],[29.47177249470485,51.03486969677908],[29.484949984554135,51.04794383384086],[29.488980746863945,51.05445506395],[29.489755894119185,51.05910594298484],[29.48913577559557,51.06329173402628],[29.48758548378305,51.06654734998017],[29.48541507344686,51.06949290577296],[29.48293460474821,51.07233511057689],[29.476113316276496,51.07721853270908],[29.472082553966686,51.07941478146694],[29.46210900232859,51.08318716135841],[29.438079460798463,51.088096421912326],[29.432963494669536,51.08967255304589],[29.429242790722185,51.09199799301297],[29.42722741091626,51.09507274001493],[29.424436882955774,51.10204905901685],[29.42257653188142,51.10551138054575],[29.420716179907743,51.10840526039442],[29.418390740839982,51.111195787455586],[29.412344597824926,51.11636343042795],[29.381132032617188,51.1341918002114],[29.36283857573966,51.141633206307404],[29.352141553689705,51.14421702689424],[29.346973910717395,51.14478546857447],[29.342478062212763,51.143751938900834],[29.339067416627984,51.14150401509818],[29.319068638306987,51.12008413437525],[29.316123080715556,51.11781037035229],[29.31317752492282,51.11708689994043],[29.31085208495574,51.1187405463391],[29.30868167461955,51.12132436782531],[29.304960971571575,51.127809760412106],[29.300000034174218,51.14196910309158],[29.2892513361802,51.19356802024794],[29.270492791309266,51.23687286968715],[29.27173302565859,51.241058660728584],[29.276383904693432,51.242815659914754],[29.28863121855585,51.243409939117385],[29.299328240605803,51.2451927758259],[29.318138462320178,51.25123891884101],[29.349454380315365,51.265966702301455],[29.362218459014628,51.2738215204468],[29.374775832138937,51.284802761538174],[29.384697706933594,51.29816111944007],[29.3871781756323,51.30596425984271],[29.389193556337545,51.31746226756957],[29.39182905376782,51.35433340126542],[29.39136396667368,51.362110704145664],[29.390123732324355,51.36508209925944],[29.388573438713195,51.366580716027215],[29.386092970913865,51.367510891114705],[29.38268232622835,51.366968288755515],[29.374775832138937,51.363480129704215],[29.37043501236593,51.3624207634075],[29.36578413333109,51.36301504171075],[29.36206342938374,51.365392158521274],[29.35958296068509,51.3677692735331],[29.35400190566338,51.37536570926005],[29.353260212000123,51.377055123000034],[29.37968428500011,51.391541239000006],[29.40273197500011,51.39614044200006],[29.446398559000045,51.384900818000105],[29.46629398600004,51.38505584800005],[29.480866740000124,51.401256409000055],[29.49554284600009,51.42564768500007],[29.505464722000113,51.43745575000007],[29.5190039470001,51.44179657000005],[29.54504886900014,51.443656921000056],[29.568199911000136,51.44962555000008],[29.583186076000118,51.460813498000036],[29.597345418000145,51.47396514900002],[29.61801599100005,51.48564402300006],[29.637756388000128,51.4908891810001],[29.660804078000126,51.49313710600002]],[[30.753676885180084,50.2891579715631],[30.791965799182265,50.29255574695014],[30.79016082206425,50.33258787533015],[30.830268158049023,50.332724846574365],[30.846045721033192,50.35349298501325],[30.81701276352817,50.367226506797806],[30.815178148352857,50.38457415477342],[30.760252259434196,50.43988011157785],[30.75710513859127,50.476447773545885],[30.768079276837113,50.488703509559286],[30.750571941641795,50.50629949272741],[30.753231084946606,50.52146195630422],[30.77560546292176,50.544198930136474],[30.80466844429327,50.55643009037635],[30.842339119354847,50.583978551369],[30.834853259770114,50.63879710530216],[30.79287124021556,50.65395056216869],[30.738579569391618,50.66815305072271],[30.71559759865022,50.65180543717116],[30.71854413110674,50.62352455391499],[30.696370668871225,50.6111592966642],[30.664327235313635,50.60269465093734],[30.647182495975414,50.575179282297995],[30.551813308637236,50.58078364145189],[30.53868694254834,50.57195880825236],[30.548079872987728,50.54898277123789],[30.52260854734658,50.55786269150997],[30.50328279196725,50.57871947792154],[30.475767426025868,50.595864218159136],[30.462512034202973,50.630365880181216],[30.437266331376065,50.6342417846306],[30.432651793045807,50.66244745938269],[30.334013856054582,50.663014239115796],[30.33347396335273,50.63791895239768],[30.270164967539188,50.63339306383881],[30.291309143102467,50.60927547418373],[30.28556101922561,50.588952523540115],[30.26787369911193,50.608004352618764],[30.249909840166993,50.60072326596594],[30.259001940187375,50.58441924974858],[30.258627859088392,50.56587771038801],[30.240264402580124,50.55516067032863],[30.21743877987575,50.54243172814171],[30.21318683740259,50.52552605378435],[30.21742533680981,50.50566040480379],[30.21158059696694,50.487011516967925],[30.20028059567295,50.47814503796309],[30.201032671720384,50.46146498462133],[30.203452750044335,50.44486013798496],[30.192453580967992,50.42932163998165],[30.191537648443727,50.41256637813581],[30.185993737221168,50.38724546860345],[30.19660342970451,50.37435267083907],[30.206160217519994,50.384811947213564],[30.223303712196525,50.38202063324559],[30.238241797620844,50.41467218657215],[30.28039317570449,50.40654433964954],[30.30344442032373,50.414269263315816],[30.3187572982107,50.40827410826347],[30.332238312847835,50.36876843221734],[30.358236089024274,50.348212476224774],[30.389087466713192,50.33121814849875],[30.413718066535523,50.30391496230561],[30.404537317643076,50.285115658360894],[30.41059423723425,50.261989207036265],[30.42901750405457,50.26114848301603],[30.445622347093604,50.26356856223936],[30.453347274357213,50.24051731762006],[30.45584256028593,50.22224446510995],[30.4735957917124,50.2170300196197],[30.476911529143763,50.19979488042935],[30.493772503598166,50.20550967812909],[30.520806118907217,50.19007423523772],[30.51108547371564,50.146179644574886],[30.53618076133307,50.145639750973714],[30.541697786423697,50.097418012031596],[30.568478920665655,50.091072387580596],[30.58179167934253,50.060783659937954],[30.58556549365261,50.014154717466226],[30.64819762192269,50.03369265169448],[30.63910552190231,50.04999666881122],[30.65033031469227,50.06053115279042],[30.62699168271996,50.09624957415849],[30.620784347019992,50.12271203543207],[30.63975921301727,50.12409198125988],[30.654383518684426,50.1559834941429],[30.63764169990452,50.19367074910576],[30.6086973930702,50.24250759105246],[30.61832938759113,50.25129886155321],[30.605901274923895,50.267452462561096],[30.642296562935996,50.27577904796465],[30.647977445402773,50.26099262241155],[30.669511101156388,50.26530632942354],[30.697532781812413,50.2579230806856],[30.718108877222903,50.262483327843256],[30.716755143035414,50.292507424577934],[30.72434309545747,50.30956351414483],[30.753676885180084,50.2891579715631]]]},"properties":{"adm1_code":"UKR-321","name":"Kiev","name_alt":"Kiev Oblast|Kiew|Kijew|Kiiv|Kijev|Kiyev|Kyiv|Kyjiv|Kyyiv|Kyyivs'ka Oblast'","name_en":"Kyiv","adm0_a3":"UKR"}}