{"type":"Feature","geometry":{"type":"Polygon","coordinates":[[[44.50951093877876,16.05700470650197],[44.59482872916249,16.05080353385597],[44.66097456172662,16.011426093039745],[44.70996381987436,15.916238104704746],[44.727378777608465,15.823272203549323],[44.727223748876895,15.754387518968826],[44.74210656106891,15.70836965593486],[44.806960484238914,15.62920136225307],[44.828199496909235,15.595560004290746],[44.809285923306675,15.557629503398857],[44.78184573709109,15.529233302774685],[44.66314497296213,15.449496568311986],[44.6424744001734,15.43066050907521],[44.64697024867803,15.414718328787842],[44.66200809140025,15.408620509828665],[44.68453901526334,15.40637258602601],[44.708103468800005,15.398957017452403],[44.74210656106891,15.371413479348575],[44.77610965423713,15.33162262648301],[44.809130893675786,15.319271958933768],[44.84297895721306,15.32971059856527],[44.855381300706426,15.353016668784221],[44.8676286145689,15.370638332992655],[44.88762739378916,15.383066514907739],[44.903182001348284,15.379785061431448],[44.92101037023235,15.374126492043956],[44.96509036602754,15.341234442915209],[44.99800825357801,15.306094469084485],[45.02389814618249,15.283201809116179],[45.05914147280072,15.274830227033362],[45.104565056632055,15.270411891995195],[45.13469241712136,15.257570298930148],[45.154071078717266,15.238475857274977],[45.164303012773814,15.203981837691629],[45.16461307113627,15.182484443502233],[45.16120242735013,15.162640693013543],[45.16492313039811,15.139153753842663],[45.15360599072386,15.10788951269086],[45.13918826742457,15.084118354478449],[45.089527214809095,15.062620958490413],[45.07247399318021,15.050476996516181],[45.06766808361516,15.035826728320842],[45.05495568175928,15.007921454111795],[45.04265669105342,14.996087551399341],[45.032269728265305,14.984072781533598],[45.01909223841602,14.962161974395599],[45.01196088978321,14.942240709541124],[45.001263868632634,14.93053599713852],[44.99893842956487,14.922241930320808],[45.00389936696217,14.916092434518248],[45.01211592031342,14.909012762728821],[45.012270949045046,14.88989248355125],[45.006844923654285,14.874957994515796],[45.00591474766742,14.814264023965507],[44.963695102946645,14.779744167759134],[44.92163048695738,14.763569444374355],[44.868713820186656,14.756231391065853],[44.8676286145689,14.790492864853832],[44.85708662304921,14.812920436828676],[44.81734744612771,14.867619941207295],[44.79874393088767,14.903948473443279],[44.78448123631995,14.971541245931746],[44.75512902218662,15.012029730787447],[44.73249474463671,15.026783351770234],[44.707328322444084,15.02905711489393],[44.682678664188984,15.02595652947025],[44.65627200674771,15.029367174155766],[44.63503299317807,15.026240750310365],[44.61131351090978,15.011538805271641],[44.59436364116908,14.986113999761244],[44.57126427562582,14.959035548751558],[44.55111046677462,14.94810598450357],[44.50920088131562,14.932887275527321],[44.48279422387429,14.935781155375992],[44.45674930163892,14.952369289910791],[44.43876590402323,14.973970037787012],[44.41468468564972,14.977018948165892],[44.40600304520433,14.962317003127168],[44.400421991082,14.942990017475324],[44.386624382709044,14.924283149447774],[44.35649702311912,14.915317288162328],[44.28079105006691,14.930975246710261],[44.25717491968675,14.950095526787095],[44.2367110533724,14.97102448199422],[44.20983930793767,14.981153062363944],[44.191855910321976,14.993271185916456],[44.164260695374765,14.991565863573726],[44.13273807090525,14.985545558980334],[44.09749474518634,14.973815009055386],[44.04292443201689,14.935083523385856],[44.01961836089862,14.922784531780678],[44.000239699302654,14.90994293871563],[43.980809360863304,14.899452623140007],[43.946702914907576,14.86873098434745],[43.92463707903795,14.862038886185644],[43.886034783678326,14.858834947075138],[43.83792402467395,14.86333079737841],[43.82397138756943,14.85036001220476],[43.78194921688282,14.8622814792069],[43.77778277655386,14.872697576432017],[43.72570229042833,14.879988845209027],[43.71841102255064,14.910195527701433],[43.701963332441835,14.933404039464847],[43.718293083658864,14.956632595318013],[43.72402916831146,14.961929430398868],[43.724649285935755,14.97314321548697],[43.70025801009905,14.994588935530942],[43.68118940596628,14.991875921936241],[43.66196577310194,14.992366848351367],[43.63509402856653,14.998180447369748],[43.603468052208825,15.014174302701917],[43.57101525175244,15.04424998634778],[43.5967501156253,15.085642807869249],[43.60842898870686,15.095435492354056],[43.618660922763354,15.119878445034203],[43.61509524934627,15.169461982384576],[43.62300174343568,15.195455226877186],[43.640054965963884,15.217030138130383],[43.701963332441835,15.253487861575536],[43.71317711842926,15.265166733757724],[43.77973636214335,15.278189194875438],[43.81771853987868,15.314285183114691],[43.88820519401446,15.364049586719034],[43.90882408995975,15.37304128732552],[43.94887332524377,15.400197251801728],[43.965771519040345,15.417741400745058],[43.97119754443111,15.460245266306003],[43.984220004649444,15.504738674150474],[43.9952787619053,15.530008450029925],[43.99388349792508,15.5457180854213],[44.00752607576777,15.559438178529092],[44.04581831186556,15.556389268150213],[44.07858116978514,15.560497544825807],[44.10638309120668,15.574579373139557],[44.167206252066876,15.620623073695867],[44.17790327321745,15.662248440113387],[44.17960859556024,15.708266303147354],[44.19805708206866,15.73343272533998],[44.226479120215174,15.754542547700396],[44.24802819214733,15.782551173797629],[44.25283409991374,15.801413072355388],[44.25391930463218,15.823039659552649],[44.24647789943549,15.842237453995267],[44.24043175642038,15.870220242570099],[44.23609093574805,15.925152289146808],[44.243842401105894,15.95062876970195],[44.25453942225653,15.973805650510371],[44.3125720560555,16.003312893375323],[44.37060468895521,16.024551906944907],[44.4258467947937,16.02827260999294],[44.48108890243088,16.039977322395487],[44.48930545398349,16.0486589619415],[44.50951093877876,16.05700470650197]],[[44.368432320794966,15.533362673948204],[44.38428705820115,15.534083343871202],[44.392935097276904,15.540569373178016],[44.39942112658372,15.549217412253768],[44.39797978673772,15.557144781406521],[44.390773088407286,15.56651349040527],[44.37275634033284,15.578044208273582],[44.361225621565154,15.59101626598789],[44.35257758159008,15.598943635140643],[44.33600217516022,15.606150334370398],[44.31942676693171,15.61191569285495],[44.306454709217405,15.611195022931952],[44.29204131075784,15.606150334370398],[44.282672602658465,15.60110564490958],[44.270421213967836,15.588133586295953],[44.261773175791404,15.576602868427642],[44.25744915625353,15.57083750904377],[44.24375642771696,15.57083750904377],[44.23510839043985,15.567234159428892],[44.227901690310716,15.55858612035314],[44.20988494223627,15.552100091945647],[44.20123690405984,15.541290043101014],[44.1990748942909,15.516066596696078],[44.20339891382878,15.509580567389264],[44.20123690405984,15.505256547851388],[44.19114752513815,15.503815208005449],[44.18754417642259,15.495167169829017],[44.17961680726984,15.485077790907326],[44.16736541857915,15.482915781138388],[44.160879389272395,15.475709081908576],[44.15079001124997,15.472826402216697],[44.13277326317552,15.46850238447746],[44.12196321523015,15.464899033963206],[44.119801204561895,15.456971664810453],[44.12556656394577,15.445440946042822],[44.13349393309852,15.43823424771233],[44.141421302251274,15.434630898097453],[44.15079001124997,15.428144868790639],[44.16520340881027,15.412290131384452],[44.16592407873321,15.401480083439083],[44.16160005919534,15.399318072770825],[44.15079001124997,15.397156063001887],[44.14358331202021,15.389228694748454],[44.13853862255934,15.369049936905071],[44.14214197217427,15.351753860552208],[44.1594380494264,15.340943810808199],[44.1767341275779,15.32869242301689],[44.18105814621646,15.320044383941138],[44.1767341275779,15.298424287151136],[44.18105814621646,15.293379597690262],[44.20844360239033,15.293379597690262],[44.228622360233715,15.293379597690262],[44.23654972758783,15.294820938435521],[44.23799106833309,15.299144957074077],[44.23582905856415,15.308513665173507],[44.239432408179084,15.314279025456642],[44.24880111717778,15.315720364403262],[44.25816982617653,15.320765053864136],[44.261773175791404,15.329413092939888],[44.261773175791404,15.34815051003801],[44.25672848633053,15.361843239473899],[44.250242457023774,15.359681228805641],[44.24375642771696,15.364725917367196],[44.24303575779396,15.376256636134826],[44.240873748025024,15.387066684979516],[44.23366704969459,15.399318072770825],[44.23222570984859,15.408686781769575],[44.23438771961753,15.419496829714888],[44.23294637977159,15.428865538713637],[44.23799106833309,15.43823424771233],[44.25168379686971,15.45048563640296],[44.2682592041989,15.462016354271327],[44.27834858312059,15.470664393347079],[44.281231262812526,15.480033101446452],[44.27978992296653,15.487960471498525],[44.27690724327465,15.502373868159452],[44.282672602658465,15.5124632470812],[44.29059997181122,15.521111286156895],[44.296365330295714,15.5124632470812],[44.30285135960253,15.521831956079893],[44.31294073942354,15.521831956079893],[44.33311949456902,15.519669946310955],[44.337443515006214,15.526155976517089],[44.337443515006214,15.536966024462458],[44.34104686462109,15.546334733461151],[44.347532893028585,15.551379422022706],[44.3532982524124,15.556424111483523],[44.359063611796216,15.556424111483523],[44.36482897118003,15.553541431791643],[44.36194629058883,15.546334733461151],[44.360504951642156,15.53768669348608],[44.368432320794966,15.533362673948204]]]},"properties":{"adm1_code":"YEM-3496","name":"Sana'a","name_alt":"","name_en":"Sanaa","adm0_a3":"YEM"}}