{"type":"Feature","geometry":{"type":"Polygon","coordinates":[[[46.969309115922954,40.41572459591333],[46.95148074703883,40.430839952102076],[46.93649458205931,40.447970688996065],[46.93148196781851,40.464584661952586],[46.92398888487912,40.48001007740311],[46.947036573579,40.48801992428008],[46.9578369484164,40.509258937849665],[46.96212609224534,40.52458100051274],[46.95375451016247,40.53372772895153],[46.92300703294819,40.530472113896906],[46.894326613282544,40.53739675605544],[46.88859052862995,40.5809341503907],[46.89019249908455,40.62367055904906],[46.86461266484258,40.64540049903377],[46.830351190155284,40.647829290889035],[46.7902502789272,40.62909658533914],[46.77226688041219,40.651136582787046],[46.80291100393964,40.6833568392467],[46.82802575108752,40.71407847803931],[46.79459109870021,40.73162262608332],[46.754386834684624,40.73617015233066],[46.73118411635386,40.76531565998971],[46.74870242687547,40.80404714655856],[46.75702233301422,40.844432277727435],[46.753818393903714,40.88670360019097],[46.750562778849144,40.926081041007194],[46.75970950728788,40.965975247559584],[46.84564741439664,40.945950629018284],[46.929983351050794,40.910939846396786],[47.02083051871347,40.87592906287591],[47.1104891288702,40.83784353325245],[47.18676354270332,40.813943182931496],[47.262831251860746,40.78885427510471],[47.24872358602465,40.74813324625228],[47.234874301707634,40.70785146697159],[47.221800164645856,40.67421010990864],[47.221025018289936,40.63806244572527],[47.2337890969892,40.60785757087018],[47.223712192563596,40.57692922650256],[47.20769249880976,40.56258901577041],[47.200974562226236,40.55659455049806],[47.172965936129,40.54403717737381],[47.13829105029174,40.485901190787274],[47.07984500534269,40.47871816710972],[47.01783328607729,40.47161265689857],[46.969309115922954,40.41572459591333]],[[46.989359571986654,40.76978567187126],[46.95189415908817,40.78053436896596],[46.920578241092926,40.76800283516269],[46.96786217599862,40.725318102448455],[47.04868411607907,40.75025197974503],[47.039434034852775,40.76415294000617],[47.02858198407131,40.77495331484357],[47.00935835120691,40.7754442412587],[46.989359571986654,40.76978567187126]],[[47.173550468479334,40.5698336511021],[47.183197461893315,40.58002350498077],[47.18067467559575,40.58645254155152],[47.180105013535524,40.59857819242961],[47.1825464201811,40.60573965036457],[47.18742923257298,40.613552150911005],[47.19214928476168,40.62323639514352],[47.19434655065277,40.636053778459086],[47.18946373826088,40.639227606468864],[47.17815188929825,40.64016347876151],[47.15650475349156,40.639471747223354],[47.11078331419856,40.6393087460018],[47.09305518644766,40.61822664794141],[47.107429343889066,40.58564522374803],[47.1390524900803,40.57127106630662],[47.173550468479334,40.5698336511021]]]},"properties":{"adm1_code":"AZE-1688","name":"Yevlakh Rayon","name_alt":"Yevlakh","name_en":"Yevlakh","adm0_a3":"AZE"}}