{"type":"Feature","geometry":{"type":"MultiPolygon","coordinates":[[[[49.23430243860662,39.156351293877094],[49.22966556100005,39.138657945000034],[49.215586785000085,39.106350002000056],[49.21078535200007,39.09076569200005],[49.20785566500007,39.05540599200009],[49.20329837300005,39.03412506700005],[49.19385826900009,39.01634349200009],[49.11882571700005,38.97532786700009],[49.07927493600005,38.963324286000045],[49.051524285000085,38.98102448100008],[49.054698113000086,38.99274323100008],[49.05437259200005,39.00079987200007],[49.05583743600005,39.007513739000046],[49.065196160000085,39.01512278900009],[49.110118035000085,39.02195872600004],[49.12549889400009,39.02814362200007],[49.138682488000086,39.04344310100004],[49.146820509000065,39.06342194200005],[49.14771569100009,39.08344147300005],[49.13640384200005,39.10228099200009],[49.11638431100005,39.11029694200005],[49.06861412900008,39.111395575000074],[49.06861412900008,39.120306708000044],[49.06275475400008,39.161322333000044],[49.058929884000065,39.17279694200005],[49.04118899800005,39.18439362200007],[49.022227410000085,39.18821849200009],[48.979502800000034,39.18707916900007],[48.96762129000007,39.18382396000004],[48.96176191500007,39.175848700000074],[48.95785566500007,39.165676174000055],[48.949554884000065,39.151271877000056],[48.94874108200008,39.146185614000046],[48.94906660200007,39.13532135600008],[48.94695071700005,39.12750885600008],[48.942149285000085,39.12539297100005],[48.93726647200003,39.125433661000045],[48.93482506600009,39.12441640800006],[48.93295332100007,39.07770416900007],[48.93637129000007,39.05312734600005],[48.95264733200008,39.03164297100005],[48.94857832100007,39.00722890800006],[48.92172285200007,38.93545156500005],[48.91822350400008,38.928941148000035],[48.91198123634496,38.95038768204586],[48.8966850121036,38.98260793670687],[48.89317101373126,39.0093763293541],[48.89337772020559,39.03260488520726],[48.87064008986823,39.0502265494157],[48.847178989119016,39.06640127190116],[48.84614546124402,39.09926748350756],[48.85441368964001,39.13164276779946],[48.88924360510828,39.16719615278021],[48.92846601719293,39.20024323243922],[48.97357954266175,39.23993073251728],[49.02360232868449,39.27005809210726],[49.05285119003037,39.25039520877186],[49.07259158683223,39.218045762901625],[49.10359744556564,39.201896877938566],[49.13853071472067,39.19388703106159],[49.17749474528625,39.17864248276436],[49.21862918528865,39.17058095994332],[49.23430243860662,39.156351293877094]]],[[[48.89625084700003,38.890733140000066],[48.867930535000085,38.86383698100008],[48.83179772200003,38.871161200000074],[48.83253014400009,38.835638739000046],[48.834727410000085,38.81928131700005],[48.83920332100007,38.80353424700007],[48.84710957530733,38.788044442481144],[48.82629822318444,38.77797127815194],[48.82629822318444,38.76296070737072],[48.82629822318444,38.74698171243608],[48.829040290277135,38.73368152987865],[48.834020117034754,38.726709773137486],[48.84736144357572,38.731486929578125],[48.863432689128864,38.74794491598568],[48.868499725881634,38.60249792124205],[48.788009473758166,38.58539704004136],[48.69814415892574,38.581676336993326],[48.71829796687763,38.605576687314226],[48.73044192885192,38.62978709599764],[48.7130786479612,38.64591014343836],[48.6926664566916,38.65712392852646],[48.69070275193042,38.67407379826716],[48.69359663267841,38.69278066719403],[48.680677525247575,38.71432973912613],[48.665277948218716,38.73551707585233],[48.62161136267423,38.75851308950746],[48.577376336348834,38.78127655736722],[48.565594109580445,38.82496898043405],[48.59344770694611,38.8671886260542],[48.625952183346556,38.84486440686686],[48.661040480333895,38.8283537866979],[48.69959109885008,38.834554959343905],[48.73535119030515,38.85274506343393],[48.76733890186881,38.86475983329967],[48.79679446789038,38.87871247040414],[48.80986860495216,38.89049469717253],[48.8249581236185,38.8979877792126],[48.864180535703156,38.89747101527513],[48.89625084700003,38.890733140000066]]]]},"properties":{"adm1_code":"AZE-1707","name":"Lankaran","name_alt":"Lenkoran|Lənkəran","name_en":"Lankaran","adm0_a3":"AZE"}}