{"type":"Feature","geometry":{"type":"Polygon","coordinates":[[[22.73957861795884,42.89885754334091],[22.74551558400006,42.910069275000026],[22.763188924000076,42.95864512100003],[22.769390096000052,42.97128000900007],[22.776418091000068,42.97972910600005],[22.788096964000147,42.98489674900007],[22.815795532000067,42.98970265700008],[22.828817993000115,42.99344919800008],[22.82892134600013,42.99344919800008],[22.82902469900006,42.99350087500001],[22.82902469900006,42.99365590500004],[22.842253865000146,43.007505188000025],[22.88421512800005,43.036650696000024],[22.889486124000086,43.04437632300004],[22.896720825000045,43.06272145700011],[22.901681763000113,43.06974945100002],[22.910156698000094,43.07527882900003],[22.927106568000113,43.08114410500012],[22.93527144300012,43.085562439000014],[22.955631958000055,43.108274232],[22.974028768000068,43.141192118000035],[22.98457076000011,43.17462677100012],[22.982901934576603,43.18731791888683],[23.02890994643684,43.19493480070048],[23.101050246071964,43.131812039194244],[23.127301872983026,43.117161770099585],[23.22031945188121,43.111193142349634],[23.254735956199397,43.12300120753969],[23.28605187329532,43.12915070244293],[23.318091260803044,43.120830797203496],[23.36273969917778,43.133698228690264],[23.39891320178282,43.16294708913682],[23.43136600133988,43.16196523720589],[23.462061801710774,43.150312202546104],[23.469813267068616,43.136850490957386],[23.448625929443097,43.136643785382375],[23.434569939551068,43.128143012090334],[23.43519005717536,43.10824758655684],[23.450279574942385,43.097473049241785],[23.46712609189558,43.08899811527078],[23.49358442618029,43.07054962786299],[23.516942173242683,43.04832876236247],[23.532031691009706,43.02600454407445],[23.552598911010932,43.00915802712126],[23.59166629436396,43.02672801448625],[23.634351027078196,43.0530313182407],[23.650164015257076,43.04210175219407],[23.665356885811605,43.028304144720494],[23.69171186730881,43.02729645436784],[23.716723259870548,43.034608670154],[23.738427362332914,43.05478831652755],[23.766022577280125,43.06786245448865],[23.803539666122674,43.056080226820995],[23.9023450047182,43.04279938418421],[23.918571404946363,43.03670156522503],[23.935624626575247,43.02776154236125],[23.959085728223783,43.039492092286196],[23.977482537888818,43.05987844513413],[24.00621463439785,43.06021434191831],[24.02430138480105,43.04564158808881],[24.031949497371386,43.030836290262584],[24.046005487263415,43.020423489052746],[24.05231001089828,42.999778753786416],[24.044661900126584,42.978772285112825],[24.065642531277774,42.96042715139191],[24.090550571052006,42.94234040008939],[24.129307896042576,42.935777493136754],[24.151425408755586,42.90872488144811],[24.15400923024174,42.87634959625683],[24.15214887916744,42.84384511985638],[24.13860965321288,42.80358917899741],[24.158556755589757,42.780851549559316],[24.285164014707505,42.77966299115411],[24.30934858586852,42.76979279230352],[24.3324996273559,42.757778022437776],[24.364332310187933,42.75248118825618],[24.39668175605817,42.75490998011145],[24.360198195090618,42.70741933873148],[24.373117303420827,42.66168569653763],[24.41631880097185,42.644994208316064],[24.447221306917754,42.612618924024105],[24.47295616989129,42.59928640454393],[24.46830529085645,42.577143053409145],[24.441846958370434,42.56319041630462],[24.408153923564726,42.56207937316452],[24.38696658683847,42.56760875134279],[24.365675897324763,42.56455984096385],[24.35037967308341,42.56515412016648],[24.338597446315077,42.57781484607824],[24.319477166238187,42.58184560838811],[24.301803826985008,42.58799510419067],[24.296222771963357,42.60584931149651],[24.284957310031814,42.62127472604777],[24.257465447872107,42.628225205728654],[24.228940056938086,42.62967214655231],[24.211576776047366,42.62427195958327],[24.19411014236914,42.62176565246284],[24.157523227714762,42.61073273452803],[24.129617954405035,42.58161306439138],[24.10657026480584,42.5731639670434],[24.081455518557334,42.572879747102604],[24.03474002533187,42.55337189429747],[24.009831983759,42.55822947890732],[23.988024530307825,42.5720270863809],[23.961359491347423,42.579287625323616],[23.933660922713386,42.577375597405876],[23.903998651116865,42.56952077926053],[23.898107537732642,42.54701569291984],[23.90751264769051,42.52582835529432],[23.921361932007528,42.50750905999507],[23.937691685023253,42.49789724446225],[23.950197381304065,42.48397044488013],[23.98812788309533,42.45872650832166],[24.038667433055593,42.464901842546],[24.054687126809426,42.44503225453491],[24.038357374693078,42.40800609030879],[23.999600050601828,42.39575877554705],[23.959395785686922,42.392296454018094],[23.941515740858733,42.34679535582097],[23.957535434612623,42.30958832534094],[23.973348422791446,42.29989899274432],[23.974071893203302,42.28325918226545],[23.958052199449412,42.268040473289204],[23.937174920186408,42.27313060189573],[23.924152459068694,42.28325918226545],[23.912473585987186,42.295997423442316],[23.8884957213005,42.29070058926078],[23.880640903155154,42.261477566336566],[23.848084750810585,42.22574331330327],[23.800852491849014,42.21127391226122],[23.794134556164806,42.20207550697904],[23.795684848876647,42.18869131155475],[23.78069868299781,42.18099152304035],[23.76312869563276,42.17760671587723],[23.747109001878925,42.17830434786731],[23.735946892734887,42.167038885935824],[23.717963495119193,42.16047597898324],[23.69842980299302,42.166832180360814],[23.664220005149105,42.16259471337531],[23.637658318976207,42.154739895229966],[23.600244582021844,42.15091583939443],[23.580814242683118,42.11438060248281],[23.54753462082607,42.08412404988496],[23.49358442618029,42.09908437824146],[23.519112582679554,42.11355377928345],[23.529757927886067,42.135232042424775],[23.50319624171317,42.14455963801686],[23.47332726364226,42.14636831314709],[23.45389692610223,42.17197398491146],[23.42805870944187,42.18685679800279],[23.383823683116475,42.17794261356073],[23.33896854006605,42.17316254331672],[23.324602491811504,42.19571930650079],[23.356228469068583,42.22667348929008],[23.368424106986936,42.24455353501759],[23.38857791493882,42.24966950114651],[23.39932661293284,42.2620718455392],[23.384547152628954,42.28315582947795],[23.362843051965285,42.289227810015404],[23.34651329894956,42.30261200633902],[23.33917524564106,42.31245636676789],[23.327599725347056,42.317158921746795],[23.293906691440668,42.3735895859906],[23.272822706602597,42.36966217736756],[23.24956831232771,42.36870616295903],[23.233238560211362,42.375243232389266],[23.21566857284637,42.37317617394126],[23.21969933425686,42.39146963171811],[23.232721795374516,42.40627492954434],[23.222489862217344,42.449915675767784],[23.24491743329287,42.494667466930025],[23.27850711441181,42.532287910358775],[23.360259229579754,42.49983510990239],[23.396329380296663,42.4792162139571],[23.43208947085236,42.472653307004464],[23.456687453163397,42.50133372756943],[23.475704379553463,42.5304275583851],[23.516322055618332,42.5242780634818],[23.516735466768353,42.512185777451634],[23.52324669777687,42.49477081971753],[23.543400505728755,42.467485663132834],[23.532031691009706,42.43425771721985],[23.558800082757614,42.42079600742977],[23.600968052433643,42.42604116476792],[23.629596795255907,42.41694611317257],[23.654401483141896,42.435859686775075],[23.64427290187291,42.46929433916239],[23.612750278302656,42.49146352781952],[23.56024702268195,42.56008982998162],[23.517975702016997,42.635950833564095],[23.50278283056315,42.657913315746896],[23.52128299301569,42.71904653586893],[23.575646599710808,42.80653473568947],[23.596317173398802,42.834853421048535],[23.608512811317155,42.861053372015476],[23.57295942633641,42.84294078229124],[23.535545689382047,42.8446461037347],[23.496168246767184,42.87071686529106],[23.45038292772989,42.86348216387074],[23.400566847282164,42.84777252937869],[23.351887648396257,42.85784943290497],[23.30217491983666,42.882240708741676],[23.289565870768286,42.89350617157254],[23.273649529801958,42.89800202097649],[23.249671665115216,42.86281037030233],[23.248948194703416,42.8172059193177],[23.199752231879984,42.78738861809023],[23.212154575373347,42.76914683715677],[23.209984165037156,42.74938060193318],[23.194998000057637,42.73589305282212],[23.177221307117634,42.72894257314124],[23.153450148005902,42.731500556205674],[23.132366164067207,42.74214590141219],[23.09061160733978,42.738838609514175],[23.059502394020228,42.70987396900841],[23.044412876253205,42.739613755870096],[23.02487918502635,42.76266144546929],[22.994493442118653,42.75974172629958],[22.975579867616773,42.76281647420092],[22.96493452330958,42.776200670524474],[22.934755486876213,42.776097316837706],[22.91770226434801,42.8010053575112],[22.898375277796788,42.818239448092015],[22.873363885235108,42.80756826446378],[22.853830194008253,42.817645168889385],[22.860031365754935,42.84901276282869],[22.845148552663545,42.855084744265525],[22.831919385970878,42.83746308005709],[22.81517622180519,42.834853421048535],[22.80804487497096,42.839866035289276],[22.7984330576395,42.83911672645576],[22.789338006044147,42.848495998891224],[22.78396365659745,42.86074331275364],[22.76680708218106,42.88043203451076],[22.74489627504306,42.894798081865986],[22.73957861795884,42.89885754334091]]]},"properties":{"adm1_code":"BGR-2244","name":"Sofia","name_alt":"Sofiya|Sofija","name_en":"Sofia","adm0_a3":"BGR"}}