{"type":"Feature","geometry":{"type":"MultiPolygon","coordinates":[[[[-64.70538050924404,32.336058626011855],[-64.71313216073445,32.342647529778695],[-64.72463708989119,32.33878621989682],[-64.73289887203497,32.33373313056473],[-64.73473870650784,32.32770225012702],[-64.73948777580182,32.32869455709597],[-64.74165990765948,32.33307298398109],[-64.73638711520566,32.34381027750226],[-64.72202022954997,32.3525116223135],[-64.70809358734914,32.35156192923961],[-64.70499292666952,32.34303511235322],[-64.6949157800392,32.33993445151373],[-64.70538050924404,32.336058626011855]]],[[[-64.71390732588348,32.329469722245015],[-64.70538050924404,32.336058626011855],[-64.69840402290268,32.326369061648855],[-64.70728857468143,32.32118640644458],[-64.71390732588348,32.329469722245015]]],[[[-64.74267093152736,32.32175193184272],[-64.74026294095086,32.32404356620173],[-64.73599953263113,32.32288081847817],[-64.731231403415,32.32309273533222],[-64.7396625197095,32.31695938576701],[-64.74267093152736,32.32175193184272]]]]},"properties":{"adm1_code":"BMU-5137","name":"Hamilton","name_alt":"","name_en":"Hamilton","adm0_a3":"BMU"}}