{"type":"Feature","geometry":{"type":"Polygon","coordinates":[[[18.10321577318939,47.35917674411144],[18.136495395945758,47.315045071472866],[18.10083865727819,47.308249620523554],[18.094844191106517,47.28104197920396],[18.106523065087345,47.25424774813507],[18.149207797801637,47.2259032252536],[18.18548465319418,47.16978262027169],[18.213286573716402,47.15841380555264],[18.227445916395936,47.13391917602911],[18.21917768710057,47.067928372196604],[18.22961632673207,47.04250356668621],[18.215250277578207,46.993565986281226],[18.177113071111307,46.953103338947926],[18.126780225826735,46.96881297523856],[18.072623324706626,46.971965237505685],[17.976298454809807,46.934964910801966],[17.949840122323792,46.930314033565764],[17.92627566878707,46.91990123145666],[17.886898227970846,46.891220811791015],[17.8420430840211,46.88251333292396],[17.661899041407594,46.808822740577],[17.45829389804493,46.749575710850365],[17.406617465623526,46.74497650775959],[17.3659997895586,46.730455430773475],[17.299233840269494,46.733375149043866],[17.258616164204625,46.7101465931907],[17.220375604050844,46.66459381815014],[17.166632114080812,46.6492459170654],[17.135832960922414,46.68102692305405],[17.14864871556574,46.750531725258895],[17.13572960813491,46.97607351328196],[17.139657016757894,46.98865672482799],[17.147925246053262,46.99868195241015],[17.153092889025572,47.009689032822564],[17.146788363592066,47.01940420204227],[17.120640090367885,47.02715566740011],[17.10854780433766,47.036121527786236],[17.098005811918654,47.04684438735859],[17.220375604050844,47.06710154899724],[17.199808384049675,47.171823839398655],[17.20373579267266,47.21996043592537],[17.195880975426633,47.248279120385064],[17.20766320219502,47.273032132327046],[17.22016889757657,47.28161041908555],[17.22750695178439,47.293030911547305],[17.227403598996887,47.30796540058276],[17.235775181079703,47.313856513067606],[17.302334425693175,47.33421702749382],[17.24673058374941,47.360675360879156],[17.20187544069904,47.39839915619609],[17.240839471264565,47.408062649471674],[17.268227979737446,47.42271291856633],[17.276909621082154,47.433177394820916],[17.294996372384674,47.43067108770049],[17.332100050976578,47.43868093547678],[17.369410435143436,47.4409288601787],[17.40320682093801,47.42439240248734],[17.41974328042801,47.42020661144596],[17.43772667804376,47.41987071376241],[17.452092726298247,47.42855235510706],[17.47431359179882,47.42883657504785],[17.496947870247993,47.43364248281432],[17.51710167819988,47.454519762077325],[17.568674757833776,47.4494296334708],[17.597406854342864,47.46157359544503],[17.637404412783383,47.44945547099314],[17.67977908713516,47.47177969018054],[17.72587446543423,47.48232168170023],[17.761221143940645,47.470746161406225],[17.778584425730628,47.48154653624363],[17.797394647445003,47.47986705232256],[17.815481397848203,47.474363512566015],[17.81641157383507,47.49317373338107],[17.851448194878287,47.47751577393382],[17.882454053611696,47.45477814449572],[17.88545128804651,47.42645945913671],[17.8790434098255,47.398812568245376],[17.917077264404213,47.38847728140138],[17.949323358386266,47.38501495987248],[17.955111118083607,47.36387929998966],[17.96637658001515,47.34568919500032],[17.989217564039336,47.34243357994575],[18.10321577318939,47.35917674411144]],[[18.006540036393574,47.05809971842723],[18.00414597095977,47.120345408014146],[17.992175646488874,47.16343857772813],[17.961052801245785,47.20653174744217],[17.932324021436443,47.22807833184953],[17.89880711165887,47.22089613734681],[17.886836787187974,47.18977329210372],[17.82937922756929,47.187379227569295],[17.826985162135486,47.17062077223085],[17.84613768200842,47.15386231779172],[17.843743617473933,47.12752760251681],[17.824591097601058,47.09640475817304],[17.85092581197665,47.05809971842723],[17.879654591785993,47.01740061324767],[17.925141826933725,47.01021841874501],[17.946688411341086,47.024582808649654],[17.96584093121396,47.067675978363695],[18.006540036393574,47.05809971842723]]]},"properties":{"adm1_code":"HUN-3158","name":"Veszprém","name_alt":"","name_en":"Veszprém","adm0_a3":"HUN"}}