{"type":"Feature","geometry":{"type":"MultiPolygon","coordinates":[[[[-9.004058397999927,53.1469234657249],[-9.004058397999927,53.15192291900007],[-9.045643683999913,53.16620514500005],[-9.045643683999913,53.17373281500005],[-9.02257239499994,53.16742584800005],[-9.00963294199994,53.166083075000074],[-8.998117641999954,53.173895575000074],[-8.986683722999942,53.176988023000035],[-8.978871222999942,53.175767320000034],[-8.984201626999948,53.16620514500005],[-8.974232550999943,53.15794505400004],[-8.963490363999938,53.15180084800005],[-8.95107988199993,53.147772528000075],[-8.936390753999945,53.145738023000035],[-8.94522050699993,53.16616445500006],[-8.950103318999936,53.17373281500005],[-8.956857876999948,53.17987702000005],[-8.94399980399993,53.195013739000046],[-8.928212042999917,53.20587799700007],[-8.89484615799995,53.22089264500005],[-8.90538489499994,53.220689195000034],[-8.92414303299995,53.21588776200008],[-8.932687954999949,53.21466705900008],[-9.03148352799991,53.21662018400008],[-9.045643683999913,53.22089264500005],[-9.028065558999913,53.22752513200004],[-8.98265540299991,53.234442450000074],[-8.96312415299991,53.23517487200007],[-8.96312415299991,53.24192942900004],[-8.991118943999936,53.24192942900004],[-8.991118943999936,53.24819570500006],[-8.981760219999956,53.253241278000075],[-8.955881313999953,53.257879950000074],[-8.942616340271911,53.26178619977327],[-8.909660998656193,53.261624734593795],[-8.92185906294543,53.298936459649894],[-8.972086383579722,53.313287122302825],[-9.040252034104071,53.331942984381215],[-9.085456623124685,53.309699456864394],[-9.117028081680644,53.28673839536066],[-9.119875061863855,53.261872613409],[-9.401437954999949,53.24799225500004],[-9.432932094999956,53.23859284100007],[-9.447865363999938,53.23187897300005],[-9.470082160999937,53.22825755400004],[-9.511708136999914,53.22833893400008],[-9.532948370999918,53.234442450000074],[-9.544422980999911,53.24355703300006],[-9.553130662999934,53.25336334800005],[-9.566395636999914,53.261786200000074],[-9.547271287999934,53.27912018400008],[-9.55455481699994,53.290716864000046],[-9.571359829999949,53.29047272300005],[-9.58071855399993,53.27204010600008],[-9.585194464999915,53.250433661000045],[-9.596831834999932,53.23769765800006],[-9.612294074999909,53.23615143400008],[-9.628407355999911,53.24819570500006],[-9.628407355999911,53.25560130400004],[-9.609120245999918,53.27631256700005],[-9.617298956999946,53.321478583000044],[-9.597401495999918,53.330064195000034],[-9.594105597999942,53.32916901200008],[-9.58421790299991,53.32489655200004],[-9.576975063999953,53.323919989000046],[-9.572987433999913,53.32607656500005],[-9.566517706999946,53.33539459800005],[-9.563384568999936,53.337591864000046],[-9.56078040299991,53.34121328300006],[-9.601144985999952,53.364894924000055],[-9.590199347999942,53.372381903000075],[-9.552805141999954,53.38540273600006],[-9.588856574999909,53.386419989000046],[-9.60655676999994,53.38471100500004],[-9.621652798999946,53.37848541900007],[-9.60850989499994,53.36660390800006],[-9.606597459999932,53.34935130400004],[-9.61546790299991,53.33466217700004],[-9.63463294199994,53.330064195000034],[-9.652495897999927,53.34125397300005],[-9.647938605999911,53.35993073100008],[-9.637766079999949,53.37750885600008],[-9.638417120999918,53.38540273600006],[-9.644154425999943,53.38739655200004],[-9.64834550699993,53.391058661000045],[-9.65265865799995,53.39280833500004],[-9.65884355399993,53.38906484600005],[-9.67251542899993,53.37848541900007],[-9.684722459999932,53.37523021000004],[-9.692779100999928,53.367621161000045],[-9.703521287999934,53.35179271000004],[-9.727528449999909,53.32607656500005],[-9.743072068999936,53.31439850500004],[-9.790394660999937,53.30158112200007],[-9.806711391999954,53.30158112200007],[-9.82335364499994,53.31329987200007],[-9.842925584999932,53.32330963700008],[-9.88658606699994,53.31720612200007],[-9.90225175699993,53.323919989000046],[-9.897857225999928,53.32786692900004],[-9.89281165299991,53.34056224200003],[-9.890736456999946,53.35187409100007],[-9.887196417999917,53.35919830900008],[-9.880279100999928,53.36310455900008],[-9.871490037999934,53.364569403000075],[-9.85806230399993,53.364894924000055],[-9.841297980999911,53.36790599200003],[-9.800526495999918,53.384426174000055],[-9.785511847999942,53.39276764500005],[-9.785511847999942,53.39899323100008],[-9.82022050699993,53.39899323100008],[-9.82022050699993,53.40643952000005],[-9.799183722999942,53.41266510600008],[-9.799183722999942,53.41950104400007],[-9.814076300999943,53.41950104400007],[-9.825184699999909,53.41669342700004],[-9.84752356699994,53.40643952000005],[-9.846913214999915,53.39935944200005],[-9.860178188999953,53.394232489000046],[-9.875396287999934,53.39520905200004],[-9.88109290299991,53.40643952000005],[-9.875721808999913,53.41543203300006],[-9.856068488999938,53.42377350500004],[-9.84752356699994,53.43374258000006],[-9.860340949999909,53.432521877000056],[-9.868072068999936,53.42747630400004],[-9.87490800699993,53.42206452000005],[-9.884755011999914,53.41950104400007],[-9.893950975999928,53.421576239000046],[-9.902333136999914,53.42523834800005],[-9.911447719999956,53.42597077000005],[-9.922678188999953,53.41950104400007],[-9.92564856699994,53.40973541900007],[-9.922759568999936,53.398423570000034],[-9.922352667999917,53.38922760600008],[-9.933216925999943,53.38540273600006],[-9.944488084999932,53.38426341400003],[-9.961415167999917,53.37958405200004],[-10.00108801999994,53.37921784100007],[-10.014149542999917,53.38125234600005],[-10.025746222999942,53.38540273600006],[-10.035959438999953,53.393744208000044],[-10.041981574999909,53.40265534100007],[-10.049305792999917,53.409816799000055],[-10.063221808999913,53.41266510600008],[-10.103505011999914,53.40843333500004],[-10.127552863999938,53.409857489000046],[-10.141753709999932,53.41950104400007],[-10.149973110999952,53.414943752000056],[-10.158029751999948,53.41282786700003],[-10.176503058999913,53.41266510600008],[-10.167591925999943,53.42877838700008],[-10.156971808999913,53.43964264500005],[-10.142241990999935,53.44570547100005],[-10.12132727799991,53.44741445500006],[-10.083159959999932,53.442613023000035],[-10.067982550999943,53.44383372600004],[-10.05296790299991,53.45359935100004],[-10.05296790299991,53.46108633000006],[-10.064564581999946,53.46198151200008],[-10.074208136999914,53.46576569200005],[-10.081654425999943,53.472357489000046],[-10.087147589999915,53.48151276200008],[-10.065337693999936,53.47919342700004],[-10.040760870999918,53.47256094000005],[-10.020578579999949,53.47044505400004],[-10.012074347999942,53.48151276200008],[-10.031849738999938,53.48029205900008],[-10.069406704999949,53.48476797100005],[-10.10728919199994,53.49445221600007],[-10.128163214999915,53.50885651200008],[-10.12913977799991,53.51520416900007],[-10.134755011999914,53.52708567900004],[-10.143137173999946,53.53851959800005],[-10.15265865799995,53.54360586100006],[-10.181752081999946,53.53864166900007],[-10.193470831999946,53.53803131700005],[-10.203236456999946,53.54360586100006],[-10.180287238999938,53.55548737200007],[-10.156971808999913,53.55516185100004],[-10.132801886999914,53.55068594000005],[-10.10765540299991,53.54979075700004],[-10.109730597999942,53.55426666900007],[-10.113026495999918,53.565741278000075],[-10.11510169199994,53.570298570000034],[-10.070668097999942,53.570013739000046],[-10.025746222999942,53.56289297100005],[-10.020008917999917,53.55898672100005],[-10.005238410999937,53.54360586100006],[-9.995716925999943,53.546210028000075],[-9.981678839999915,53.55878327000005],[-9.971058722999942,53.56289297100005],[-10.03189042899993,53.587144273000035],[-10.04678300699993,53.599269924000055],[-10.008656378999945,53.60443756700005],[-9.930734829999949,53.59979889500005],[-9.90225175699993,53.60443756700005],[-9.867909308999913,53.61737702000005],[-9.854400193999936,53.61810944200005],[-9.843902147999927,53.61546458500004],[-9.822865363999938,53.60643138200004],[-9.775054490999935,53.60130442900004],[-9.696766730999911,53.59821198100008],[-9.696766730999911,53.60261862794732],[-9.696534389950159,53.60261994095748],[-9.586773646886286,53.60324005858183],[-9.578918829640259,53.60437694014365],[-9.570237189194927,53.60814931913575],[-9.56357092855552,53.60954458311602],[-9.557524787339048,53.60954458311602],[-9.551737025843067,53.60515208649957],[-9.549566616406253,53.60081126582725],[-9.547757941275961,53.59197459575097],[-9.546569382870757,53.58830556954638],[-9.54388220859704,53.58536001195495],[-9.53985144718655,53.58308624883131],[-9.534270392164899,53.58194936816881],[-9.506675177217687,53.57952057631354],[-9.50248938617625,53.57848704753917],[-9.499543830383459,53.577298489133966],[-9.496546596847963,53.575748196422126],[-9.489725308376308,53.57120067017479],[-9.485591193278935,53.5690302598386],[-9.464817266803436,53.56313914735375],[-9.452414924209393,53.56153717689915],[-9.357123582187569,53.56530955679057],[-9.346839972186956,53.56329417608532],[-9.345806444311961,53.55978017771298],[-9.345858120256025,53.5563178570834],[-9.347976853748833,53.551770330836064],[-9.348855352892201,53.5489798037749],[-9.348028529692897,53.54587921835122],[-9.344927944269216,53.54329539686506],[-9.336401332555454,53.54205516251574],[-9.29934933080699,53.542158515303186],[-9.290047572737308,53.539833076235425],[-9.284466518614977,53.53668081306904],[-9.281365933191296,53.525518703925],[-9.278678758018259,53.52102285452111],[-9.274647995708449,53.51570018191785],[-9.268033412811747,53.509809068533684],[-9.263795945826246,53.507742010985],[-9.259145066791405,53.50593333585476],[-9.244313931442775,53.50195425128766],[-9.240283169132965,53.499783840951466],[-9.236407437353364,53.49616648979162],[-9.234185350173789,53.493375962730454],[-9.232066615781719,53.48996531804494],[-9.229586147083012,53.48712311503971],[-9.226227179240936,53.48469432228512],[-9.222093065042941,53.48267894157988],[-9.211964483773897,53.47942332652525],[-9.19470455567074,53.475495917002945],[-9.187366502362181,53.47523753548387],[-9.155430466742644,53.48004344325028],[-9.147627326340057,53.480353502512116],[-9.13915239057036,53.481645412805506],[-9.129798956556613,53.4842809111351],[-9.106079474288322,53.495753079540975],[-9.097604539417944,53.501334134562626],[-9.0813781400891,53.516733709792845],[-9.041587287223535,53.54706777585716],[-9.036057909045269,53.554095770803144],[-9.034869350640008,53.55926341377551],[-9.0381766416387,53.562002264892556],[-9.04112219923013,53.56499949842811],[-9.043292608666945,53.56810008385179],[-9.043240932722881,53.57171743411226],[-9.039623581563035,53.574714666748434],[-9.033835821865694,53.577091783558956],[-9.022880418296666,53.57988231151944],[-9.015955776138185,53.58293122009968],[-9.012338425877658,53.58897736311479],[-9.011098192427653,53.593628242149634],[-9.007377489379621,53.59858917954699],[-8.988257209302787,53.611146551771924],[-8.982779507068585,53.616417548431116],[-8.97905880402061,53.621016751521836],[-8.976009893641674,53.62825145114351],[-8.97482133613579,53.632178859766555],[-8.973167689737124,53.6445295273158],[-8.967069870777948,53.64778514326974],[-8.956217820895745,53.649903875863174],[-8.889865281857283,53.64995555270656],[-8.847852341812143,53.656621813345964],[-8.817104864597809,53.66814565679658],[-8.801653611624886,53.6608076043874],[-8.763464728314545,53.66023916270717],[-8.741140509127206,53.66266795546176],[-8.736076218942344,53.663959865755146],[-8.65742468919808,53.67584544531104],[-8.652670457375734,53.67796417880379],[-8.649001431171143,53.680341294714935],[-8.646520961573117,53.683235175462926],[-8.644557257711256,53.68695587851096],[-8.643265347417866,53.69088328713394],[-8.637684292396159,53.694603990181974],[-8.628485887113982,53.698273017285885],[-8.595619676406955,53.70710968736216],[-8.571486782089323,53.715998033382505],[-8.562495083281476,53.71728994457527],[-8.555105353129534,53.717341620519335],[-8.542858039267117,53.7151712101832],[-8.47490352977411,53.71393097583382],[-8.469012417289207,53.713104153533834],[-8.462501187180067,53.711398831191104],[-8.453716193047853,53.70772980408714],[-8.448961961225564,53.70452586497669],[-8.446998257363703,53.700805161928656],[-8.447256638882777,53.691503403858974],[-8.446636522157803,53.68793773134121],[-8.445706346170937,53.6846304394432],[-8.443380907103176,53.6812714707018],[-8.44059037914269,53.67848094274126],[-8.432218797059818,53.67403677018075],[-8.421780158327635,53.670884507913684],[-8.395425176830429,53.66649201129724],[-8.387208625277822,53.66426992501698],[-8.369173549919424,53.65708690044005],[-8.364212611622747,53.653986315016425],[-8.361215378986572,53.651247463899324],[-8.359148322337205,53.64825023126315],[-8.358734911187184,53.6449946153092],[-8.361112026199066,53.642410793823046],[-8.366383021958882,53.64096385389871],[-8.386536830810087,53.639878648280956],[-8.39201453304429,53.63879344356252],[-8.395373500886365,53.636571357282264],[-8.3960452953541,53.63326406538431],[-8.385916714085113,53.62401398415801],[-8.382816127762112,53.62029328111004],[-8.381575894312107,53.616520901218564],[-8.37832027835816,53.61197337497123],[-8.37237748902993,53.60747752556733],[-8.348658005862262,53.59889923790945],[-8.324628465231513,53.58567007121678],[-8.287938197789629,53.57016714140042],[-8.283390672441612,53.56654979113995],[-8.291968960099439,53.56587799757148],[-8.295896368722424,53.56448273449058],[-8.296929896597476,53.56117544169325],[-8.296103075196754,53.557816473851176],[-8.282563849242251,53.53859284098678],[-8.280290086118612,53.53358022674604],[-8.279514939762691,53.53094472931576],[-8.279308234187681,53.5277924670487],[-8.284217494741597,53.51740550426058],[-8.284837612365948,53.513633124369164],[-8.284217494741597,53.50965403890274],[-8.281426967680432,53.50319448473766],[-8.27868811656333,53.498440252915316],[-8.27636267659625,53.49213572928045],[-8.275949266345549,53.488415025333154],[-8.27734453032582,53.48076691276276],[-8.277292852583116,53.476684475408206],[-8.27424394400282,53.472395331579264],[-8.271195033623883,53.469139716524694],[-8.267732712994302,53.46629751172077],[-8.256208868644364,53.45513540347605],[-8.245460170650347,53.447745673324164],[-8.242721320432622,53.44526520372614],[-8.241532762027362,53.44278473592681],[-8.243909877938506,53.44045929595973],[-8.25114457756024,53.435808416924885],[-8.253108283220683,53.432501125926194],[-8.2526948711714,53.42790192283542],[-8.249284227385203,53.42283763354993],[-8.23419470871886,53.41136546514406],[-8.230474005670828,53.40733470283425],[-8.226133184998503,53.400978502356],[-8.225099657123508,53.39756785677116],[-8.226081509054382,53.39441559540336],[-8.233884650356345,53.38501048454617],[-8.23822547012935,53.378550930381095],[-8.239258998903665,53.374158433764705],[-8.238638882178691,53.369300849154854],[-8.235228236593855,53.36263458941477],[-8.228406948122142,53.35808706316743],[-8.218898485376826,53.35359121376348],[-8.200656704443361,53.34687327717995],[-8.192026739942094,53.34279083892602],[-8.186135626557927,53.339018459933925],[-8.183035041134247,53.33276561134386],[-8.182518276297401,53.32987173149519],[-8.182518276297401,53.3274429387406],[-8.184378628271077,53.315919094390665],[-8.182208217934942,53.31007965784988],[-8.177764045374374,53.30325836937823],[-8.164638230569892,53.291424465766454],[-8.15668005963704,53.2862051459507],[-8.149445360015363,53.28243276605929],[-8.138644985177905,53.27984894547245],[-8.081284145846666,53.276851711936956],[-8.045679084022538,53.276231594312605],[-8.044542201561342,53.272769272783705],[-8.03126135892461,53.2619172229015],[-7.977362840222895,53.23664744702205],[-7.969197963715089,53.22465851557803],[-7.976587693866975,53.207501939363],[-7.994726121113615,53.197218329362386],[-8.038082648295585,53.18683136747359],[-8.07652991402432,53.170398260771094],[-8.09409990138937,53.16280182594346],[-8.116889206771475,53.15954620998957],[-8.137508103616085,53.152828274305364],[-8.154096239050205,53.136550198133136],[-8.182104865147437,53.09743113883599],[-8.1983312653756,53.07882762269662],[-8.206444465040022,53.07050771745719],[-8.21662472225313,53.06394481140387],[-8.243909877938506,53.05097402623028],[-8.252849900802289,53.04528961932044],[-8.257810838199646,53.0406387402856],[-8.261066453254216,53.032835598084375],[-8.273210415228505,53.01862457946072],[-8.305198126792106,52.98978913016418],[-8.309435593777664,52.9801256368886],[-8.345299038020187,52.972270820541894],[-8.362197230917502,52.972115790011685],[-8.402039760626451,52.97878204975177],[-8.41149654832708,52.97795522745179],[-8.42012651192897,52.975784817115596],[-8.430978562710493,52.97196076128006],[-8.442347378328861,52.971547350130095],[-8.476505500228654,52.976508287527395],[-8.49412716263845,52.9817276073432],[-8.499191452823311,52.98761871982805],[-8.501930303940355,52.99459503793065],[-8.504410772639062,52.999452623439765],[-8.506529507031132,53.00224315050099],[-8.51763994023105,53.00839264630355],[-8.540429245613211,53.01536896440615],[-8.574225633206424,53.03035513028499],[-8.584664271938607,53.03252553972186],[-8.596963262644465,53.033404038865285],[-8.667759976042078,53.03056183496068],[-8.679025437973564,53.02844310236725],[-8.695975307714264,53.0228620473456],[-8.713441942291809,53.01960643229097],[-8.71866126120824,53.01753937384302],[-8.725844285785172,53.012423407714095],[-8.732097134375238,53.00668732396082],[-8.734577603073944,53.00400014878778],[-8.73721310140354,53.000434475370696],[-8.743259242619956,52.99475006846086],[-8.746979945667988,52.99242462849378],[-8.76413652188296,52.98498322239777],[-8.77824418771911,52.976559964370836],[-8.790594855268353,52.97278758447942],[-8.80020667170055,52.9720124381235],[-8.811368780844589,52.972115790011685],[-8.819533657352395,52.97356273083534],[-8.826354945824107,52.9758881699031],[-8.833331264826029,52.97919546180111],[-8.838292202223386,52.978678696964266],[-8.84201290527136,52.97609487637743],[-8.845320197169372,52.9723741733294],[-8.851728075390383,52.96849843975116],[-8.857102423937704,52.96834341101959],[-8.862166714122566,52.969015203688684],[-8.87710120315802,52.97392446604124],[-8.881080287725126,52.97707672830836],[-8.883354050848766,52.98028066741887],[-8.885162725979,52.98353628247344],[-8.888521693821133,52.994440009199025],[-8.888935105870473,52.99764394830953],[-8.888780077138847,52.99955597622727],[-8.888211636357937,53.000847887420036],[-8.886868049221107,53.002553208863446],[-8.881286994199456,53.00761749904831],[-8.87880652460143,53.01056305574042],[-8.877721319882994,53.01381867079499],[-8.87865149586986,53.017125962693],[-8.880666876575106,53.020278224960066],[-8.883767462898106,53.02306875292061],[-8.886247930697436,53.0260659864561],[-8.888108282671112,53.02957998302975],[-8.888935105870473,53.033352362921164],[-8.888573370664517,53.03738312433171],[-8.887488165946081,53.04120718016719],[-8.886764696433602,53.04497956005861],[-8.886868049221107,53.04885529183821],[-8.888211636357937,53.052472642998055],[-8.890692105056587,53.05562490526512],[-8.894309455317114,53.05815704990789],[-9.00251990387045,53.095674140549136],[-9.009651251603998,53.09960154917212],[-9.012803513871063,53.102185369758956],[-9.015749070563174,53.10518260419383],[-9.018022833686814,53.107973131254994],[-9.019986538447995,53.111435451884574],[-9.021485155215771,53.11484609657009],[-9.02257035993415,53.11882518203652],[-9.02277706460984,53.12280426750294],[-9.022053595097361,53.12678335206999],[-9.01993486160461,53.13003896712462],[-9.017092657700005,53.13251943582327],[-9.008359341310552,53.13443146374101],[-9.005827195768461,53.13525828694037],[-9.003088344651417,53.13753205006401],[-9.00179643435797,53.1397024604002],[-9.001279670420445,53.14564524972849],[-9.003863491007337,53.14683380813369],[-9.004058397999927,53.1469234657249]]],[[[-9.662668423999946,53.275458075000074],[-9.638335740999935,53.25104401200008],[-9.658314581999946,53.23265208500004],[-9.692372199999909,53.22638580900008],[-9.710357225999928,53.23859284100007],[-9.713612433999913,53.253119208000044],[-9.71898352799991,53.26044342700004],[-9.720082160999937,53.266058661000045],[-9.710357225999928,53.275458075000074],[-9.698882615999935,53.28066640800006],[-9.684722459999932,53.282416083000044],[-9.671457485999952,53.28074778900003],[-9.662668423999946,53.275458075000074]]],[[[-9.64834550699993,53.10171133000006],[-9.645090298999946,53.10260651200008],[-9.64093990799995,53.101548570000034],[-9.64244544199994,53.093817450000074],[-9.660511847999942,53.09064362200007],[-9.778716600999928,53.123480536000045],[-9.811431443999936,53.137600002000056],[-9.801177537999934,53.146470445000034],[-9.777495897999927,53.14679596600007],[-9.75218665299991,53.13540273600006],[-9.740061001999948,53.135199286000045],[-9.715687628999945,53.13825104400007],[-9.696685350999928,53.13654205900008],[-9.671050584999932,53.130519924000055],[-9.663441535999937,53.12319570500006],[-9.672230597999942,53.11591217700004],[-9.671538865999935,53.10919830900008],[-9.64834550699993,53.10171133000006]]]]},"properties":{"adm1_code":"IRL-713","name":"Galway","name_alt":"Gaillimh","name_en":"Galway","adm0_a3":"IRL"}}