{"type":"Feature","geometry":{"type":"Polygon","coordinates":[[[-7.7284891417605195,52.955941067526226],[-7.718102178972401,52.94446889912035],[-7.711745977594774,52.93919790336054],[-7.7080252754461185,52.936820787449335],[-7.699033575738952,52.933203437188865],[-7.693297491985675,52.931808173208594],[-7.666580776181888,52.92906932209149],[-7.660689662797722,52.92782908774217],[-7.657382370899711,52.92555532551785],[-7.65655554859967,52.92204132804483],[-7.659759486810856,52.91801056573502],[-7.663583542646393,52.914909980311336],[-7.681153530011386,52.906951809378484],[-7.688853319425164,52.90250763591865],[-7.6917988752178985,52.89992381443244],[-7.702547573211916,52.887314765364124],[-7.705286424329017,52.88266388632928],[-7.707146776302693,52.87625600900759],[-7.708180304177688,52.86447378223926],[-7.712831183212529,52.85372508424524],[-7.712521124850014,52.8490742052104],[-7.709678920945464,52.84318309182618],[-7.699963751725761,52.833933009700615],[-7.693917608710706,52.8290237491467],[-7.685080938634428,52.82318431350524],[-7.678001267744321,52.812538967399405],[-7.668234421681234,52.77982778632327],[-7.657640754217425,52.76034577104048],[-7.65273149276419,52.753576158512885],[-7.62963212722093,52.7314586449005],[-7.647745618065812,52.715935237521194],[-7.647146658791257,52.69672431927188],[-7.636039445164272,52.67697816231231],[-7.642210119101719,52.65352960170975],[-7.698172082775386,52.599573711657456],[-7.774316290064746,52.57229936672235],[-7.841042949772316,52.55619293155854],[-7.8924366083628,52.55830850843091],[-7.9072835052296,52.56377841803953],[-7.921662615237494,52.52730025390355],[-7.925451418548107,52.52373086718575],[-7.930743312753691,52.522690520651],[-7.934925389595037,52.52383108673524],[-7.935971166236357,52.52841409303596],[-7.924913355067304,52.5623349863705],[-7.956457408582537,52.574659245327894],[-7.974590713290809,52.588020627649826],[-8.044172397638022,52.639291342621334],[-8.099571338046815,52.67622396926072],[-8.14112054357821,52.67622396926072],[-8.187427536851374,52.66536448828049],[-8.240499233253047,52.66314240200023],[-8.256208868644364,52.666811428204824],[-8.257604132624635,52.670635484040304],[-8.261014777310152,52.6756480982811],[-8.267629360206797,52.68097077088436],[-8.283390672441612,52.688205471405354],[-8.293312547236269,52.69042755768561],[-8.30163245337502,52.69078929289151],[-8.333361781620908,52.68298615248892],[-8.41805945527966,52.68314118122049],[-8.43785152802559,52.68536326840007],[-8.449685430738043,52.68789541304284],[-8.455369839446519,52.698282375830956],[-8.45661007289658,52.70200307887899],[-8.459400600857066,52.72096832932493],[-8.459917364794535,52.72298371003018],[-8.4612092759873,52.72608429635318],[-8.463328008580731,52.7357994664722],[-8.466790330109632,52.74194896137544],[-8.47697058822206,52.755074775280605],[-8.459503952745251,52.771456204240394],[-8.446584845314362,52.79352204011002],[-8.448961961225564,52.81687978807173],[-8.438936732744025,52.83419139301833],[-8.4384199688065,52.83956574246503],[-8.436249559369685,52.84473338543734],[-8.433562384196705,52.84871247000444],[-8.415268927319175,52.86545563417013],[-8.411031460333618,52.870726629930004],[-8.407724168435607,52.877289536882586],[-8.401109584639642,52.897701728152185],[-8.396975470441589,52.90385122305548],[-8.391549445050828,52.90746857421533],[-8.385606654823277,52.90783030942123],[-8.344368862033377,52.90664175101597],[-8.33842607270509,52.90757192610346],[-8.331811488909068,52.91087921800147],[-8.283649053960687,52.95118683480456],[-8.279308234187681,52.95676788982621],[-8.27791297020741,52.96178050406701],[-8.27966996939358,52.96508779596496],[-8.283080614079097,52.96761994150705],[-8.287059698646203,52.9696353222123],[-8.301374070956626,52.974957993916234],[-8.309435593777664,52.9801256368886],[-8.305198126792106,52.98978913016418],[-8.273210415228505,53.01862457946072],[-8.261066453254216,53.032835598084375],[-8.257810838199646,53.0406387402856],[-8.252849900802289,53.04528961932044],[-8.243909877938506,53.05097402623028],[-8.21662472225313,53.06394481140387],[-8.206444465040022,53.07050771745719],[-8.1983312653756,53.07882762269662],[-8.182104865147437,53.09743113883599],[-8.154096239050205,53.136550198133136],[-8.137508103616085,53.152828274305364],[-8.116889206771475,53.15954620998957],[-8.09409990138937,53.16280182594346],[-8.07652991402432,53.170398260771094],[-8.005113083901733,53.135878404564664],[-7.941189337617857,53.11768830047464],[-7.9362284002205,53.114691066939145],[-7.931887580447494,53.11060862958453],[-7.926926642150818,53.10254710586423],[-7.922069058440286,53.092728582957704],[-7.919846971260711,53.089472967903134],[-7.916281296944305,53.08306509148076],[-7.915867885794285,53.079654445895926],[-7.916488003418635,53.07738068277229],[-7.917986619287035,53.074796861286075],[-7.922275763115977,53.06890574790191],[-7.923981086358083,53.06544342727233],[-7.925272995752152,53.061722724224296],[-7.925996466164008,53.05764028597042],[-7.925428026282418,53.049372057574374],[-7.925686407801493,53.04544464805201],[-7.927701789406058,53.04213735615406],[-7.931370814711329,53.03986359303036],[-7.936848516945531,53.038571681837595],[-7.9486307437138635,53.03676300670736],[-7.953229945905264,53.035161038051456],[-7.956537237803275,53.03231883414685],[-7.95875932498285,53.029114895036344],[-7.960257940851307,53.02523916325674],[-7.960929735319041,53.02115672500281],[-7.960929735319041,53.01728099232389],[-7.960257940851307,53.01340526054429],[-7.958449265721072,53.009891262172005],[-7.956123826653311,53.00658397117331],[-7.951214565200019,53.00172638656346],[-7.948527390926358,52.99955597622727],[-7.946873745427013,52.99779897704116],[-7.945426804603358,52.99552521391746],[-7.945995246283587,52.99221792291877],[-7.948889126132258,52.990047512582635],[-7.954056769104625,52.98880727823325],[-7.959896205645407,52.98880727823325],[-7.97880978014723,52.99071930615105],[-7.984287482381433,52.98994415979513],[-7.988731654941944,52.98834219023985],[-7.992038946839955,52.98570669191025],[-7.994106004388584,52.982709459274076],[-7.994467738695221,52.9789887562261],[-7.99327918118928,52.975578111540585],[-7.990695359703068,52.9727359085353],[-7.975192429886761,52.9616771512795],[-7.971420049995345,52.95795644823147],[-7.968887905352574,52.954184068340055],[-7.968267787728223,52.95025665971707],[-7.969249639659154,52.94663930945654],[-7.9710583147893885,52.94322866477103],[-7.973332077913085,52.94043813681054],[-7.977414517066336,52.93671743376251],[-7.983770718443907,52.932273261202],[-7.991522182902429,52.928139147004],[-7.9957079739438655,52.92674388302373],[-7.999893764985302,52.92612376629876],[-8.004131231970803,52.92612376629876],[-8.009195522155608,52.92689891175536],[-8.024491746396961,52.9315497907902],[-8.02971106621277,52.93247996677701],[-8.03565385644032,52.93289337792703],[-8.040201381788336,52.9315497907902],[-8.042888556061996,52.92901764614743],[-8.042991908849501,52.92576203109286],[-8.041493292981102,52.92286815034481],[-8.039167853014021,52.920284328858656],[-8.03275997569233,52.914703273837006],[-8.030434535725249,52.911395981938995],[-8.029556036581823,52.90757192610346],[-8.03048621256869,52.90013052000745],[-8.029969447731844,52.896616523433806],[-8.027747362350908,52.893515937110806],[-8.024491746396961,52.89051870447463],[-8.02004757293713,52.88772817651409],[-8.013794725246385,52.88488597350886],[-7.99482947390112,52.88054515193721],[-7.991263799584715,52.878633124019416],[-7.9885766262103175,52.875739244170745],[-7.987233039073487,52.871915188335265],[-7.986716274236699,52.86829783807474],[-7.984597540743891,52.86349193030833],[-7.978499721784715,52.854758613019555],[-7.97343543070059,52.85310496752021],[-7.965683966242068,52.85310496752021],[-7.9531782699611995,52.86095978476624],[-7.948217331664523,52.86633413421288],[-7.9461502750152135,52.87139842439774],[-7.951886358768434,52.88555776617795],[-7.951317917987524,52.88834829413844],[-7.9486307437138635,52.88984691000684],[-7.943463100741496,52.888296617295],[-7.934781460296165,52.88287059190429],[-7.931370814711329,52.881165270460826],[-7.926306525425844,52.88111359271812],[-7.920001999992337,52.883077298378566],[-7.903362188614096,52.89682322900876],[-7.890029670033243,52.90509145830413],[-7.856956752851886,52.92173126878299],[-7.855199753665715,52.92333323833827],[-7.850342169955184,52.928552558154024],[-7.8482234355631135,52.93134308521519],[-7.847293259576304,52.93459870116908],[-7.848481817981508,52.93769928749208],[-7.851324021886114,52.94023143213485],[-7.8541662257907205,52.94229848878422],[-7.855509812927551,52.94384878239538],[-7.85395952021571,52.94632925109403],[-7.848171758719673,52.949533189305214],[-7.834942592926325,52.95408071645187],[-7.822746955007972,52.96069529934857],[-7.813135137676454,52.96917023421889],[-7.794634976123234,52.970152086149824],[-7.7284891417605195,52.955941067526226]]]},"properties":{"adm1_code":"IRL-724","name":"North Tipperary","name_alt":"Tiobraid Árann","name_en":"Tipperary","adm0_a3":"IRL"}}