{"type":"Feature","geometry":{"type":"Polygon","coordinates":[[[25.503922960975842,56.99481879744951],[25.48819135874419,56.99445425096286],[25.47263675298376,56.9890282255721],[25.46876102120416,56.988356432003684],[25.446901890010224,56.99158620953591],[25.44736697800363,56.98192271626033],[25.450157505064794,56.97742686595706],[25.452637973763444,56.96962372555447],[25.426696405214898,56.948668931925624],[25.395845575213116,56.93730011720663],[25.37222944483301,56.94143423140463],[25.37160932810798,56.94804881520065],[25.37026574097115,56.952983914176286],[25.36716515464815,56.95957265955059],[25.361687453313323,56.966833198493305],[25.354556104680455,56.97362864854324],[25.343704053898932,56.97742686595706],[25.327425977726648,56.97724599880377],[25.28412112828744,56.96481781688868],[25.274819370217756,56.9585391298769],[25.261796909100042,56.95285472296706],[25.25699100133363,56.94722199200129],[25.24732750805805,56.94267446575395],[25.246707391333018,56.93962555627439],[25.248412712776428,56.937145087575686],[25.251668328730375,56.93487132445205],[25.23399498857782,56.93430288457046],[25.142579380134293,56.950787665418375],[25.13808352983102,56.98006236428665],[25.147540316632274,56.989389959878736],[25.16728560214881,56.99867090583763],[25.168851279562887,57.01432768087773],[25.150063149694574,57.03311581074604],[25.13284069724034,57.05190394061435],[25.168851279562887,57.06756071475513],[25.13753772948263,57.0894801994516],[25.112486889958006,57.10983400673399],[25.13753772948263,57.11139968414807],[25.17354831180512,57.11766239380438],[25.19546779650159,57.13331916884454],[25.212690248955823,57.14584458905654],[25.189205086845277,57.163067040611395],[25.178245344047355,57.18185517047971],[25.171982634391043,57.20690601000433],[25.1594572141791,57.22725981728672],[25.13910340779603,57.233522526943034],[25.10465850288756,57.233522526943034],[25.090567405261538,57.24761362456911],[25.131275019826262,57.26640175443737],[25.16571992473473,57.26327039960921],[25.206427538400135,57.26483607702329],[25.23147837792476,57.28518988340636],[25.23147837792476,57.29614962620428],[25.287842767529696,57.28049285116413],[25.319156316710632,57.25857336646766],[25.317590639296554,57.231956849528956],[25.359863931275413,57.231956849528956],[25.36925799575988,57.219431430216275],[25.364560963517647,57.205340332590254],[25.380217738557747,57.18811788013602],[25.41153128773874,57.18655220272194],[25.444410514333754,57.17089542858116],[25.458501611959832,57.15680433095508],[25.4960778716964,57.15210729871285],[25.50860329100908,57.15680433095508],[25.53208845311957,57.15680433095508],[25.563402002300563,57.147410266470615],[25.541482518503415,57.12235942694599],[25.56496768061396,57.112965361562146],[25.59471555238082,57.10983400673399],[25.618200714491365,57.08008613496713],[25.616635037077288,57.065995037341054],[25.58688716441111,57.050338262300954],[25.547745228159727,57.020590390534096],[25.528957098291414,57.020590390534096],[25.507037613594946,57.036247165574196],[25.492946516868244,57.02685310108973],[25.51016896842316,57.008064971221415],[25.50399548410428,56.994820478282406],[25.503922960975842,56.99481879744951]]]},"properties":{"adm1_code":"LVA-5781","name":"Amatas","name_alt":"Wolmar","name_en":"Valmiera","adm0_a3":"LVA"}}