{"type":"Feature","geometry":{"type":"Polygon","coordinates":[[[25.079585808937907,57.50021149386532],[25.09777591302793,57.48796417910353],[25.123045688907382,57.49494049720613],[25.140874057791507,57.475019233250976],[25.14056399942899,57.46176422813659],[25.159684278606562,57.448250841503125],[25.184643996123498,57.430086574935444],[25.196891309985972,57.4218441840618],[25.21074059430299,57.416650703567086],[25.238180779619256,57.41504873311254],[25.27280398861319,57.4049201518435],[25.301174350815643,57.40367991839349],[25.322775098691807,57.40548859352373],[25.328976271337808,57.40344737439676],[25.33486738472203,57.39732371701592],[25.348975050558124,57.388900458089665],[25.35734663264094,57.38507640225413],[25.38685387460663,57.38605825508438],[25.37708638372959,57.36973646736408],[25.3567325764472,57.35721104715208],[25.319156316710632,57.355645369738],[25.286277090115618,57.36034240287955],[25.245569475550838,57.34781698266761],[25.23147837792476,57.330594530213375],[25.23147837792476,57.29614962620428],[25.23147837792476,57.28518988340636],[25.206427538400135,57.26483607702329],[25.16571992473473,57.26327039960921],[25.131275019826262,57.26640175443737],[25.090567405261538,57.24761362456911],[25.048294114182,57.24135091491274],[24.980969982678516,57.23821955918527],[24.933134800230846,57.24622182927396],[24.939646030339986,57.25797821672131],[24.942126499038693,57.26751251878767],[24.935770297661065,57.27826121678169],[24.91509972487239,57.28937164998166],[24.898046502344187,57.30260081577501],[24.888744745173824,57.30921540047035],[24.889364861898855,57.312212633106526],[24.900216912680378,57.31893056879068],[24.902852411009917,57.32311635983211],[24.90331749810406,57.32771556292289],[24.880993279815982,57.337224026567526],[24.878822870379167,57.34293427189908],[24.87076134575949,57.350556546047756],[24.854276564012196,57.372725734704886],[24.83164228736166,57.39551504188563],[24.799964634160517,57.411431382852015],[24.799499546167112,57.41711578976185],[24.812677036016396,57.41902781857891],[24.84668012918462,57.412206529207936],[24.875877312787736,57.41303335240724],[24.88688439320015,57.42088817055259],[24.980315383248296,57.452875882116246],[24.98884199406274,57.46129914014318],[25.00294965989889,57.467500311889864],[25.01256147633103,57.47610443796941],[25.045634392613124,57.48279653613122],[25.05323082923934,57.49183991178245],[25.06191246878541,57.4982219515818],[25.079585808937907,57.50021149386532]]]},"properties":{"adm1_code":"LVA-5793","name":"Pargaujas","name_alt":"Wolmar","name_en":"Valmiera","adm0_a3":"LVA"}}