{"type":"Feature","geometry":{"type":"Polygon","coordinates":[[[25.63072613380399,57.62024486350964],[25.66360536129838,57.618679186095505],[25.694918910479316,57.61554783036803],[25.707444330691317,57.603022411055406],[25.724666782246175,57.58893131342933],[25.710575685519473,57.576405894116704],[25.729363815387728,57.57014318446039],[25.752848977498275,57.57014318446039],[25.78259684926519,57.55292073200616],[25.771637106467267,57.54822369976392],[25.73406084763002,57.546658022349845],[25.743454912114487,57.534132602137845],[25.779006690006725,57.52979719988082],[25.809213366203892,57.537263956966],[25.821738785516516,57.52473853765338],[25.77633413960882,57.49968769812875],[25.718404072589863,57.49655634240128],[25.680117629025347,57.47959259702071],[25.67577680835302,57.472719631705615],[25.657948438569576,57.464606432041194],[25.602396275267893,57.468637193451684],[25.561106804735232,57.45101553014257],[25.547619255624113,57.44155874334132],[25.526793654103813,57.438199775499186],[25.519352248007806,57.44124868407948],[25.50943037321315,57.44701060715374],[25.500438674405302,57.450137030999144],[25.474497104957436,57.44254059527225],[25.4209603205623,57.447449855826164],[25.39879113100585,57.44124868407948],[25.392743157870427,57.465242793220284],[25.37865206114367,57.484030923088596],[25.37708638372959,57.50908176261322],[25.395874512698583,57.50908176261322],[25.431885095021073,57.505950407785065],[25.452238902303463,57.51534447226953],[25.456935934545697,57.537263956966],[25.480421096656244,57.54822369976392],[25.507037613594946,57.56701182873286],[25.53678548536186,57.58423428118709],[25.569664712856195,57.59206266825748],[25.591234165224535,57.61410635022787],[25.63072613380399,57.62024486350964]]]},"properties":{"adm1_code":"LVA-5783","name":"Beverinas","name_alt":"Wolmar","name_en":"Valmiera","adm0_a3":"LVA"}}