{"type":"Feature","geometry":{"type":"Polygon","coordinates":[[[46.8830094736083,-17.722122083567285],[46.891070998227974,-17.72248381877324],[46.897427198706225,-17.731578871267914],[46.90786583833773,-17.76330820131244],[46.91019127830481,-17.77405689930646],[46.90988121904297,-17.785322361238002],[46.90600548726343,-17.806199639601687],[46.91019127830481,-17.814674573572745],[46.921508417079735,-17.81937712945097],[46.973959994957795,-17.819842217444375],[47.00217532662998,-17.82340789176078],[47.02331098831144,-17.829919121869978],[47.033077834374524,-17.837773940015325],[47.04548017786789,-17.851984958638923],[47.05462690630668,-17.849039401946868],[47.060673049321736,-17.84175302458243],[47.071266716785544,-17.823097832499002],[47.0773128598006,-17.815191339308853],[47.09297081924791,-17.802478935654335],[47.10227257731759,-17.797259616737904],[47.11296959756885,-17.7936939424215],[47.15100345214756,-17.788681329080077],[47.16139041493568,-17.784960626032046],[47.194773389580234,-17.76113779097625],[47.20609052925448,-17.7555567359546],[47.22112837107744,-17.751422620857284],[47.24675988126347,-17.749097181789523],[47.26970421717584,-17.749303888263853],[47.295955844986224,-17.753593031193418],[47.338743931387285,-17.767493991454558],[47.358019240195745,-17.7763823374749],[47.36778608625883,-17.784030450045236],[47.367476026997,-17.792247002497163],[47.36794111499046,-17.80046355584841],[47.36964643733319,-17.810850517737208],[47.377087844328514,-17.83053923859501],[47.38313398644431,-17.838497409527804],[47.39088545090283,-17.844905286849496],[47.420082635405265,-17.85885792395402],[47.42860924711903,-17.865007419756637],[47.435120477228224,-17.872707208271038],[47.44008141462558,-17.8820089654414],[47.44876305507091,-17.8912590466677],[47.464421013618846,-17.898080336038674],[47.492532993402904,-17.90572844770969],[47.53506269738557,-17.911619561093858],[47.56870405534784,-17.906813652428127],[47.582553337866216,-17.91146453146297],[47.58952965686814,-17.91973276075828],[47.60115685400558,-17.939163100097005],[47.61061364080683,-17.94732797570549],[47.634953240699474,-17.949911798091023],[47.674072299996624,-17.948051446117347],[47.817474400123444,-17.922574964662886],[47.84661990688318,-17.912394707449778],[47.90279218870853,-17.900250745475546],[47.90697797974997,-17.921644788676076],[47.90899336135453,-17.926605726972753],[47.9121456236216,-17.932341810725973],[47.916176385032145,-17.935442397048973],[47.92997399340504,-17.94334889113844],[47.93400475391621,-17.94639779971868],[47.94284142399249,-17.951823826008763],[47.958189325077285,-17.95812834964363],[47.962840204112126,-17.960763848872546],[47.96640587662989,-17.964071139871237],[47.96909305180287,-17.96836028370012],[47.97074669820154,-17.973682957202698],[47.974364047562744,-18.01786630578539],[47.976069369905474,-18.02329233207547],[47.9835107769008,-18.03677988028727],[47.986921420687,-18.047321872706277],[47.99172732935273,-18.070007826200197],[47.995758090763275,-18.07977467226334],[48.00164920414744,-18.089489840583667],[48.00273440886588,-18.09419239646195],[48.00257938013425,-18.100496920996136],[47.998858677086275,-18.109488620703303],[47.996533238018515,-18.118945407504555],[47.99482791477641,-18.130055840704472],[47.99560306203165,-18.149744560662953],[47.99870364835465,-18.167107842452992],[47.999788853073085,-18.170156751932552],[48.0000989114356,-18.172275485425303],[47.99792850109941,-18.234028823171684],[47.999013705817845,-18.242865491449265],[48.001959263409276,-18.249376722457782],[48.017307162695374,-18.275059909487254],[48.018857456306534,-18.28250131558326],[48.018857456306534,-18.31004485368703],[48.019787632293344,-18.319760023806055],[48.02164798426702,-18.326891370640226],[48.02976118303212,-18.33986215581382],[48.0320866229992,-18.34456471079278],[48.03348188697947,-18.349784030608532],[48.03363691571104,-18.35645029124794],[48.032551710992664,-18.36347828529466],[48.02769412638281,-18.372108249795872],[48.023663364072945,-18.377327568712303],[48.00738528790072,-18.390815117823422],[48.00180423377833,-18.398204847975364],[48.0000989114356,-18.401305434298365],[47.998858677086275,-18.406938165264137],[47.997463413106004,-18.415774834441038],[47.998393589092814,-18.451689954627682],[47.99017703574157,-18.535405775456184],[47.99110721172843,-18.54806650226726],[47.99033206627183,-18.56093393285471],[47.986301303961966,-18.578400566532935],[47.95291832931741,-18.669402764725817],[47.940205925662895,-18.736065362126737],[47.942531365629975,-18.813166599159217],[47.94594201031549,-18.83729949257753],[47.95338341731082,-18.864791354737235],[47.95400353403585,-18.870837497752348],[47.95121300607536,-18.9045822076028],[47.9519881533306,-18.927216485152655],[47.9488875670076,-18.975327244156972],[47.94733727429576,-18.98530079489575],[47.943151483254326,-18.99496428817139],[47.939120720944516,-19.00225066463645],[47.93400475391621,-19.009382013269317],[47.93167931484845,-19.01501474423509],[47.93043908139845,-19.021991061438314],[47.93028405086824,-19.034548434562623],[47.92888878778729,-19.044573663044105],[47.924237908752445,-19.057492770474994],[47.90744306774337,-19.089480482937915],[47.90604780466242,-19.096405125096453],[47.90558271666902,-19.104518323861555],[47.907288039011746,-19.118005872972674],[47.90945844934794,-19.1258090151739],[47.941911248905,-19.18637379271638],[47.94361657124773,-19.191438083800506],[47.94423668797276,-19.19965463625249],[47.942531365629975,-19.22895517264311],[47.943151483254326,-19.238825371493704],[47.9445467472346,-19.246370131276535],[47.95028283098782,-19.261563001831064],[47.95059288935033,-19.296702975661788],[47.95322838678061,-19.316391696519588],[47.95291832931741,-19.329052422431346],[47.94594201031549,-19.394371432695493],[47.94284142399249,-19.409460950462517],[47.94036095619316,-19.416747327826897],[47.93648522261492,-19.424808851547255],[47.919432000986035,-19.45002695058332],[47.90589277503153,-19.465064793305544],[47.90294721923874,-19.469974053859517],[47.90124189599669,-19.476640312700283],[47.900001661647366,-19.48914600988047],[47.89736616421709,-19.49989470787449],[47.89038984611449,-19.514105726498087],[47.876592237741534,-19.536378268842043],[47.87442182830472,-19.54288949985056],[47.87271650596193,-19.551261081933376],[47.87256147633104,-19.575032240145788],[47.87535200429153,-19.594307549853568],[47.739744218620785,-19.49395563634357],[47.564359076210394,-19.418790574925083],[47.564359076210394,-19.29351547346033],[47.589414096683186,-19.155712861759184],[47.47666650545483,-19.155712861759184],[47.42655646450919,-18.99285522958519],[47.31942793095425,-18.82114023213603],[47.30624433650689,-18.792168878191205],[47.27784264372298,-18.78175221169522],[47.246836784989625,-18.762058201025184],[47.176849805873815,-18.747735284255953],[47.130625847005206,-18.736667576047807],[47.111827018801876,-18.71135833162174],[47.07089277418214,-18.69044361807852],[47.03923587373657,-18.646335544549743],[47.026377800595014,-18.599541925419544],[46.992279493503816,-18.571140232635628],[46.97502688858003,-18.540948174918356],[46.944021029846624,-18.40170663895026],[46.84312869573267,-18.30838326177809],[46.710217636934374,-18.13422394298061],[46.623137977535634,-17.914233224783516],[46.590830925706655,-17.744756362016517],[46.657080112856875,-17.74000213019417],[46.716818068099315,-17.725222669890286],[46.73232099791568,-17.723517347547556],[46.753301629066925,-17.72460255316531],[46.7902502789272,-17.731268812905398],[46.831488070817784,-17.73343922324159],[46.844820591197276,-17.73070037212449],[46.8606852562196,-17.722948906766646],[46.873087598813584,-17.723517347547556],[46.8830094736083,-17.722122083567285]]]},"properties":{"adm1_code":"MDG-5862","name":"Analamanga","name_alt":"Tananarive","name_en":"Antananarivo","adm0_a3":"MDG"}}