{"type":"Feature","geometry":{"type":"Polygon","coordinates":[[[14.52489607063391,35.89803495385643],[14.548024935702188,35.8900414079846],[14.54120146187796,35.886001230672264],[14.540018037702282,35.882746814413906],[14.533213348916888,35.882746814413906],[14.529367220121117,35.88156339023823],[14.529013050911544,35.888958991164486],[14.524784943170573,35.89043882828929],[14.519452577674315,35.8942542578277],[14.52489607063391,35.89803495385643]]]},"properties":{"adm1_code":"MLT-5950","name":"Kalkara","name_alt":"","name_en":"Kalkara","adm0_a3":"MLT"}}