{"type":"Feature","geometry":{"type":"Polygon","coordinates":[[[14.484101243377665,35.87594212562857],[14.479071691305478,35.88185924650702],[14.480672793914266,35.884426766881745],[14.486629607270572,35.88636273115509],[14.490948296526653,35.88591597044564],[14.496160507201637,35.88829869542843],[14.49809647147498,35.88606489098191],[14.496607268810408,35.884426766881745],[14.492089357238058,35.882155102775755],[14.490018365155436,35.875646269359834],[14.484101243377665,35.87594212562857]]]},"properties":{"adm1_code":"MLT-5944","name":"Ħamrun","name_alt":"Hamrun","name_en":"Ħamrun","adm0_a3":"MLT"}}