{"type":"Feature","geometry":{"type":"Polygon","coordinates":[[[34.01273482200014,-9.477456562999905],[34.04746138500008,-9.489962259999913],[34.0784906880001,-9.510185830999973],[34.07981083200008,-9.511046243999928],[34.08931929600004,-9.522208353999872],[34.10316857900011,-9.529856465999941],[34.13706831800005,-9.570577493999906],[34.14461307800008,-9.574918313999888],[34.161873006000064,-9.593625182999872],[34.190811808000035,-9.606750996999935],[34.288066853000146,-9.70845021599996],[34.31793583100006,-9.719198912999985],[34.324240356000075,-9.732428079999892],[34.32672082600004,-9.750308125999936],[34.33168176300012,-9.769221699999974],[34.337469523000095,-9.77717986999994],[34.359690389000036,-9.799917500999925],[34.36423791500005,-9.802397968999898],[34.38232466700009,-9.819657897999889],[34.38346154800007,-9.823792012999917],[34.48330041500009,-9.946161803999956],[34.49466923000011,-9.966729023999946],[34.52474491400005,-10.00879363999988],[34.53642378700005,-10.043003437999872],[34.5377673750001,-10.053855488999915],[34.53570031800007,-10.06532765699994],[34.52681197100014,-10.084861347999947],[34.52474491400005,-10.094783222999936],[34.532393026000136,-10.128889668999904],[34.565569296000035,-10.202683613999866],[34.57507775900007,-10.255806985999897],[34.58344934000013,-10.277614440999912],[34.58561975100008,-10.290016783999889],[34.58530969200012,-10.300662128999889],[34.565052531000106,-10.40980275499993],[34.56949670400013,-10.431403503999903],[34.58872033700004,-10.463132832999918],[34.59295780400009,-10.481736347999885],[34.59078739500012,-10.491244811999962],[34.58148563700007,-10.513672383999946],[34.57941857900005,-10.526488137999934],[34.58008816293835,-10.531844811588769],[34.58107222500007,-10.539717304999925],[34.585723104000124,-10.553566588999985],[34.592337687000054,-10.566692402999962],[34.60039921100014,-10.578061217999945],[34.60887414600012,-10.581988626999916],[34.61755578600008,-10.581471862999877],[34.62085892300007,-10.582422765999866],[34.61647138834388,-10.583229668514377],[34.18435306184432,-10.584883314913043],[34.17127892388322,-10.582919610151919],[34.14941979268929,-10.575891615205876],[34.14027306514981,-10.575478204055855],[34.130661248717615,-10.577803643123616],[34.11825890522425,-10.582092786952558],[34.11154096864078,-10.582557874945962],[34.09014692633957,-10.5694320610408],[33.94845014765616,-10.451971531261165],[33.720195346937714,-10.100210055949333],[33.70887820816273,-10.077214044092841],[33.701281773335154,-10.06739552208569],[33.69415042470234,-10.064863376543599],[33.658131951728194,-10.06837737401662],[33.63534264544671,-10.06853240274819],[33.62588585774614,-10.065121758961993],[33.61327680777845,-10.057887057541677],[33.57917036272204,-10.029568373081986],[33.57126386863263,-10.024710788472134],[33.56723310722208,-10.02383228842939],[33.55374555811102,-10.022437026247758],[33.542996860117,-10.020421644643193],[33.5321448102348,-10.014530531259027],[33.52470340323947,-10.00729583073803],[33.51664188041843,-9.995358575238072],[33.51168094302108,-9.989467461853906],[33.50501468328099,-9.984454847613108],[33.49772830591655,-9.980682467721692],[33.48573937357321,-9.972310885638876],[33.48108849543769,-9.965127861961264],[33.479073113833124,-9.956962985453401],[33.4796932305581,-9.94445728917259],[33.481553583431094,-9.940839938912063],[33.48573937357321,-9.937946059063393],[33.51121585502767,-9.930039564973924],[33.559429965920174,-9.899963880428743],[33.56459760889254,-9.895364679136662],[33.570643751907596,-9.88683806652358],[33.57405439569379,-9.883324069949879],[33.58692182807988,-9.880946954038677],[33.59498335090092,-9.878156426977512],[33.60831587128041,-9.866477552996685],[33.61503380696462,-9.858416030175647],[33.621700066704705,-9.84828744890666],[33.63069176641187,-9.82839202157453],[33.63425743982896,-9.82343108507655],[33.644799432247964,-9.815421238199576],[33.65751183410384,-9.802398777081919],[33.66402306511236,-9.796817722060212],[33.66991417759721,-9.793200371799742],[33.677407261435974,-9.79102996146355],[33.69446048396412,-9.7877743473083],[33.69833621574372,-9.781779880237309],[33.69895633336807,-9.771082859086675],[33.69229007272867,-9.753977959715087],[33.690119663291796,-9.743849378446043],[33.6887244002109,-9.725039157631045],[33.684538609169465,-9.715582370829736],[33.67787234942938,-9.704213556110744],[33.67477176310638,-9.695170179560137],[33.67415164638135,-9.68788380309502],[33.67709720217414,-9.67057219814842],[33.67771731889911,-9.659358412160998],[33.673531527857676,-9.650831800447236],[33.669500767346506,-9.646232599155155],[33.65013541391818,-9.610901131781816],[33.65063806100005,-9.610988463999888],[33.67606286600005,-9.607681171999985],[33.702521199000046,-9.592901712999975],[33.73461226400008,-9.584116719999898],[33.762000773000125,-9.60096323599987],[33.787528930000065,-9.626491393999899],[33.81347050000011,-9.643337910999975],[33.83693160000007,-9.652846373999864],[33.86525028500006,-9.669589538999915],[33.88933150200012,-9.68974334699989],[33.90018355300009,-9.709587096999883],[33.91186242600014,-9.717958678999949],[33.92829553200011,-9.700285338999947],[33.92829553200011,-9.693464050999907],[33.94307499200005,-9.683852233999886],[33.95134322100006,-9.67362029999991],[33.95485721800014,-9.660597838999962],[33.955580689000044,-9.642304381999907],[33.962608684000145,-9.6121253459999],[33.964469035000036,-9.594658711999955],[33.94586551900011,-9.550010273999916],[33.96074833200004,-9.524895527999902],[33.98431278500004,-9.505568542999939],[33.99650842300014,-9.491822610999918],[34.01273482200014,-9.477456562999905]]]},"properties":{"adm1_code":"MWI-1194","name":"Chitipa","name_alt":"","name_en":"Chitipa","adm0_a3":"MWI"}}