{"type":"Feature","geometry":{"type":"Polygon","coordinates":[[[123.93443456508481,10.309298638739113],[123.90626061300009,10.294501044000071],[123.88965905000009,10.28221263200004],[123.86866295673008,10.248195704867896],[123.84760229221195,10.310714147140175],[123.83716409324825,10.353510764510133],[123.8726539708041,10.408833220276904],[123.90710002774404,10.435972538301996],[123.9351568898785,10.401065799147318],[123.91440676755826,10.346204024695965],[123.93443456508481,10.309298638739113]]]},"properties":{"adm1_code":"PHL-5522","name":"Cebu","name_alt":"","name_en":"Cebu","adm0_a3":"PHL"}}