{"type":"Feature","geometry":{"type":"Polygon","coordinates":[[[87.81632409700006,49.16583730100008],[87.71638187700012,49.158860982000064],[87.52528243000006,49.11979360000005],[87.51401696800008,49.11963857000002],[87.50605879700004,49.12087880500006],[87.50006433100003,49.11917348200008],[87.49158939600011,49.103205465000045],[87.48714522300003,49.09695261700004],[87.48177087400006,49.09162994400002],[87.47556970200009,49.08759918300011],[87.43836267100005,49.074680074000085],[87.40043217000004,49.0710110480001],[87.36229496300007,49.075093485000096],[87.32379602100013,49.08527374300009],[87.30818973800007,49.113850810000045],[87.28767419400003,49.18433746400008],[87.27175785300011,49.20511138900004],[87.21796268700007,49.22981272400004],[87.19031579700004,49.237822571000024],[87.16044681800014,49.24200836200008],[87.0760075280001,49.23689239500008],[87.05037601700013,49.23890777600012],[87.03663008600012,49.242731832000075],[87.02453780100012,49.24893300400005],[87.01714807100012,49.25864817400007],[87.01688969000003,49.272755840000016],[87.01254886900006,49.28071401000007],[87.0001465250001,49.28908559200006],[86.93332889800013,49.324277242000036],[86.91302006100011,49.33869496700005],[86.90506189000007,49.35192413400004],[86.91565555800014,49.369959209000044],[86.93079675300004,49.38055287700011],[86.93307051600004,49.39011301700002],[86.90547530100008,49.404685771000075],[86.8544189860001,49.42127390600008],[86.82899418200009,49.43331451500005],[86.81400801600012,49.45000600200008],[86.81426639800009,49.47295033800002],[86.82289636300004,49.492794088000025],[86.82434330300003,49.509227194000076],[86.80243249500006,49.52224965500001],[86.73256595900006,49.55067169200002],[86.70951827000005,49.55449574900008],[86.66414636200011,49.54741607700005],[86.64254561400003,49.54746775400007],[86.61856774900008,49.55795806900001],[86.59934411600011,49.57351267500003],[86.59179935700013,49.58720693000005],[86.59598514800007,49.601883036000046],[86.61112634300008,49.62022817000003],[86.64709314000004,49.653662822000015],[86.66771203700006,49.6642564910001],[86.71613285300003,49.66678863500009],[86.73649336800014,49.67190460300007],[86.75561364800006,49.68151641900009],[86.77587080900014,49.69500396800005],[86.75147953300012,49.71169545500008],[86.74052413000004,49.722754212],[86.73763024900006,49.73500152600012],[86.74341801000003,49.744716696000054],[86.7525647380001,49.756033834000036],[86.75959273300003,49.76771270800002],[86.75892094000005,49.778616435000075],[86.7483789470001,49.782957255000056],[86.7308089600001,49.78254384400013],[86.70021651200011,49.77773793600004],[86.68492028800006,49.778203024000064],[86.6424422610001,49.793860983000016],[86.61019616700014,49.79551462800005],[86.59536503100003,49.78089019800008],[86.58492639200006,49.76006459600002],[86.5651343180001,49.74270131500002],[86.5582096760001,49.74146108100008],[86.5522152100001,49.74233958000009],[86.54560062700006,49.742649638],[86.53743575000004,49.73944569900003],[86.52441328900005,49.729523824000026],[86.51971073400006,49.726836650000095],[86.47273685700009,49.70833648800006],[86.47966149900009,49.69727773000007],[86.48296879100008,49.68627065100007],[86.48178023300005,49.676917217000025],[86.47547570800003,49.67081939700007],[86.45826745600004,49.66565175400008],[86.39181156400008,49.624982402000015],[86.32948978700006,49.61025461800001],[86.27212894700006,49.58364125600009],[86.24639408400009,49.55005157500007],[86.21425134300006,49.496153057000114],[86.17725101700012,49.463338522000086],[86.1366850180001,49.493000794000054],[86.11151859600005,49.520182597000044],[86.0704875080001,49.52628041600009],[86.02754439300003,49.51563507100012],[85.99597009300004,49.492794088000025],[85.99581506300012,49.492794088000025],[85.98005375200012,49.48287221300011],[85.96300052900011,49.47858306900004],[85.94625736500012,49.4813735960001],[85.93142622900012,49.492845765000126],[85.93189131700012,49.51005401700009],[85.94212325000012,49.55108510400005],[85.94057295700009,49.55961171500006],[85.89985192900014,49.564055888000055],[85.88073164900004,49.56328074200006],[85.8607845460001,49.557492981000095],[85.82750492300005,49.54100820000009],[85.80921146700013,49.53651235000008],[85.79443200700007,49.54183502300005],[85.77954919500013,49.5560460410001],[85.76471805900013,49.56684641500003],[85.7474064540001,49.57299591100009],[85.72575402800004,49.57304758700012],[85.69004561400004,49.56291900700005],[85.67330244900006,49.56043853800007],[85.65619755100005,49.56493438700001],[85.64229659100005,49.57749176100002],[85.62844730600011,49.6064822390001],[85.61485640400008,49.61712758400007],[85.59718306500008,49.619297994000064],[85.58080163600005,49.613355205000076],[85.5492790130001,49.59526845300006],[85.5312956140001,49.58911895800007],[85.5132088630001,49.585346579000046],[85.47569177300011,49.58307281600004],[85.45099043800008,49.5884471640001],[85.4072721760001,49.60963450200005],[85.38401778200006,49.61568064400008],[85.3642257090001,49.61413035100007],[85.3420565190001,49.608187562000055],[85.3203524170001,49.599454245000075],[85.3027824300001,49.590100811000056],[85.26309493000014,49.581522522000014],[85.2236141360001,49.59573354100009],[85.19503706900014,49.625654195000024],[85.18511519400005,49.70502919600007],[85.16325606300006,49.73396799800004],[85.0981437580001,49.78218210900003],[85.08171065300013,49.80001047800009],[85.07592289200005,49.81391143900005],[85.07075524900006,49.85023997000003],[85.05628584800013,49.873339336000086],[85.03261804200008,49.88496653300005],[84.97577396700007,49.89400990800003],[84.95458662900012,49.906929017000024],[84.95065922000003,49.93328399700009],[84.95479333600014,49.99048980800005],[84.96218306500003,49.99188507100011],[84.96461185800013,49.992763570000065],[84.96471521000007,49.992763570000065],[85.00936364800009,49.99782786100003],[85.02543501800005,50.004080709000036],[85.02832889800004,50.020513815000086],[85.02011234600008,50.03307118800011],[84.98672937000003,50.066970927000014],[84.97577396700007,50.075187480000054],[84.91024825100004,50.09508290600006],[84.8879757090001,50.0967365530001],[84.87376468900004,50.09244740900003],[84.85588464400007,50.08485097300006],[84.83867639200008,50.08082021100007],[84.82611901900009,50.08671132400006],[84.8015210370001,50.12376332700005],[84.79066898600007,50.132755026],[84.77320235200011,50.13833608100002],[84.73811405400005,50.1353905240001],[84.72028568500014,50.13663075800004],[84.68938317800013,50.151048482000064],[84.66669722500006,50.17001373300012],[84.64199589100008,50.18489654600005],[84.60597741700008,50.18742869100005],[84.5692871500001,50.18551666300003],[84.53569746900007,50.190942688000106],[84.50458825700014,50.2045852670001],[84.4757528080001,50.22706451500001],[84.44076786300008,50.24463450100008],[84.40526615400006,50.230836894000035],[84.36878259300005,50.21181996700007],[84.33136885600004,50.21347361300012],[84.32434086100005,50.219623109000096],[84.31214522400006,50.23636627200004],[84.30439375800012,50.243239238000015],[84.29157800400003,50.248045146000024],[84.26181237800006,50.25362620100013],[84.24997847600014,50.259930725000046],[84.23964318900005,50.2782241820001],[84.23948815900008,50.299308167000035],[84.24186527500007,50.321890768000074],[84.23938480600009,50.34462839800007],[84.21840417500005,50.37770131400005],[84.19184248900007,50.40772532200002],[84.17675297000005,50.43914459300005],[84.19794030800011,50.493146464000105],[84.19561486800006,50.51143992099999],[84.18595137600005,50.527976380000084],[84.15122481300011,50.552574361000055],[84.14502364100014,50.5660619100001],[84.14233646700012,50.581513163000025],[84.13303470900007,50.600788473000065],[84.10171879100005,50.62859039400011],[84.08859727474442,50.634612502265156],[84.10590538942216,50.64295563429505],[84.15789188020608,50.65680491771275],[84.18279992087963,50.660628974447604],[84.36170372914376,50.67158437801663],[84.44355919799852,50.70114329682565],[84.45668501190374,50.70287445669078],[84.46722700432275,50.70269359043681],[84.50019656781734,50.689929510838226],[84.52272749168037,50.687965806976365],[84.53285607294936,50.689154365381626],[84.5416410661822,50.691066393299366],[84.54753217956642,50.69429616993227],[84.55269982343805,50.69871450497038],[84.55704064321105,50.704140530361144],[84.56117475830843,50.711478582770326],[84.56324181495773,50.718248196197294],[84.56386193168277,50.725172838355775],[84.56138146388344,50.750235907760896],[84.56148481577162,50.75669546192603],[84.56313846217023,50.762586575310195],[84.56572228365644,50.76785757107001],[84.56975304596625,50.772198390843016],[84.58897667793133,50.78790802713371],[84.59321414581615,50.79230052285084],[84.59765831927598,50.79772654914092],[84.60230919831082,50.805012926505356],[84.60727013480886,50.81705353479276],[84.6085103700575,50.823048000964434],[84.60902713399503,50.82950755512957],[84.60871707563251,50.83617381397033],[84.60727013480886,50.84268504497879],[84.60561649020883,50.84842112873207],[84.6031360206108,50.853537095760316],[84.59982872871285,50.85839468037017],[84.59569461541412,50.86263214825499],[84.59021691317997,50.86614614482869],[84.58360232938395,50.86852326073989],[84.57523074730113,50.870125231194436],[84.53719689272236,50.87389761018653],[84.53130578023752,50.87684316687864],[84.5279984883395,50.88139069312598],[84.52789513465268,50.887023424091694],[84.53326948409938,50.91110464156594],[84.53378624893622,50.91761587257446],[84.53357954336121,50.92412710178428],[84.53264936737435,50.93019908322111],[84.53099572097568,50.93575429982104],[84.52882531063955,50.940818590005904],[84.52572472521587,50.94552114498481],[84.52169396380538,50.94978445129135],[84.51704308477053,50.95384105112356],[84.50567427005149,50.95993887008274],[84.47125776573324,50.97316803587614],[84.35488243977272,50.990376288035236],[84.31033735508481,51.01047842094232],[84.30258589062629,51.01223541922917],[84.29400760296846,51.01270050722263],[84.28615278482312,51.01146027287325],[84.27974490840074,51.008721421756206],[84.27395714690476,51.00533661639173],[84.26775597515808,51.002701118062134],[84.25990115791205,51.001693426810164],[84.25152957582924,51.0023652212779],[84.01795210160816,51.06383433728479],[84.01020063714964,51.067064113917695],[84.00730675730097,51.07259349209596],[84.00616987483983,51.07900137031697],[84.00492964138982,51.126569526062724],[84.0086503444378,51.13372671221799],[84.01443810413514,51.137602443997594],[84.06921512198028,51.14225332303238],[84.07820682168744,51.14147817577714],[84.08606163893347,51.13948863439293],[84.09257286994193,51.13662059206666],[84.09805057217613,51.13284821217525],[84.10673221172215,51.124890042141715],[84.11665408741618,51.11775869440817],[84.12337202310033,51.11551076880693],[84.13122684124568,51.115045680813466],[84.13804812971739,51.11675100405557],[84.14414594867657,51.11972239827003],[84.15468794109557,51.12706045247785],[84.17194787009811,51.14380361574422],[84.26951297434425,51.27519094510603],[84.27395714690476,51.279454251412574],[84.27912478987713,51.28301992482966],[84.29524783731779,51.28648224545924],[84.34134321471754,51.290280462873056],[84.34847456335041,51.288730170161216],[84.35374555911022,51.28555207037175],[84.37286583918711,51.270178330865235],[84.37875695167196,51.26723277417318],[84.38588830030477,51.265604967095555],[84.39415652870082,51.26601837824552],[84.48800092989899,51.2895311549388],[84.502883742091,51.29903961948281],[84.50898156105018,51.31588613553669],[84.65801639214277,51.361723131417364],[84.70524865110434,51.395467841267816],[84.71548058516083,51.39947276515596],[84.725712518318,51.401617337070434],[84.78214318166249,51.40696584719609],[84.86410200420409,51.425905260119634],[84.87919152197111,51.42735220004397],[84.88725304569147,51.42699046483807],[84.90213585788348,51.424768378557815],[84.92435672428337,51.424148260933464],[84.93686242056424,51.429625963167666],[84.95742964056541,51.451330063831335],[84.98905561692317,51.48006216123974],[85.00765913306253,51.48900218410347],[85.08258995975882,51.497218736555396],[85.15317996578278,51.49618520778108],[85.16186160712743,51.49458323822586],[85.17674441931945,51.48977733045939],[85.18346235500366,51.486831772868015],[85.1889400572378,51.48362783555615],[85.19979210801932,51.4754112822049],[85.20754357337717,51.471173814320025],[85.22221967999423,51.46760814090294],[85.23152143806385,51.46838328725886],[85.23906619694742,51.47076040317006],[85.29229292208066,51.50003510203828],[85.29394656758001,51.50143036601855],[85.29673709464117,51.50424673150144],[85.29973432817667,51.508406684121155],[85.30252485523783,51.513600165515186],[85.30469526557403,51.51902619090595],[85.30541873598582,51.524607245028335],[85.30407514794967,51.52972321205658],[85.30014774022601,51.5339606799414],[85.29115603961952,51.54197052681832],[85.2872286318958,51.546363023434765],[85.28557498639645,51.551789048825526],[85.28681521984646,51.55791270620642],[85.2945666852043,51.5654833035116],[85.3034550312247,51.568532212991215],[85.31348025880686,51.569255683403014],[85.42768517533057,51.55974721885906],[85.45186974469294,51.56207265882614],[85.46375532424878,51.56496653957413],[85.47130008313229,51.568532212991215],[85.48887006959802,51.586670641137175],[85.49207400870847,51.591476548903586],[85.49383100789464,51.59677338308512],[85.49331424395717,51.60227692284167],[85.49083377525847,51.60734121392585],[85.48370242662565,51.61656545673043],[85.4811186051395,51.62119049734355],[85.48018843005195,51.626358141215235],[85.48235884038814,51.631164048981645],[85.48680301294866,51.635194811291456],[85.50499311703868,51.645788478755264],[85.50974734886103,51.649250800284165],[85.51367475838333,51.6534365913256],[85.51708540216953,51.65824249909201],[85.51956587086823,51.66382355411372],[85.52504357310238,51.68191030541624],[85.52752404180103,51.6876980660129],[85.53103803927405,51.693537503453],[85.53682579987071,51.70010041040558],[85.54437055875422,51.70338186298255],[85.5535689640364,51.70490631817199],[85.57651329994877,51.705552273318744],[85.59315311132701,51.70790355080817],[85.60286827964734,51.711159165862796],[85.63924848782739,51.730227769995565],[85.64948042188394,51.73751414736],[85.66095259028975,51.74748769809878],[85.6699442890976,51.75397308978626],[85.67769575355612,51.75461904583227],[85.68482710218899,51.753197944329656],[85.70095014783101,51.74260427506721],[85.71324913943619,51.73648061768631],[85.72751183490323,51.731984768282416],[85.74539187973141,51.729659329214655],[85.7377437680604,51.74263011348893],[85.74156782389593,51.76035513048487],[85.73908735519723,51.76614289018221],[85.74032759044593,51.7786744248848],[85.74694217334257,51.78965566687549],[85.75655398977477,51.797303779445826],[85.76161827995963,51.80588206620439],[85.7546936378011,51.81962799683458],[85.7819787943858,51.83761139624892],[85.7888000828575,51.846964830262664],[85.74032759044593,51.86060740810535],[85.75810428338593,51.874198310003976],[85.80688683505934,51.88639394792233],[85.83458540189474,51.902310288888714],[85.8765466650965,51.9194151882603],[85.87230919811094,51.92866527038592],[85.84223351356576,51.95992951153772],[85.83417199074472,51.971324163779116],[85.83716922428022,51.98292552339416],[85.85432579959593,52.00085724506579],[85.90724246636671,52.03661733742018],[85.91912804592255,52.0523786478563],[85.9209883969969,52.072119046456805],[85.93959191313627,52.074987087883756],[86.14960493382063,52.070155340796305],[86.16448774601264,52.067106432216065],[86.16738162586131,52.06222300918449],[86.16831180184812,52.056306057378606],[86.16851850832245,52.05056997272601],[86.17068891775932,52.04560903622803],[86.17471968006913,52.04131989239909],[86.17968061656717,52.03754751250767],[86.19394331293353,52.03036448793074],[86.22060835189387,52.02101105391699],[86.2653601421568,52.012381090315046],[86.36840294773782,52.01015900313547],[86.40592003837901,52.013879706183445],[86.4262805519059,52.01832388054265],[86.43992312974859,52.02292308183473],[86.44829471183147,52.02705719693205],[86.45397911964062,52.03175975191101],[86.45738976432614,52.036669013364246],[86.4600769385998,52.04209503785569],[86.46162723221096,52.04808950492668],[86.46162723221096,52.05423899982998],[86.46266076008595,52.06080190678256],[86.4654512880465,52.06741649057852],[86.48601850804766,52.08198924440808],[86.49046268060818,52.086950181805435],[86.48942915183386,52.091394355265265],[86.4866386247727,52.095812690303376],[86.48488162558652,52.10123871479482],[86.48570844878583,52.1074140490191],[86.49201297421934,52.11542389589607],[86.49852420432853,52.11852448221907],[86.50524214091206,52.12002309808747],[86.54451622894078,52.12053986292432],[86.64166792203696,52.110101223292816],[86.70977746026153,52.1132534864592],[86.75442589683763,52.108705960211864],[86.76610477081846,52.110617988129604],[86.7738562361763,52.11309845592899],[86.78873904836837,52.12198680284865],[86.8144739113419,52.14472443318601],[86.82212202301292,52.15841868787214],[86.82429243424838,52.17185456013982],[86.8247058453984,52.17952851023256],[86.8240857277741,52.18875275303708],[86.82191531833723,52.19521230720221],[86.81778120323992,52.20001821586794],[86.80816938680772,52.20730459233306],[86.79028934108021,52.21805329032708],[86.78439822769599,52.2234276388744],[86.78005740792298,52.233065293728316],[86.78067752464801,52.239705715946],[86.783571405396,52.24502838854926],[86.8015548030117,52.26156484624062],[86.80610232925903,52.266965034109035],[86.81013309066958,52.2732437202215],[86.81385379371756,52.28249380144774],[86.81137332591823,52.28799734210361],[86.80589562368402,52.292157293824005],[86.67701460234201,52.34502228554999],[86.64476850835996,52.35354889636443],[86.63629357259026,52.35726959941246],[86.62792199140677,52.36223053680982],[86.61769005735022,52.371739000454454],[86.61582970627586,52.37856028892617],[86.6166565285759,52.38501984309124],[86.61955040932389,52.389929104544535],[86.70233605326621,52.49963816986565],[86.70295617089056,52.50010325785905],[86.70305952277874,52.50062002179652],[86.71132775297338,52.5125572781958],[86.73210167765029,52.53276276299107],[86.77519982331313,52.54268463778578],[86.78636193155785,52.549609279944264],[86.79276980977886,52.55591380537777],[86.79473351364072,52.56216665306857],[86.79525027937683,52.568367824815255],[86.79463016085322,52.57446564377443],[86.79152957632886,52.58567942976185],[86.79059940034199,52.592087307083546],[86.79101281059269,52.59981293401967],[86.79473351364072,52.611310939947884],[86.8008313325999,52.61957916924325],[86.80672244688338,52.62557363541492],[86.82811649008391,52.641205756440456],[86.84072553915229,52.648311265752284],[86.84982059074764,52.65115346875757],[86.85757205610548,52.65032664735685],[86.86418663900213,52.647587796239804],[86.87627892503235,52.6412832708063],[86.89219526599868,52.63704580292142],[86.93136600123995,52.633712674400385],[86.95213992681613,52.634617011066155],[87.11657433493758,52.667793281035074],[87.11988162593627,52.66634634111074],[87.12298221225927,52.66381419556865],[87.13269738237824,52.650223294569344],[87.14902713359533,52.632911688723425],[87.17321170385702,52.61162099920972],[87.16783735620896,52.60585907703478],[87.165356886611,52.60144074199661],[87.16442671062418,52.59624725970326],[87.16752729694718,52.591105455152615],[87.17527876230503,52.58691966411118],[87.19171186720888,52.58350902032498],[87.20339074118971,52.58242381380791],[87.21341596877193,52.58255300591645],[87.33402876171795,52.59751333337363],[87.3420902854383,52.597099921324286],[87.34963504432181,52.59485199572299],[87.35521609934347,52.58921926475722],[87.35800662640463,52.583974107419124],[87.37030561711049,52.539273993999586],[87.37030561711049,52.518267524426676],[87.3727860858092,52.51312571897671],[87.3779537287815,52.50873322236032],[87.39231977703605,52.50578766476889],[87.45732872893763,52.50310049139455],[87.57887169787051,52.48733917915979],[87.58889692635205,52.48421275531439],[87.59902550672172,52.47982025779862],[87.60863732315391,52.47193960213093],[87.61411502538806,52.466203518377654],[87.61814578589929,52.46093252171846],[87.62196984173477,52.45666921721056],[87.62744754396897,52.45266429332247],[87.63550906768927,52.449796250996144],[87.64739464724516,52.448711046277765],[87.65659305162796,52.44948619173431],[87.66486128092333,52.45147573491721],[87.67168257029437,52.45416291009019],[87.7281132336388,52.48770091436569],[87.73545128784662,52.490336411795965],[87.82061404770008,52.50578766476889],[87.82774539633294,52.508009751948464],[87.83394656807963,52.511885483728065],[87.83942427031377,52.5167947451813],[87.85430708160652,52.534106350127956],[87.85988813662817,52.53898977315947],[87.86639936673737,52.54240041784499],[87.87384077283338,52.544079901766054],[87.92376020696793,52.54759389923902],[87.93440555217444,52.545216783327874],[87.94939171715396,52.53767202444436],[87.97595340422617,52.52108388901024],[87.9861853373834,52.51687226044646],[87.9945569185669,52.51524445336878],[88.00664920369775,52.51431427738197],[88.01440066905559,52.5129190134017],[88.05636193225735,52.496692613173536],[88.11341271412545,52.468503119923014],[88.1517566261673,52.43855662748632],[88.17594119732837,52.42543081358116],[88.20095258989005,52.415922349936466],[88.20839399598611,52.414010322018726],[88.21573205019394,52.41447541001213],[88.24560102736547,52.4208316113897],[88.31619103428875,52.4466698271508],[88.4132393736981,52.45514476202112],[88.42068077979411,52.453904526772476],[88.42636518760327,52.45085561819218],[88.42874230261515,52.444447739971224],[88.42843224515195,52.43561106989495],[88.41768354715794,52.40941111892795],[88.41044884573762,52.39540680587936],[88.40858849466326,52.38925731097612],[88.40869184835009,52.38326284390507],[88.41334272738493,52.37667409943009],[88.41799360641977,52.371558133301164],[88.42316124939208,52.36703644547555],[88.42564171719147,52.36228221275388],[88.42481489489143,52.35706289293813],[88.41830366388297,52.35068085403816],[88.36941775942205,52.31639354092914],[88.36497358596216,52.309365545983155],[88.36311323398854,52.29869436325424],[88.37055464098387,52.19645254245086],[88.36476688038721,52.16800466588262],[88.34574995309782,52.13345897125447],[88.32973025934393,52.124906521119044],[88.26658165941603,52.12064321571182],[88.24952843598851,52.116405747827],[88.24219038267995,52.11134145854146],[88.23805626758264,52.10576040351975],[88.23722944528265,52.10028270128561],[88.23815962126946,52.09516673425736],[88.24219038267995,52.0908517520067],[88.25758995970881,52.07855276130084],[88.26193078038119,52.07431529431534],[88.26358442588054,52.069354356018664],[88.25862348758386,52.06607290344169],[88.249218377626,52.06261058191279],[88.21955610602942,52.05563426381019],[88.21025434795973,52.05501414708522],[88.20105594267756,52.056306057378606],[88.19351118379404,52.05922577654832],[88.18668989532239,52.0627139347003],[88.13966434103645,52.09392649990804],[88.1329464053523,52.09720795338433],[88.12147423694643,52.09826732058036],[88.11093224542674,52.094882514316566],[88.09511925724786,52.08679515217449],[88.07816938660784,52.075374661511376],[88.07258833158619,52.070594591267366],[88.06731733582637,52.065142727454884],[88.05822228423102,52.05310211916742],[88.05481163864619,52.04715932893987],[88.0523311708468,52.04131989239909],[88.05295128757183,52.03635895410241],[88.05584516831982,52.03170807596689],[88.05791222496919,52.026592108938644],[88.0577055202935,52.02095937797287],[88.03972212087916,52.00287262577103],[88.0353813011061,51.99258901577042],[88.03011030534628,51.98933340071585],[87.99476362504123,51.9763626173409],[87.9861853373834,51.971091619782385],[87.98153445834856,51.965510566559374],[87.97760704972552,51.938742173912146],[87.97626346168937,51.933186957312216],[87.9740930522525,51.927580063868845],[87.97078576035454,51.92184398101489],[87.90536339730289,51.85724844026328],[87.86030154777819,51.829033107691714],[87.84717573387297,51.81890452732205],[87.83911421105194,51.81063629802668],[87.8369438007158,51.80490021427346],[87.83539350800396,51.79926748330769],[87.8345666848046,51.79373810512942],[87.83518680242895,51.788415432526165],[87.83725385907832,51.783609523860434],[87.8401477398263,51.7791136753558],[87.84386844287428,51.77497956025849],[87.84903608584665,51.77213735635388],[87.85534061128016,51.77169810588288],[87.86174848770253,51.773584296278216],[87.88831017477469,51.78655508145181],[87.89544152160892,51.78893219736301],[87.90288292770492,51.79043081323141],[87.9109444523246,51.790947578068256],[87.91972944465812,51.7898623724505],[87.92861779157778,51.78753693338274],[87.94339725098229,51.78066396716832],[87.97688357931372,51.75782298404346],[87.98287804638471,51.75567841212899],[87.98959598206886,51.7554975449757],[88.08530073434139,51.77740835211375],[88.09201867092486,51.777434190535416],[88.09708296110972,51.77461782505253],[88.10070031137025,51.770690416429545],[88.10369754400642,51.766091214238145],[88.10586795434256,51.76141449588226],[88.10597130713006,51.75425731152569],[88.1043176607314,51.74516225903102],[88.09842654824655,51.72919424122125],[88.09263878764989,51.72030589520085],[88.08643761590321,51.713639635460765],[87.9997245633379,51.66211823177093],[87.98442833909655,51.64860484513747],[87.98184451671102,51.64211945344999],[87.98101769441104,51.636124986379],[87.98215457597286,51.63121572492577],[87.98277469269789,51.625169582809974],[87.98184451671102,51.61824494155081],[87.97853722481301,51.60816803622589],[87.9734729346282,51.60227692284167],[87.96737511566903,51.59757436786276],[87.86154178302684,51.54936025697026],[87.89079064257407,51.51670075093887],[87.91001427633773,51.490294094396916],[87.92345014770609,51.47902863246537],[87.93316531782511,51.4754112822049],[87.95993370957302,51.486263332986425],[87.96758182214336,51.48745189139163],[87.97605675701368,51.48711599370813],[88.07351850757306,51.45164012309317],[88.09460249241107,51.44073639636758],[88.1056612487676,51.4321839462321],[88.10710818869194,51.4221845570716],[88.11113895100175,51.4075084504546],[88.11341271412545,51.40228912973953],[88.11992394423459,51.395261134793486],[88.13160281821547,51.38590770077974],[88.1711869646067,51.367149155908805],[88.18369266088757,51.36379018806667],[88.26193078038119,51.36022451375027],[88.29872439971126,51.348855699031276],[88.35009077287083,51.324309394462944],[88.36373335161284,51.31981354415973],[88.50770389162125,51.31635122353009],[88.51452518099228,51.31764313382354],[88.52134647036326,51.319916896947234],[88.55338585787098,51.33647919395963],[88.55896691289269,51.34097504336353],[88.5642379086525,51.346271878444384],[88.59121300687474,51.38260040978105],[88.59648400263455,51.387974759227745],[88.60206505675694,51.39226390215731],[88.60847293497795,51.39577790052965],[88.63586144435016,51.40611318647433],[88.6550850772145,51.41562165011902],[88.66076948412433,51.41929067632361],[88.66542036315917,51.42363149699594],[88.66697065587101,51.428592434393295],[88.66759077259604,51.43370840142154],[88.66676395119538,51.449004624763575],[88.66852094858285,51.47019196238915],[88.66831424390722,51.48063060202065],[88.66707400865852,51.48559153941801],[88.65963260256251,51.49985423398567],[88.65663536992633,51.509155992055355],[88.65250125482902,51.51840607418097],[88.65126102137901,51.52316030510394],[88.65126102137901,51.527811184138784],[88.65405154844018,51.531531887186816],[88.6593225442,51.53489085592821],[88.73570031082068,51.55938548455242],[88.82499718577145,51.516494046263176],[88.83161176956747,51.511326402391546],[88.83760623573914,51.50497020101392],[88.84897505135751,51.487400214548245],[88.85455610637916,51.48109568911474],[88.86117068927587,51.47556631093647],[88.88339155477638,51.46357737949245],[88.95542850072468,51.43835928045638],[88.9619397317332,51.433605047734716],[88.96721072839239,51.427868963981496],[88.9715515481654,51.41877391238614],[88.97258507693971,51.412055975802616],[88.97186160742723,51.40575145126843],[88.96752078585553,51.39443431339282],[88.95646203039837,51.37629588524686],[88.9490206243023,51.35913930903183],[88.9459200379793,51.34813222951874],[88.94529992125433,51.3427578800721],[88.9449898619925,51.332267564496476],[88.95294803292535,51.29211497732433],[88.95274132735034,51.281572984006004],[88.95119103373918,51.27087596285537],[88.9442663915807,51.248655097354856],[88.94343956928066,51.24328074790816],[88.94312951001882,51.23811310493579],[88.94374962764317,51.232997137907546],[88.94581668519186,51.22832042135036],[88.95139774021351,51.222403469544474],[88.96080285017138,51.21584056349121],[88.98033654229755,51.205634466957065],[89.00090376229878,51.19754710571431],[89.01578657359147,51.19395559297618],[89.02477827329864,51.19015737646174],[89.03221968029396,51.18431793902164],[89.04059126237684,51.173827623446016],[89.04431196542481,51.166902981287535],[89.04989302044652,51.15116750837376],[89.05082319463469,51.14612905481198],[89.05092654832151,51.14101308958237],[89.05020307790966,51.13563874013573],[89.04844607872354,51.13000600916996],[89.04317508296367,51.11858551670821],[89.04152143836365,51.11318532973917],[89.04069461516434,51.1083794219727],[89.04121137910181,51.09316071209719],[89.04193484861435,51.088251451543215],[89.04441531821232,51.07843292953606],[89.04679243412352,51.07378205050122],[89.05237348824585,51.064583645219045],[89.05971154155435,51.05590200477366],[89.06880659404902,51.04830556904676],[89.08368940624109,51.03859039982706],[89.13660607301182,51.01032339131143],[89.16234093598536,50.99991059010165],[89.1724695172544,50.99195242006812],[89.19820438022793,50.967406113701145],[89.3089986511668,50.901337796402174],[89.31644005726281,50.89301789026342],[89.33276981027848,50.87947866520818],[89.38361941860126,50.857567857170864],[89.39240441273341,50.85268443503861],[89.39922570210445,50.84413198490313],[89.40201622916561,50.837827460369],[89.40491010901428,50.82744049758088],[89.40708052024979,50.823254706539444],[89.4122481632221,50.81860382840392],[89.42061974530498,50.8140046253132],[89.44790490099035,50.80346263289414],[89.45772342299756,50.79788157787249],[89.46950564976589,50.7834896920956],[89.47301964723891,50.778167019492344],[89.49865115832426,50.751786201372056],[89.55993940627854,50.69928294485197],[89.57161828025937,50.686415514264525],[89.57781945200605,50.67732046176985],[89.58526085810206,50.668742174112026],[89.59373579297244,50.66031891518577],[89.64716922368069,50.62037303268926],[89.65616092338786,50.611691393143246],[89.65957156807337,50.60719554284003],[89.66174197840957,50.602441311017685],[89.66215538866021,50.59735118331042],[89.66205203677202,50.586990058044705],[89.66608279818257,50.582545885484194],[89.67373090985359,50.57898021116779],[89.6986389514264,50.57629303599481],[89.73191857328351,50.57768829997502],[89.75868696503136,50.57303742094018],[89.7796675961826,50.566939601981005],[89.8100533390903,50.55438222885675],[89.82834679596783,50.543065090981145],[89.85511518771568,50.518002021576024],[89.85924930191374,50.51273102491683],[89.86565718013469,50.50172394540374],[89.86689741358475,50.4982099470314],[89.86855105998342,50.49014842421036],[89.86917117670839,50.485084133126236],[89.86906782392089,50.479864814209805],[89.86844770719591,50.47454214070723],[89.8657605329222,50.46332835651839],[89.86359012168674,50.45761811028751],[89.85366824689203,50.44007396134424],[89.8490173687565,50.43454458316597],[89.84364302020919,50.429919542552796],[89.8345479668152,50.4261730010831],[89.82266238815868,50.4230724147601],[89.76540490071557,50.41800812457524],[89.633319940263,50.385193589812275],[89.61988406799532,50.384676825874806],[89.61399295371183,50.38726064736096],[89.61099572107565,50.39072296799054],[89.61016889787629,50.39351349505171],[89.61099572107565,50.397750962936584],[89.61533654174798,50.40844798408716],[89.61585330568545,50.41382233353386],[89.61471642502295,50.41867991814371],[89.61202924984997,50.42325328191339],[89.60727501802762,50.427413235432425],[89.54009565578986,50.46456858996845],[89.52211225817416,50.469839585728266],[89.51374067609129,50.469426175477565],[89.50722944508277,50.465963853948665],[89.50319868367228,50.45728221350333],[89.50154503817294,50.45066762970731],[89.5011316261236,50.43438955353503],[89.49999474456177,50.427051500226526],[89.4971008647131,50.41715546295421],[89.49596398315128,50.41185862877268],[89.49648074708875,50.40676850016615],[89.4978243351249,50.4022468132398],[89.49989139177427,50.3991462269168],[89.50226850768547,50.39661408137471],[89.51033003140577,50.389276028066206],[89.51787479028928,50.380594386721555],[89.52025190620049,50.37594350768671],[89.51725467266499,50.369794012783416],[89.50795291459531,50.36235260668741],[89.47053917764089,50.346487942564465],[89.4592737157094,50.34385244423487],[89.42899132738779,50.34000254997767],[89.41514204307077,50.33594595014546],[89.40201622916561,50.3305199247547],[89.39560835184392,50.325714016088966],[89.3903373560841,50.319306138767274],[89.38672000492426,50.307368883267316],[89.38609988819923,50.299849961906204],[89.38692671139859,50.2934937614279],[89.3879602401729,50.28855866155294],[89.38599653541172,50.283494371368135],[89.38320600835056,50.279205227539194],[89.35654096939021,50.27166046775636],[89.34940962075734,50.264219062559675],[89.35064985600599,50.25533071653933],[89.35261355986785,50.245460516789365],[89.35261355986785,50.24034454976112],[89.35168338388104,50.2350735540013],[89.34940962075734,50.22980255824143],[89.34517215377184,50.224712428735586],[89.33990115801197,50.219854845025054],[89.33669721890152,50.21486806920598],[89.33638715963968,50.20959707344616],[89.34506880098434,50.204481106417916],[89.3902340032966,50.188099677458126],[89.39901899563012,50.185929267121935],[89.40697716656297,50.185722561546925],[89.41348839667211,50.186885281530465],[89.417932570132,50.18985667574498],[89.42092980276817,50.19290558522454],[89.42868126812601,50.20303416649358],[89.43405561667333,50.207530015897476],[89.44046349489435,50.21008799896197],[89.44842166492788,50.21073395410866],[89.50144168538543,50.206806546384996],[89.50733279787028,50.20437775273109],[89.51322391215376,50.19936513938967],[89.51622114478994,50.188099677458126],[89.5169446152018,50.180503241731174],[89.51498091044061,50.1425210639959],[89.51539432159063,50.1374050969676],[89.51715131987748,50.13115224927685],[89.5212854349748,50.124330959905876],[89.53120730976951,50.11440908511116],[89.54071577341415,50.109448146814486],[89.55001753058451,50.10704519338094],[89.57513227683307,50.10495229830991],[89.58288374219092,50.103453681542135],[89.58898156115009,50.10024974243163],[89.5911519705869,50.095185452246824],[89.58929162041193,50.08758901651987],[89.5849507997396,50.08154287440408],[89.57978315586791,50.07601349532655],[89.57409874895808,50.07175018991933],[89.55260135297004,50.05226817553586],[89.54888064992201,50.04668712051415],[89.54939741385954,50.039478258414874],[89.55435835215621,50.0314167337952],[89.56862104672388,50.01839427357686],[89.57947309840472,50.01327830744788],[89.58939497319943,50.01041026512161],[89.59735314323291,50.00656036996509],[89.6036576677671,49.99886058234995],[89.60727501802762,49.980515449528355],[89.60551801974077,49.96997345621003],[89.60148725833028,49.96170522691466],[89.59156538263625,49.95080150018907],[89.58753462122576,49.945065416435796],[89.5849507997396,49.93938100772732],[89.5849507997396,49.93374827676155],[89.59063520664944,49.92682363550233],[89.59745649602041,49.920364081337254],[89.63269982263864,49.90811676747484],[89.63321098469913,49.907939134283595],[89.62386234600007,49.90269154900007],[89.62107181800013,49.89333811500005],[89.61528405800004,49.8545291140001],[89.61533573400004,49.84192006500005],[89.62107181800013,49.83504709900011],[89.63895186400009,49.82481516500012],[89.64355106700003,49.8188723760001],[89.64194909700007,49.808123678000086],[89.62737634300004,49.796806539],[89.6264461670001,49.788021546000024],[89.63895186400009,49.775464173],[89.68370365400011,49.76114980100003],[89.70153202400007,49.75313995400005],[89.71264245600008,49.735156555000046],[89.70241052300008,49.719963685000025],[89.68230839100005,49.70833648800006],[89.61631758600004,49.68544382800006],[89.52030277500012,49.66317128500002],[89.47534428000012,49.643430888000026],[89.44159956900006,49.64358591700007],[89.41860355600011,49.62420725600002],[89.39782963100004,49.59898915700005],[89.37193973800004,49.581677552000045],[89.33943526200011,49.58079905200002],[89.31070316600005,49.593149720000085],[89.25220544400008,49.629426575000124],[89.21644535400009,49.63449086600009],[89.18735152200009,49.62198516800002],[89.17820479300008,49.59847239200012],[89.20156254000011,49.570618795000044],[89.21561853000003,49.54545237300003],[89.19525801600008,49.521526184000024],[89.16073816000005,49.502715963000085],[89.0140804450001,49.460547995000056],[88.97532312000004,49.45584543900007],[88.96266239500011,49.46214996300007],[88.95470422400007,49.47186513300004],[88.94757287600004,49.48282053700008],[88.93759932500012,49.492845765000126],[88.92695398000012,49.50741851800008],[88.91909916200007,49.523179831000064],[88.90835046400008,49.535943909000125],[88.88892012500008,49.54167999300007],[88.86819787700006,49.53811431900003],[88.85874108900009,49.527365622000005],[88.85615726700007,49.51150095700008],[88.85486535600012,49.47388051400007],[88.87532922300011,49.44178945000006],[88.87062666800011,49.436001689000065],[88.71942142800003,49.44292633000005],[88.69565026900005,49.44695709300005],[88.67466963800007,49.45982452400004],[88.6486763910001,49.48359568300002],[88.63353519700007,49.491243795000074],[88.61575850500009,49.49294911700004],[88.61415653500012,49.492794088000025],[88.59973881000008,49.48891835600004],[88.55782922400005,49.471089986000024],[88.53876062100005,49.46654246100006],[88.47540531400011,49.46364858],[88.45111739100014,49.46514719700009],[88.40192142700005,49.47584421800009],[88.37877038600004,49.47579254200009],[88.19996993000007,49.45434682200006],[88.17475183100004,49.4438565060001],[88.1617293700001,49.430110576000075],[88.14560632400003,49.39719268800003],[88.13578780200004,49.38608225500012],[88.11553064000003,49.35657501200008],[88.12917321800006,49.32593088800006],[88.14839685100009,49.29657867499999],[88.14395267700007,49.270740459000066],[88.10850264500004,49.24743438800003],[88.02974776300005,49.215550029000084],[87.99295414200003,49.19172719400011],[87.97548750900012,49.17581085200008],[87.95678064000003,49.1688862110001],[87.85518477400012,49.15896433500011],[87.83699467000008,49.15999786400009],[87.81632409700006,49.16583730100008]]]},"properties":{"adm1_code":"RUS-2400","name":"Gorno-Altay","name_alt":"Gorno-Altayskaya A.Obl.|Respublika Altay|Oirot|Republic of Altai","name_en":"Altai Republic","adm0_a3":"RUS"}}