{"type":"Feature","geometry":{"type":"Polygon","coordinates":[[[-71.13809160099993,21.513617255000042],[-71.13036048099991,21.498114325000074],[-71.12889563699991,21.47223541900007],[-71.13361568899995,21.446478583000044],[-71.14488684799994,21.43162669500009],[-71.1516820949999,21.45058828300006],[-71.15099036399994,21.47284577000005],[-71.14549719999991,21.495062567000048],[-71.13809160099993,21.513617255000042]]]},"properties":{"adm1_code":"TCA-5007","name":"Grand Turk","name_alt":"","name_en":"Grand Turk","adm0_a3":"TCA"}}