{"type":"Feature","geometry":{"type":"Polygon","coordinates":[[[71.24986822800008,42.19838531500004],[71.25320072500006,42.19755462700003],[71.23821455900008,42.16024424300009],[71.20100752700006,42.1407880660001],[71.11842858900013,42.122908020000054],[70.97714522300004,42.04423065200008],[70.93590743100003,42.03686676100007],[70.88671146700005,42.03849456800002],[70.84547367400006,42.03035553000011],[70.82805871600004,41.993742778000055],[70.82511316000011,41.936330262000055],[70.81400272600013,41.91953542100002],[70.77932784100005,41.90966522300003],[70.67969567900013,41.901112773000094],[70.64894820200004,41.887392680000076],[70.55009118700008,41.82406321200007],[70.50647627700005,41.78559010800011],[70.47722741700011,41.738435365],[70.4536629640001,41.71208038400003],[70.42348392800011,41.69691335100002],[70.39082442200004,41.68505361000008],[70.33118981900003,41.649629415000064],[70.16928755700013,41.578341777000006],[70.1482552490001,41.552451884000064],[70.16654870600007,41.52020579000002],[70.20344567900008,41.50563303700004],[70.34441898600011,41.49379913400013],[70.34452233900004,41.493695781],[70.34472904500012,41.49364410400007],[70.34493575000005,41.493489075000056],[70.38224613400007,41.47643585200011],[70.39898929800006,41.464963685],[70.41361372900013,41.450700989000026],[70.43805668200014,41.41607777900002],[70.45319787600005,41.405484111000035],[70.47078170880877,41.40487907580865],[70.45939985481942,41.38129873305007],[70.45025312727995,41.36853465435081],[70.40141889786383,41.31936452904978],[70.39857669485855,41.31375763650567],[70.39718143087828,41.30644542071957],[70.39966189957698,41.29494741479135],[70.3999719579395,41.27952200024009],[70.40338260262496,41.27425100448028],[70.40684492415392,41.27065949174215],[70.43444013910113,41.26771393505004],[70.4380058116189,41.25970408817312],[70.43335493438269,41.2457514510686],[70.43040937679126,41.2395244409002],[70.41134077265849,41.209009508581914],[70.40948042158414,41.20296336556686],[70.40979047994665,41.19634878177084],[70.41196089118216,41.18963084608663],[70.41847212129136,41.18156932236633],[70.4384708996123,41.16115713199605],[70.45877973809439,41.13516388570474],[70.46332726434173,41.11314972577918],[70.46534264504697,41.03896820701709],[70.4580562676826,41.01589467989555],[70.45800635800003,41.01573663300009],[70.44570479300012,41.0259207160001],[70.40115970900013,41.039976705000115],[70.36353926600003,41.032431946000074],[70.33589237400008,40.926960348000094],[70.28039188600013,40.87771270800003],[70.20799320500004,40.844588115000036],[70.10422692900005,40.813323873000044],[70.00965905700008,40.75803009000002],[69.82532922400009,40.71400177000005],[69.80331506400012,40.705630188000086],[69.78352299000011,40.69296946200005],[69.74156172700003,40.652455139000025],[69.71768721500013,40.63628041700004],[69.69091882300006,40.630027568000045],[69.6601196690001,40.638709208000094],[69.64751062000005,40.64744252600006],[69.63717533300007,40.65793284100003],[69.6188818760001,40.68165232400007],[69.60782312000009,40.6917809050001],[69.58260502100012,40.704389954000035],[69.57082279400004,40.712451478000034],[69.53185876500004,40.75859853100006],[69.5092244870001,40.77466990200013],[69.4772884520001,40.77704701800009],[69.46168217000007,40.78433339500005],[69.44917647400007,40.794461975000004],[69.43584395300013,40.80267852900003],[69.41775720300012,40.80422882100005],[69.38525272600009,40.79611562200007],[69.36928470900006,40.789397685000026],[69.3550736900001,40.78035430900009],[69.32959720800005,40.75534291600009],[69.31419763200012,40.729297995000096],[69.30716963700007,40.69932566400006],[69.30660119700013,40.66253204400006],[69.31347416200009,40.60935699500003],[69.30934004800008,40.59581776900005],[69.29497399900009,40.58915151000012],[69.23425419100005,40.58527577800008],[69.19844242400006,40.566517233000084],[69.19802901200012,40.545846660000066],[69.23823327700006,40.493963521000055],[69.2383366300001,40.493963521000055],[69.2597306720001,40.437636211000054],[69.26944584200004,40.41980784100012],[69.29549076300003,40.38394439800008],[69.30634281400006,40.36497914700003],[69.31269901600007,40.3428099580001],[69.30530928500008,40.293820698999994],[69.27311486800005,40.28958323100004],[69.23461592700005,40.300848694000095],[69.20836429900004,40.298316549000006],[69.21249841300005,40.26875763000008],[69.28525883000003,40.21863149000005],[69.28525883000003,40.19496368500002],[69.24769006400004,40.18173451800003],[69.19792565900008,40.18297475200008],[69.10800866700009,40.20364532500007],[69.07363981700007,40.216940714000046],[69.0737480003699,40.21720958115725],[69.07901899612972,40.23030955754001],[69.09328169069744,40.27004873356219],[69.09142133962308,40.28467316333581],[69.08491010861457,40.29301890699696],[69.0706474140469,40.32063996036584],[69.09157636925403,40.412313951227816],[69.09416019074018,40.41913523969953],[69.10010298006847,40.429263820968515],[69.105632359146,40.43670522706458],[69.11984337776966,40.45091624568818],[69.12402916881103,40.459546210189444],[69.12237552331175,40.46851207147489],[69.1187581721519,40.47727122718538],[69.11674279234597,40.485358588428085],[69.11043826691247,40.491740628227376],[69.09994795133684,40.49936290147667],[69.09788089378816,40.50745026271943],[69.11674279234597,40.51546011049567],[69.1076477398513,40.520627753468034],[69.09772586505659,40.52326325089831],[69.08697716706257,40.52383169257854],[69.07576338107515,40.522901515692354],[69.08708051895076,40.558790798356654],[69.09664065943883,40.57261424425195],[69.12185875757558,40.58129588469728],[69.12144534732488,40.58837555648671],[69.11519249873481,40.59545522737682],[69.10614912308353,40.5986333280656],[69.09653730665133,40.59442169950182],[69.08599531423232,40.58625682209464],[69.07607343943766,40.58070160639397],[69.06832197497914,40.5843447941769],[69.06868371018504,40.591760361851186],[69.08506513914483,40.60374929509385],[69.0887858421928,40.61230174433001],[69.08387658073957,40.6217068551872],[69.06558312386204,40.63333405232464],[69.05380089709371,40.65829376894226],[69.03535241058523,40.6594564889258],[68.99318444180852,40.653255317179116],[69.00920413556236,40.67358999318361],[69.01292483861039,40.6837185744526],[69.00346805180914,40.68800771738222],[68.98822350531049,40.6841319847033],[68.97427086820596,40.67700063696981],[68.96021487831393,40.67353831634023],[68.94476362534101,40.68056631128621],[68.95799279203368,40.693692125191376],[68.95571902891004,40.707179674302495],[68.94466027165419,40.71942698816497],[68.931121046599,40.728987127753726],[68.92393802292139,40.7308474797274],[68.91685835203128,40.729968980583976],[68.90988203302936,40.73022736300237],[68.90321577328928,40.73518830039973],[68.90228559820179,40.739580797016174],[68.90414594927609,40.751259670997],[68.90321577328928,40.75565216671407],[68.8928804873446,40.77182689099817],[68.8875061378979,40.77704620991466],[68.87649905838481,40.78360911686724],[68.8498340194244,40.793918565289516],[68.84301273005343,40.79787181233422],[68.83562299990149,40.80551992400524],[68.82399580276405,40.8225473090111],[68.81505577990026,40.83138397908732],[68.80001793807736,40.83972972274847],[68.77826215967087,40.847093614478695],[68.75624799974537,40.85006500869315],[68.73996992357308,40.84505239535173],[68.73671430941783,40.862338161876664],[68.7337687518264,40.86903026003847],[68.7294279320534,40.868926907250966],[68.72059126197712,40.86391429301017],[68.71526858937386,40.8664981153957],[68.71273644383177,40.87383616780488],[68.71139285669494,40.89752981255077],[68.70813724074105,40.907632555398095],[68.70017907070752,40.91634003426515],[68.64952445069281,40.9516906023394],[68.6586304120001,40.95471059200004],[68.68937788900013,40.964942525000126],[68.69955814600007,40.9743993120001],[68.70953169800009,40.983752747000054],[68.72787683100006,41.02380198200002],[68.74627364100007,41.063799540999995],[68.75986454200006,41.07553009100009],[68.77376550300005,41.08726064100007],[68.80818200700008,41.09868113200007],[68.84244348200014,41.11010162400008],[68.85489750200009,41.1263797000001],[68.86735152200009,41.14255442299999],[68.87365604700011,41.14906565400007],[68.8802189540001,41.1555252080001],[68.89050256400009,41.158109029000016],[68.90083785000007,41.160641175000094],[68.92223189300012,41.16275990800007],[68.94378096500003,41.16487864200006],[68.96171268700004,41.17159657800009],[68.97974776200004,41.17821116100008],[68.99700769100014,41.18709950800009],[69.01406091300004,41.19603953100004],[69.02258752400007,41.20239573100004],[69.03121748900008,41.20875193300007],[69.03514489700007,41.21448801800004],[69.03917566000007,41.220275777000026],[69.04692712400009,41.267869771000036],[69.0547819410001,41.315412090000066],[69.05436853000009,41.32362864200009],[69.05395511900008,41.33189687100004],[69.05250817900009,41.33778798500005],[69.05116459100003,41.34362742100002],[69.04971765100004,41.345436096000114],[69.04832238800003,41.34724477200011],[69.04599694800004,41.34853668300006],[69.04351648000005,41.34988027000013],[69.03886560000007,41.35432444200002],[69.03426639800006,41.35871694000012],[69.0329744870001,41.362851054000046],[69.0315792240001,41.366985168000056],[69.03390466300004,41.370499166000016],[69.03617842600005,41.37401316300007],[69.04031254000006,41.376648661999994],[69.04444665500012,41.37918080700008],[69.06754602100006,41.38775909500002],[69.09064538600006,41.39628570600003],[69.1000504970001,41.398507793000036],[69.10945560700009,41.40067820200004],[69.11880904100008,41.39793935200008],[69.12805912300013,41.39514882400003],[69.13312341300008,41.405535787000034],[69.13818770400007,41.41592275100005],[69.15038334200011,41.42496612600003],[69.16268233300013,41.43406117799999],[69.18986413600004,41.44708363900013],[69.21714929200004,41.460054423000045],[69.22531416900006,41.461398010000025],[69.23332401500011,41.462638245000065],[69.24815515200004,41.458555806000064],[69.26293461100005,41.454576722000056],[69.27027266400006,41.45535186800008],[69.27755904200006,41.4561786900001],[69.29683435100009,41.465480449000026],[69.31616133600005,41.47483388300007],[69.32355106600005,41.47638417600008],[69.33114750200008,41.47793446900003],[69.36080977400007,41.473800354999995],[69.3906787520001,41.46971791599999],[69.39646651200013,41.4723534140001],[69.40235762600014,41.47483388300007],[69.40173750800005,41.480001526000066],[69.40111739100013,41.48516916900009],[69.39274580900013,41.49674469100002],[69.38447758000007,41.50821685800004],[69.38272058100011,41.513487854000076],[69.38080855300007,41.518810526000024],[69.38737146000005,41.53188466400006],[69.39377933800012,41.54495880200004],[69.40711185800006,41.55224517900011],[69.42034102400004,41.55953155499999],[69.44881473800007,41.566352845000054],[69.4772884520001,41.57312245700008],[69.52818973800004,41.60319814100005],[69.57898767100005,41.63337717700004],[69.59319868900008,41.64583119800004],[69.60756473800012,41.65828521800002],[69.6159879970001,41.663271993000066],[69.62456628400014,41.668310446000035],[69.69200402800004,41.682392273000076],[69.75944177300005,41.69644826299999],[69.81514896700008,41.69805023200003],[69.87085616000013,41.69957468700004],[69.89173344000011,41.70621510900004],[69.91240401200014,41.712855530000056],[69.92764856000008,41.7263172410001],[69.94289310700003,41.73972727500005],[69.9497143970001,41.747452902000035],[69.95653568500012,41.75517852800006],[69.96428715000013,41.75990692200013],[69.97203861500003,41.764583639000094],[69.99999556500012,41.77233510400002],[70.02795251500004,41.779983216000076],[70.06944869000012,41.8029275520001],[70.11109989400012,41.82597524000009],[70.12365726700006,41.83705983500009],[70.13636966900009,41.848092753000074],[70.17037276200011,41.89199188300002],[70.20416914900011,41.935813497000126],[70.21140385000007,41.941394552000034],[70.21858687300005,41.94692393000004],[70.22711348500013,41.95064463300007],[70.23579512600008,41.95428782200004],[70.24489017700006,41.95671661400009],[70.25388187700008,41.95911956800005],[70.26215010600004,41.96232350700002],[70.2703149830001,41.96555328400011],[70.27667118300008,41.97087595600006],[70.28297570900014,41.97625030600001],[70.28674808800014,41.984983623000076],[70.29026208500011,41.99376861600008],[70.30266442900006,42.014129131000104],[70.31506677300013,42.034592998000065],[70.33635746200014,42.04841644300002],[70.3579065350001,42.06223988900008],[70.40674076400006,42.07800120100005],[70.45541996300005,42.09373667400003],[70.46275801600007,42.09265146900013],[70.47019942200006,42.09161794000006],[70.47939782700007,42.08670868000003],[70.48849287900003,42.081876933000004],[70.49650272700012,42.07513315900009],[70.50446089700011,42.06846689900006],[70.50823327700004,42.06198150600001],[70.51185062700011,42.05541859900002],[70.51536462400014,42.04603932700006],[70.5188786220001,42.036685893000126],[70.52663008600013,42.03082061800005],[70.5342265220001,42.02498118100006],[70.54482019000005,42.0218547570001],[70.55525883000007,42.01870249400004],[70.56709273300004,42.01751393700003],[70.57902998900005,42.01624786400008],[70.59453291800008,42.0218547570001],[70.61024255300003,42.02740997300002],[70.62083622300014,42.04216359500002],[70.63148156800008,42.05686554000003],[70.64073164900003,42.07513315900009],[70.64982670100011,42.09340077700004],[70.66145389800005,42.10967885300006],[70.67318444900013,42.1259827680001],[70.68724043800006,42.138462627000095],[70.70114139800006,42.15094248500007],[70.70641239500009,42.1576345830001],[70.71183842000005,42.16432668100002],[70.71586918100013,42.17365427600005],[70.71989994300003,42.18290435900006],[70.72713464300011,42.19013905900003],[70.73426599100003,42.19729624400007],[70.7462549230001,42.19765798000007],[70.75814050300005,42.19801971500006],[70.78139489700004,42.19321380600006],[70.80454594000014,42.18843373700007],[70.82345951300005,42.19050079300003],[70.8423730880001,42.19254201300008],[70.86118330900013,42.19969919900002],[70.87999353000004,42.20693389899999],[70.91389327000013,42.2275527960001],[70.94779300900007,42.24814585400007],[70.96960046400005,42.26346791600004],[71.01404219500006,42.28770416300004],[71.04577152600007,42.290959778000015],[71.07760420700004,42.281167094000054],[71.21785404400003,42.206365458000036],[71.24986822800008,42.19838531500004]],[[69.24344757664431,41.21917234592701],[69.275185977251,41.24953188978486],[69.32593245761677,41.28425316535129],[69.36376974557726,41.29849779163976],[69.35353142093828,41.306510394039435],[69.3606537331832,41.315858429422974],[69.35041540854422,41.32743218794508],[69.3366159268835,41.334109356461624],[69.35190630733018,41.35397221394652],[69.3481896854056,41.37016606591118],[69.31124268759993,41.38797184832214],[69.28052771278368,41.3910878607162],[69.25693505021235,41.40355190849374],[69.2231723458271,41.40327588497411],[69.17013186129634,41.36304375276694],[69.16211925889667,41.331438488695255],[69.13606880762933,41.28282765357335],[69.13897174185234,41.2806920092288],[69.15588723500787,41.288259467000785],[69.15766781351874,41.275795419223186],[69.16479012666298,41.26466680442945],[69.18971822221818,41.24329986589606],[69.2057434261182,41.25576391367366],[69.20663371537364,41.251757612923484],[69.20084683611259,41.24196443201288],[69.21331088389013,41.22504893885741],[69.24344757664431,41.21917234592701]]]},"properties":{"adm1_code":"UZB-372","name":"Tashkent","name_alt":"Taschkent|Toshkent","name_en":"Tashkent","adm0_a3":"UZB"}}