{"type":"Feature","geometry":{"type":"Polygon","coordinates":[[[70.17683312424924,35.892253933572135],[70.18293094320842,35.89103953674521],[70.21099124524972,35.873004462286076],[70.27336469882175,35.85021515600465],[70.25398603722579,35.80541168889829],[70.25042036290938,35.76128001625972],[70.24576948387454,35.744226792832194],[70.23848310740942,35.69456574201536],[70.23832807777853,35.68345530881544],[70.23119673004504,35.67035533333194],[70.2196728856951,35.64591238155117],[70.21548709465367,35.598757636056064],[70.21068118688726,35.585683498994285],[70.2030847511603,35.57653677055549],[70.17828006417358,35.565064602149675],[70.171717157221,35.56111135510491],[70.17016686360984,35.55602122739771],[70.17047692197235,35.544600734935955],[70.17311242120127,35.53994985590111],[70.17672977056242,35.53591909449062],[70.17890018089861,35.531113185824836],[70.17797000491174,35.523775133415654],[70.1724923026776,35.51302643542164],[70.16381066313158,35.50005565024804],[70.15125329000728,35.4884284531106],[70.13513024256662,35.47809316716592],[70.11182417234767,35.47227956814754],[70.09756147688063,35.4718403185758],[70.0874845715557,35.47463084653634],[70.0819035183327,35.47695628470473],[70.07663252077418,35.47600027119552],[70.05952762230191,35.45225495050556],[70.05503177289796,35.44210053171412],[70.03177737772376,35.41564219832878],[69.95731163902087,35.38375783955263],[69.94020673964928,35.37489533105469],[69.92981977686117,35.36644623550535],[69.92160322530856,35.35582672782124],[69.91989790206651,35.34295929633441],[69.96025719571298,35.31407217109381],[69.96986901214518,35.298879298740644],[69.97467492081091,35.288854072057745],[69.97219445211226,35.23578237655539],[69.96490807474783,35.22038279952653],[69.95710493434524,35.20865224870232],[69.919587843704,35.16715607439329],[69.90361982589422,35.15545136199074],[69.87302737831084,35.13940582891587],[69.84062625469784,35.12628001590997],[69.83328820228866,35.122507636018554],[69.82228112187624,35.11863190423895],[69.81607995012956,35.11759837546464],[69.81266930544405,35.11506622992255],[69.80910363112764,35.10938182211339],[69.80693322079145,35.09858144817525],[69.79685631726522,35.08085643207863],[69.77510053885874,35.101371975236475],[69.74192426888987,35.13976756412177],[69.7280749863715,35.15036123338422],[69.7096264989637,35.15860362425781],[69.678000522606,35.164572252007815],[69.63330040918652,35.16875804304925],[69.56405399029939,35.15253164282103],[69.55289188025603,35.15511546520651],[69.50359256374577,35.1534618188079],[69.4838521669439,35.15984385770787],[69.47036461783284,35.15906871225127],[69.4492289570507,35.15434031795127],[69.42985029455542,35.1534618188079],[69.38732059057276,35.166665147078845],[69.33554080626317,35.16984324776763],[69.32184655067772,35.17769806591298],[69.30773888484163,35.181883856954414],[69.29936730275881,35.168215439790686],[69.28334760900492,35.16170421058081],[69.2456754896321,35.1572858755427],[69.24412519692027,35.19206411416752],[69.24800092959919,35.20976329184242],[69.25079145666035,35.32244375317663],[69.26272871305963,35.36735057217112],[69.26350385941555,35.39241364247562],[69.30758385611006,35.403472397932774],[69.33988162603617,35.40243887005778],[69.34840823774994,35.40613373558341],[69.36050052288078,35.4136526560452],[69.37476321834782,35.417786770243254],[69.40287519723256,35.41626231505376],[69.43000532418631,35.43768219757533],[69.43884199426259,35.450394599431206],[69.4456632827343,35.45468374326015],[69.45687706872172,35.45783600552721],[69.50235232939644,35.462125149356154],[69.55614749531065,35.45618235912855],[69.57294233631973,35.462125149356154],[69.69892947781312,35.52907196669787],[69.7489005878918,35.54108673836225],[69.758512404324,35.55276561144382],[69.7634733417213,35.565219630881245],[69.7760307148456,35.61663768178357],[69.77851118444357,35.63746328420319],[69.78238691622317,35.653121242751126],[69.79143029187446,35.67327505070301],[69.8176302428414,35.70557282242777],[69.83266808466436,35.705159410378485],[69.84682742734384,35.7061929391528],[69.86202029789843,35.7097069357265],[69.87085696797465,35.71562388843171],[69.8798486667825,35.72489980718035],[69.89850385886598,35.75549225476374],[69.90641035295539,35.76324372012158],[69.93741621258812,35.775103461255696],[69.9442375019591,35.77967682502543],[69.94857832173216,35.783552557704354],[69.9610323420689,35.80985586235812],[69.97405480318656,35.806135159310145],[69.97653527188527,35.804739895329874],[69.97855065259051,35.80311208825225],[69.97932579894643,35.80029572187004],[69.98010094620167,35.79337107971156],[69.98211632690692,35.7914073758497],[69.98599205868652,35.7917691110556],[70.00273522285221,35.79952057551412],[70.04433475084807,35.8129564477818],[70.11275434833448,35.81931264915943],[70.13559533056002,35.828304347967276],[70.14846276204679,35.83763194445862],[70.1616402527954,35.849646715223685],[70.17156212759011,35.86070547158022],[70.1776599474486,35.872229315930156],[70.17838341696108,35.88142772121233],[70.17621300572563,35.88907583288335],[70.17683312424924,35.892253933572135]]]},"properties":{"adm1_code":"AFG-1769","name":"Parwan","name_alt":"Charikar","name_en":"Parwan","adm0_a3":"AFG"}}