{"type":"Feature","geometry":{"type":"Polygon","coordinates":[[[-77.53799394399994,26.306586005000042],[-77.5423070949999,26.298976955000057],[-77.57274329299992,26.268703518000052],[-77.56704667899993,26.29100169500009],[-77.57217363199993,26.30487702000005],[-77.57933508999992,26.318019924000055],[-77.57957923099991,26.337591864000046],[-77.5703832669999,26.33270905200004],[-77.54356848899994,26.31248607000009],[-77.53799394399994,26.306586005000042]]]},"properties":{"adm1_code":"BHS-5017","name":"Moore's Island","name_alt":"","name_en":"Moore's Island","adm0_a3":"BHS"}}