{"type":"Feature","geometry":{"type":"Polygon","coordinates":[[[-57.3084093839999,3.3949101770000993],[-57.28355301999994,3.343802185000115],[-57.280452433999926,3.3297720340001007],[-57.28277787299996,3.2950454710000656],[-57.28422481399994,3.288792623000063],[-57.292493041999904,3.2762869260000684],[-57.29027095599989,3.2679670210001035],[-57.28401810699998,3.259750468000078],[-57.280452433999926,3.2478132120000396],[-57.281744344999964,3.2359276320000987],[-57.28711869299994,3.215360412000024],[-57.287945516999855,3.203113099000092],[-57.285671752999946,3.1921060180000893],[-57.2749230549999,3.169006653000025],[-57.277713582999866,3.156914368000045],[-57.284173136999925,3.148956197000075],[-57.28603348899992,3.14239329100009],[-57.2749230549999,3.134280091000079],[-57.2648978279999,3.1326264440000386],[-57.25497595199991,3.1358303840001014],[-57.24624263599992,3.141618144000077],[-57.239473022999874,3.1478709920000796],[-57.23761267099988,3.1448737590000633],[-57.237405965999926,3.1439952600000254],[-57.23673417199984,3.143478495000082],[-57.233323526999925,3.1416698200000894],[-57.24856807499995,3.1123692830001204],[-57.239473022999874,3.094127503000081],[-57.2222130939999,3.0782628380000716],[-57.212859659999936,3.056041972000031],[-57.211774455999944,3.048342184000134],[-57.207020223999876,3.0356814580000986],[-57.20598669499989,3.0281366990000436],[-57.209242309999865,3.024054261000046],[-57.22324662299988,3.0247777300000394],[-57.22645056199994,3.021263733000083],[-57.224693562999875,3.009171448000089],[-57.22179968299989,3.0004381310001094],[-57.221179564999915,2.9925833130000825],[-57.22645056199994,2.9833849080000903],[-57.23461543799996,2.9703624480000457],[-57.221851358999885,2.9630243940000582],[-57.188623412999874,2.959510397000102],[-57.183817504999865,2.9446792610000756],[-57.19472123199992,2.9306232710000586],[-57.210327514999875,2.9182209270000783],[-57.21962927299998,2.908299052000089],[-57.20634842999988,2.8565709430000368],[-57.202265991999866,2.846235657000122],[-57.19425614499991,2.8419981890000656],[-57.19105220599994,2.832593078000116],[-57.186608031999924,2.8232396440000684],[-57.17461909999986,2.818950501000103],[-57.165265665999925,2.8210692340000776],[-57.145215209999975,2.8304226690001144],[-57.13338130699995,2.832593078000116],[-57.126404988999866,2.826030171000127],[-57.14366491699985,2.7900116980000433],[-57.13705033399995,2.7711498010001208],[-57.13374304299995,2.7734235640000406],[-57.09953324399996,2.778591207000133],[-57.089869750999924,2.7738886520000676],[-57.09214351499995,2.7630366010001097],[-57.09901647999993,2.750375875000074],[-57.102943887999885,2.740454000000085],[-57.097724568999865,2.72737986200012],[-57.071886352999854,2.7000947070001047],[-57.061964477999936,2.681749573000033],[-57.05597001199993,2.6423721310000303],[-57.04801184099995,2.6364810180000404],[-57.027237914999915,2.6482115680001073],[-57.02046830299989,2.6354474890000574],[-57.023155476999904,2.623665263000049],[-57.027909708999914,2.6105911250000986],[-57.027237914999915,2.593589580000071],[-57.02238033099991,2.58454620400002],[-56.99711055599994,2.555142314000122],[-56.99530188099993,2.547855937000051],[-57.000572875999865,2.5141629030000985],[-56.99411332199992,2.504861146000067],[-56.980005655999975,2.5097187300000883],[-56.95959346499993,2.524704895000056],[-56.951273559999976,2.5154548140000514],[-56.95261714699993,2.5045510860000775],[-56.95752640899988,2.4934923300000804],[-56.95959346499993,2.483777161000134],[-56.95636368899994,2.470031230000103],[-56.951635294999875,2.4612462360001075],[-56.93507299799998,2.445898336000141],[-56.93024125199986,2.4361831670001095],[-56.93202408899995,2.425796204000079],[-56.93845780399991,2.411430155000076],[-56.93083553099993,2.393291728000051],[-56.8950496009999,2.3620791630000753],[-56.88388749199987,2.3397549440001058],[-56.884430093999924,2.3037364710001214],[-56.88014095099996,2.294796448000085],[-56.87086503099994,2.290145569000032],[-56.84779150399996,2.2858564250000626],[-56.83887731899995,2.2811021930000663],[-56.8261907559999,2.2616718550000883],[-56.816346395999915,2.21759185800002],[-56.80874995999994,2.1957844040000936],[-56.80146358199997,2.165967103000085],[-56.70519038899991,2.0296446740000533],[-56.677801879999976,2.018405050000098],[-56.57977168799994,2.0168030800000594],[-56.5420737309999,1.9971660360001238],[-56.53649267599988,1.9886394250001018],[-56.52938716699995,1.9817922980000446],[-56.52096390899996,1.9767280070000766],[-56.49998327699987,1.9699842320000442],[-56.491198282999875,1.962904562000105],[-56.48510046399991,1.9532152310000868],[-56.481819010999914,1.9416138710001292],[-56.5285086669999,1.9240180460000573],[-56.558920247999964,1.9066547650000416],[-56.574862426999914,1.905466207000103],[-56.59010697499994,1.9129851280000594],[-56.604421345999924,1.9245864870000986],[-56.62023433399992,1.9345600390001039],[-56.63956132099989,1.936859639000133],[-56.656407836999875,1.9300641880000882],[-56.669662841999866,1.9198580940001193],[-56.68395137599995,1.9121066280001031],[-56.70410518499992,1.9128300990001037],[-56.724155639999964,1.916137391000106],[-56.737643188999925,1.9129851280000594],[-56.78063798099993,1.8790595500001217],[-56.79273026599989,1.8735301720001303],[-56.80647619699994,1.8735818480000432],[-56.877634643999954,1.8856482950001237],[-56.890708780999915,1.890195821000063],[-56.906831827999895,1.9032441210000997],[-56.9134464119999,1.9128300990001037],[-56.92192134699991,1.9181010940000505],[-56.94352209499996,1.9182561240000808],[-56.97685339399993,1.91458709700008],[-56.99323482299988,1.9148454790000642],[-57.01116654499995,1.9185661820000632],[-57.037469848999905,1.9323896280001236],[-57.05597001199993,1.9480734250000893],[-57.06780391499984,1.9686923220000807],[-57.07405676299993,1.9971660360001238],[-57.10449418199991,2.021453959000027],[-57.152914998999876,2.002204488000089],[-57.23843949399989,1.948538513000102],[-57.25864497899988,1.9522333780001162],[-57.294818481999926,1.9748418170000548],[-57.3194164629999,1.977141419000077],[-57.34148229999991,1.9688473510001216],[-57.35615840699998,1.9552822870000455],[-57.368767456999905,1.9396501670000958],[-57.38452876799991,1.925206604000067],[-57.40556107599991,1.9142770390000976],[-57.4195137129999,1.9091869100001162],[-57.42948726499992,1.9002985640000958],[-57.45429195199995,1.8338168340000465],[-57.46478226699989,1.8157300820001154],[-57.53128983599987,1.7315491750000547],[-57.56115881399998,1.7089665730000263],[-57.60787430899998,1.6971068320000882],[-57.638570108999915,1.6961766560001337],[-57.72311275299998,1.711653748000046],[-57.758821166999894,1.7134624230000384],[-57.79075720299997,1.704935812000116],[-57.87147578999989,1.6692532350000278],[-57.9053755299999,1.6485568240000958],[-57.922222046999906,1.6424848430001475],[-57.93901688699995,1.6433116660000735],[-57.969144246999946,1.6554814650000793],[-57.98500891099985,1.6577035530000899],[-57.991003376999885,1.6504171750001007],[-57.98976314299995,1.6346041870001073],[-57.98392370699986,1.6041150920001286],[-57.986972615999974,1.5868293260000428],[-57.993587198999876,1.5684841920001418],[-58.01115718599996,1.5361864220000712],[-58.027228556999916,1.516859436000118],[-58.06913814299992,1.5090046180000911],[-58.116422078999875,1.510554912000103],[-58.1486164959999,1.519081523000125],[-58.155541137999876,1.5273755900000765],[-58.16287919199988,1.549183045000106],[-58.1706306559999,1.558820700000112],[-58.187270466999905,1.5676056930001039],[-58.19776078299995,1.5659003710000547],[-58.206959187999956,1.559957580000031],[-58.219671589999905,1.556056010000077],[-58.23858516499985,1.5567019650000447],[-58.2605476489999,1.5603193150001289],[-58.281993367999945,1.566572164000121],[-58.299201619999906,1.5751762900000728],[-58.306332967999964,1.5827727260001296],[-58.316151489999925,1.59889577200002],[-58.320492309999906,1.6012212110000519],[-58.3319128009999,1.5933922330001167],[-58.338734089999946,1.5801889040001242],[-58.34426346899997,1.5654869590000402],[-58.351394815999896,1.553317159000116],[-58.360283162999906,1.5473743700001137],[-58.383124144999925,1.5372199510000542],[-58.390255492999955,1.530760397000094],[-58.39170243399985,1.5208385220001048],[-58.385914672999974,1.499728699000073],[-58.386379760999915,1.4901943970000815],[-58.41345821199988,1.4720301310000394],[-58.426430232999905,1.46980534700009],[-58.49887935399997,1.4573798630000567],[-58.501754346086216,1.453781096020748],[-58.50200497095261,1.4544076599855202],[-58.50215999968424,1.45479523451246],[-58.49350419766057,1.5137580433989797],[-58.48528764520864,1.5365731881021247],[-58.45014767137792,1.587009386174202],[-58.406920336304495,1.6307534860845294],[-58.39568071099603,1.6468248557824836],[-58.345192836979834,1.7653705920791367],[-58.30354163303991,1.827744044751853],[-58.26710974801642,1.897119655747531],[-58.107998013397605,2.341614488218056],[-58.03932003439206,2.474500434347533],[-58.026788499689474,2.5087877474565516],[-58.022421840595484,2.5277271594808326],[-58.02027726868101,2.5483718938477864],[-58.01999304874022,2.577930813556179],[-58.030870937943405,2.706553453379172],[-58.030483364315785,2.7213070743619596],[-58.02849382203226,2.735337225832268],[-58.026400926061854,2.742959499980941],[-58.010691290670536,2.7728284771524727],[-57.932401496132115,2.878274237066364],[-57.928913337080814,2.8857156440616905],[-57.93216895213544,2.9050426288142717],[-57.99505916964495,3.053689887178564],[-58.10045325361477,3.204430039714566],[-58.11120195160879,3.234996649775553],[-58.11693803626133,3.2638579374938104],[-58.1194701809041,3.2910914172351227],[-58.11445756666336,3.3367992210072543],[-58.11461259629425,3.3554285755682827],[-58.149029099713175,3.489012152788632],[-58.148796555716444,3.512059841488508],[-58.151587083676986,3.5344098981982484],[-58.15698727064603,3.5490860048152513],[-58.18905249657547,3.614482530344503],[-58.2821734282611,3.7525877953904114],[-58.290054083928794,3.7686333284653415],[-58.29783138680904,3.7900532091882155],[-58.329224820069385,3.918701687432929],[-58.331188523931246,3.9361424826894336],[-58.33129187671875,3.9492682974939157],[-58.32413469056348,3.9778195259503377],[-58.32328202984178,3.991617133423972],[-58.32390214656681,3.9998595242976194],[-58.36441646984417,4.138817450065233],[-58.42516211633858,4.222688300524624],[-58.43994157574309,4.251239528981046],[-58.436169195851676,4.272556056916471],[-58.396094123045316,4.381412462415199],[-58.378369106948696,4.4474549421918255],[-58.29305131656503,4.596644802015987],[-58.2821734282611,4.6342652454447375],[-58.11469011066009,4.637908433227608],[-58.08396847186748,4.64413544429533],[-58.06603675019585,4.653979803824882],[-58.026478441327015,4.767177029096615],[-58.01154395229156,4.829550483567971],[-57.99549842011601,4.870684923570366],[-57.970228644236556,4.90543732287415],[-57.87243099599368,5.014758816366282],[-57.823157517905145,5.1436140001859485],[-57.80259029790392,5.180330105150233],[-57.77008582240279,5.223221544338799],[-57.746082119294385,5.28608592432596],[-57.73029496863791,5.313836168004741],[-57.69841061076107,5.347296657914399],[-57.69236446774596,5.362256985371573],[-57.68792029518545,5.383986925356282],[-57.679936285830934,5.479717515151208],[-57.626321987969334,5.702701321009158],[-57.60779598709513,5.748486640046394],[-57.60601315038656,5.756238105404236],[-57.60637488469314,5.765100613002858],[-57.6075892806208,5.773782253448246],[-57.62298885764966,5.788355007277744],[-57.63642472991734,5.79137807923496],[-57.65231523336132,5.8087671985473435],[-57.68295935688883,5.875042223220021],[-57.67978125709931,5.908786933070473],[-57.68412207687237,5.956561794391291],[-57.689418911053906,5.980462143812872],[-57.70647213358211,6.0080056828160195],[-57.69432817160782,6.019813748006072],[-57.68192582901378,6.025317287762618],[-57.6730891589375,6.027797756461268],[-57.666061163991515,6.027332668467864],[-57.66128109374745,6.025084743765888],[-57.65732784670274,6.0222167023389375],[-57.649473028557395,6.014775295343611],[-57.64363359201667,6.011183783504805],[-57.63823340504757,6.0108737251422895],[-57.632936570866036,6.012501532219915],[-57.628492398305525,6.01606720653632],[-57.623453945643064,6.0214415550836975],[-57.602654181645164,6.058364366522312],[-57.597848272979434,6.074435737119586],[-57.59738318498597,6.080094306507021],[-57.59852006744717,6.085055243005058],[-57.601103888933324,6.089241034046495],[-57.608338588555,6.095907293786581],[-57.61252437959644,6.0986461449036256],[-57.61629676038717,6.101901759958253],[-57.61864803697733,6.1061650662647935],[-57.62647701670096,6.138359483403406],[-57.6276397366845,6.153164781229634],[-57.625365973560804,6.165903022406553],[-57.62143856493782,6.17256928124732],[-57.61585750991617,6.1786929395275365],[-57.610767381309586,6.181638495320271],[-57.605548062393154,6.183808904757143],[-57.59436011392813,6.185927639149213],[-57.58831397181234,6.186392727142618],[-57.55418168833427,6.192283840526784],[-57.539660611348154,6.19646963156822],[-57.52929948608244,6.202515774583333],[-57.52446773899493,6.208019314339879],[-57.522452359189,6.214478868504955],[-57.52278825507392,6.220369980989801],[-57.52842098693901,6.241324775517967],[-57.524390224629144,6.259540717130392],[-57.51909339134693,6.270961208692825],[-57.52042734224801,6.277992549116846],[-57.51869212199995,6.287130867000087],[-57.517041976999906,6.298223379000092],[-57.517037168999934,6.3150759830000425],[-57.5041918309999,6.32903953400006],[-57.4942612719999,6.334821824000073],[-57.490632656999935,6.338920939000047],[-57.48607043299995,6.339505005000092],[-57.4663702279999,6.3379061980000415],[-57.44559134699995,6.3303664510000885],[-57.428944809999905,6.3227505810000935],[-57.408800535999944,6.312764897000079],[-57.37743079299992,6.294338283000059],[-57.36504404699991,6.287483771000041],[-57.330466189999925,6.264391639000053],[-57.28982366999992,6.234738597000046],[-57.20749372999995,6.1513778360000515],[-57.18665981799995,6.121188246000088],[-57.167307094999956,6.085109768000052],[-57.15843665299991,6.04437897300005],[-57.15535746899991,6.0196669010000505],[-57.15188838499995,6.007802647000062],[-57.14675216699993,5.99758987000007],[-57.14443593499993,5.989022398000088],[-57.14361322499991,5.977984624000044],[-57.158314581999946,5.998928127000056],[-57.16576087099992,6.005682684000078],[-57.1479260239999,5.96991618900006],[-57.141964524999935,5.955741944000067],[-57.141683996999916,5.93417812000007],[-57.14000403599994,5.917914130000042],[-57.13725897599994,5.882091552000077],[-57.15367591099994,5.84711334800005],[-57.158192511999914,5.8285993510000935],[-57.16543535099993,5.811346747000073],[-57.1700205759999,5.799621837000075],[-57.17061466799993,5.779035644000089],[-57.18067573399992,5.754928247000066],[-57.18305467199991,5.731410052000058],[-57.15957320399991,5.69291198500008],[-57.16151750599994,5.638905690000058],[-57.1733287859999,5.607472667000081],[-57.185658331999946,5.58734772300005],[-57.196929490999935,5.56476471600007],[-57.24767005099994,5.491848049000055],[-57.24767005099994,5.484930731000077],[-57.25693965699992,5.464086202000104],[-57.260091918999876,5.448195699000095],[-57.2612288009999,5.426749980000068],[-57.26520788599987,5.403366395000106],[-57.27549149599989,5.387398377000068],[-57.32411901899988,5.3385899870001055],[-57.332283894999904,5.32786712700009],[-57.33569453899992,5.316885885000104],[-57.33171545499994,5.307609965000097],[-57.32282710799993,5.307609965000097],[-57.3084093839999,5.313475240000088],[-57.29833247899998,5.311020610000114],[-57.29202795499987,5.311330668000011],[-57.28882401599989,5.3085401410000514],[-57.28727372299997,5.238699442000069],[-57.28546504799988,5.230818787000118],[-57.280452433999926,5.225341085000139],[-57.27166743999993,5.222860616000062],[-57.26303747599988,5.22399749700007],[-57.25642289299989,5.2282866410000395],[-57.253787394999875,5.234927063000043],[-57.26401932799985,5.247045186000136],[-57.26918697199994,5.25670867900007],[-57.26742997299988,5.266294657000074],[-57.25900671399998,5.271203919000101],[-57.2476378989999,5.271772360000057],[-57.23761267099988,5.268723450000039],[-57.233323526999925,5.262573954000061],[-57.23252170199993,5.260572120000077],[-57.22572709199994,5.243608704000096],[-57.19239579299989,5.203171896000114],[-57.184902709999875,5.183147278000078],[-57.18981197199989,5.169220480000092],[-57.20200760899991,5.157619121000039],[-57.217768921999976,5.148549907000074],[-57.233323526999925,5.142116191000127],[-57.23874955299988,5.1620116170001324],[-57.24727616399991,5.17237274200005],[-57.25993688999995,5.176300150000117],[-57.277713582999866,5.176920268000089],[-57.288979044999934,5.171029155000085],[-57.29554195199992,5.1572057090000385],[-57.302208211999925,5.128473612000022],[-57.317091023999865,5.0947547410000595],[-57.32019160999991,5.0834117640000756],[-57.32143184399985,5.070156759000071],[-57.31693599499994,5.058968811000042],[-57.280452433999926,5.026102600000101],[-57.290477660999926,5.020289001000037],[-57.298694214999955,5.021115824000049],[-57.30649735599991,5.024448955000054],[-57.31523067199987,5.026102600000101],[-57.32944169199993,5.024087220000055],[-57.33807165499988,5.02075408900015],[-57.345513060999906,5.0166199750001255],[-57.35621008399991,5.012434184000085],[-57.381376505999924,5.005742086000069],[-57.460493122999935,4.997628886000072],[-57.47733963999991,4.992487081000078],[-57.490258748999935,4.991350199000067],[-57.49687333199992,4.994657491000069],[-57.512221232999906,5.0091527310001],[-57.51759558099985,5.012434184000085],[-57.54327876799994,5.01109059700012],[-57.566223103999874,5.007085673000049],[-57.610096394999886,4.991350199000067],[-57.649370482999956,5.008429260000099],[-57.68693924999988,5.006258851000027],[-57.720477253999974,4.98979990600013],[-57.74729732299997,4.964013367000035],[-57.762335164999854,4.935539653000092],[-57.77396236199991,4.926444601000128],[-57.79845699099988,4.9230597950001],[-57.810962687999876,4.925540263000087],[-57.820574503999865,4.930294495000069],[-57.83023799599991,4.9330591840000295],[-57.84279536999992,4.929881083000069],[-57.850340128999875,4.922801412000041],[-57.87070064399998,4.888927511000134],[-57.884188191999954,4.872261861000098],[-57.902429972999926,4.852728170000091],[-57.918501342999974,4.829757996000055],[-57.92537430899995,4.796142476000028],[-57.91782954999991,4.782370707000084],[-57.90113806199986,4.773921611000091],[-57.88454992699985,4.762862854000076],[-57.871165730999905,4.721728414000012],[-57.84434566299993,4.687518616000105],[-57.836025756999874,4.669845276000018],[-57.837421020999955,4.650880025000063],[-57.84543086799994,4.633516744000133],[-57.86331091399998,4.607730204000035],[-57.879123901999975,4.556828918000093],[-57.89607377099989,4.528510234000109],[-57.914470580999875,4.484068502000127],[-57.921860310999904,4.450943909000031],[-57.93131709799988,4.437843933000067],[-57.94278926699988,4.425105693000106],[-57.95265946399988,4.409731954000037],[-57.95663854999995,4.391438497000067],[-57.95348628799988,4.375703024000089],[-57.9480602619999,4.360484314000061],[-57.945269734999954,4.3439220180000575],[-57.94738846899992,4.318755595000113],[-57.95384802299989,4.299015198000049],[-57.96495845599989,4.282039490000045],[-58.05203324399986,4.19310435000007],[-58.065934203999944,4.171839498000097],[-58.067691202999924,4.151143087000079],[-58.05508215299989,4.108070780000077],[-58.042008015999926,4.023037211000073],[-58.03213781699995,3.987716370000072],[-58.00790157099996,3.9572789510000916],[-57.94211747299991,3.905447490000114],[-57.925839396999976,3.8864047240000446],[-57.8751448159999,3.812197368000085],[-57.85385412699992,3.7666704300001044],[-57.84961665899996,3.747472636000097],[-57.84692948499992,3.7021007290000654],[-57.84098669399992,3.680990906000119],[-57.82977290899987,3.66243906600009],[-57.81313309799995,3.6518453980001055],[-57.764247192999875,3.6315882360000984],[-57.7261099859999,3.607196961000085],[-57.72249263599991,3.5999622600000265],[-57.717480021999876,3.582443950000055],[-57.70952185099989,3.567690329000044],[-57.708643351999854,3.564124654000082],[-57.7073514409999,3.5606623340001278],[-57.70285559099989,3.5556755580000754],[-57.697998005999864,3.553608500000024],[-57.687249307999934,3.5521615600000302],[-57.685130574999874,3.5491643270001134],[-57.68125484199993,3.5473039760001086],[-57.66042924099986,3.5351858520000263],[-57.64404781199991,3.5166598510000853],[-57.645494751999905,3.4989865110000835],[-57.66068762199993,3.4695051070000744],[-57.660532592999886,3.462993877000102],[-57.658362182999895,3.450617371000135],[-57.658930623999936,3.44389943500002],[-57.663994913999915,3.4258385210001023],[-57.66461503199989,3.4175444540000512],[-57.66254797399992,3.407079976000105],[-57.65820715299995,3.3952202350000817],[-57.65484818599995,3.390130107000104],[-57.64993892399991,3.38594431500006],[-57.6414639889999,3.3824303180000186],[-57.61324865799995,3.376642558000043],[-57.59640214099997,3.367237447000079],[-57.596192593999945,3.3671207240001024],[-57.565137898999865,3.349822490000051],[-57.554234171999894,3.3467477420000193],[-57.545035766999916,3.348143006000086],[-57.535268920999954,3.367780050000121],[-57.522401489999964,3.365247904000043],[-57.509637410999886,3.3576773070000883],[-57.50390132699994,3.3533364870001066],[-57.49583980399984,3.352974752000108],[-57.4879849859999,3.351527812000114],[-57.48204219599998,3.348556417000097],[-57.479716755999874,3.343388774000104],[-57.47625443599992,3.338944601000094],[-57.46876135299988,3.3431820680001323],[-57.46168168199995,3.349977518000088],[-57.459201212999886,3.3533364870001066],[-57.430934204999915,3.360622864000078],[-57.423957886999915,3.3693820190000707],[-57.42504309099991,3.387494609000086],[-57.39346879099992,3.3738261930000704],[-57.366752075999955,3.3656096390000414],[-57.340035359999916,3.3701571660000695],[-57.3084093839999,3.3949101770000993]]]},"properties":{"adm1_code":"GUY-671","name":"Mahaica-Berbice","name_alt":"","name_en":"Mahaica-Berbice","adm0_a3":"GUY"}}