{"type":"Feature","geometry":{"type":"Polygon","coordinates":[[[15.549748078810751,45.82369277989784],[15.58729618300012,45.81921987000008],[15.62605350800007,45.82020172100003],[15.645587199000062,45.82412913000009],[15.666051066000136,45.83167389000006],[15.676076294000069,45.84169911700009],[15.675456177000086,45.855961813000064],[15.663673950000089,45.87606394500001],[15.659436483000036,45.88882802400009],[15.663363892000092,45.90081695600004],[15.670391887000108,45.91265085900007],[15.675559530000015,45.92515655600006],[15.67710982200012,45.94179636600008],[15.675380807000067,45.972486394000086],[15.692923618130465,45.97218130072645],[15.763668653785317,45.968305568946846],[15.784339226574048,45.970992744119826],[15.797361687691705,45.977710679804034],[15.81441491111923,45.98220652920793],[15.822476433940267,45.98205150047636],[15.828212517693544,45.98024282534607],[15.836480746988855,45.97672882697378],[15.849503208106569,45.97285309519418],[15.911876661678605,45.96024404612581],[15.919628127036447,45.95709178295937],[15.925829298783071,45.95290599191799],[15.93528608558438,45.94096873641803],[15.939471876625817,45.93383738958386],[15.913581984021334,45.923502101840484],[15.86144046360647,45.9154405790195],[15.847022739407862,45.91482046229447],[15.828677605686948,45.91554393180701],[15.820616081966591,45.91368357983333],[15.81674035018699,45.91016958325963],[15.81751549564359,45.905053616231385],[15.819375847617266,45.89905915005971],[15.820461053235022,45.89203115511367],[15.819530877248155,45.88526154168676],[15.81425988058902,45.8779751652217],[15.806353387398872,45.87482290295458],[15.781393669881936,45.871722317530896],[15.77452070456684,45.86934520072043],[15.771420119143158,45.86753652648946],[15.770800002418184,45.864384264222394],[15.770800002418184,45.861128648268505],[15.765839064121508,45.846297512020556],[15.768112827245147,45.844178779427125],[15.774003940629314,45.84076813384229],[15.810074090446903,45.84097484031662],[15.822579786727772,45.832964993439646],[15.846919385721037,45.80940053990298],[15.835912306207945,45.79803172518393],[15.813240815611152,45.77571713773568],[15.833690985250769,45.755266968096066],[15.813240815611152,45.72459171453596],[15.78242719865625,45.73808706346716],[15.774210646204324,45.72573639591792],[15.770800002418184,45.71581452112321],[15.770024855162944,45.71018179015749],[15.770334914424723,45.70553091112265],[15.77204023586819,45.702120266437134],[15.773125440586625,45.700363268150284],[15.777362909370765,45.69659088825887],[15.784804314567452,45.69137156844312],[15.81270958787718,45.67690216740107],[15.874617954355074,45.65726512338671],[15.881284214095217,45.65416453706371],[15.887175326580063,45.65080556922163],[15.891567824095773,45.64692983744203],[15.894461703944444,45.64264069271377],[15.896683791124019,45.63819652015326],[15.89978437744702,45.63364899390592],[15.903970167589137,45.63018667327634],[15.921488478110746,45.62238353107506],[15.938498102405504,45.642791036876815],[15.94616691647002,45.69391646007654],[15.966617085210316,45.716922900471445],[16.089318101249376,45.77316086608107],[16.138116081691805,45.808315335184545],[16.14152672727664,45.807695217560195],[16.16979373489295,45.79524119722345],[16.18715701668293,45.79022858298271],[16.189792515012527,45.791158758969516],[16.19196292534872,45.79400096287412],[16.1950635107724,45.802320869012874],[16.201729771411806,45.81270783090167],[16.202349888136837,45.81394806615032],[16.204675327204598,45.82076935552129],[16.206535679178216,45.830122789535096],[16.207465855165083,45.832603258233746],[16.209016147876923,45.83503205008901],[16.224519076793968,45.84696930648829],[16.226844516761048,45.84960480391857],[16.224674107324176,45.85528921172772],[16.218627964309064,45.864022529016495],[16.18219607928563,45.89895579727221],[16.176615024263924,45.906242173737326],[16.163230828839687,45.933372300691076],[16.13625573061745,45.970372626495475],[16.166021355900853,45.97833079742833],[16.169121942223853,45.980397854077694],[16.172067498016588,45.982878322776344],[16.171447381291614,45.984066881181604],[16.169897087680454,45.985203761844105],[16.164471063189012,45.988666083373005],[16.16307579920874,45.990991523340085],[16.16230065285282,45.994092108763766],[16.162765740846226,46.00003489809205],[16.164005975195607,46.0024120140032],[16.165091179913986,46.00380727798347],[16.166951531887662,46.00396230671504],[16.17020714694229,46.0040139844578],[16.1742379092521,46.00360057240846],[16.17832034660671,46.00272207326503],[16.184366488722446,46.000655015716404],[16.187622104676393,46.000448310141394],[16.192117954080288,46.00070669255979],[16.201729771411806,46.002360338059134],[16.204675327204598,46.00422068913349],[16.204675327204598,46.006597805044635],[16.201729771411806,46.009336656161736],[16.198939242552,46.011455390553806],[16.189792515012527,46.01620962237615],[16.188087191770478,46.01806997345051],[16.186226840696122,46.022049058916934],[16.189792515012527,46.024322822040574],[16.204830356835487,46.03021393542474],[16.208085971890057,46.03336619679254],[16.208396030252572,46.03636343032804],[16.205450473560518,46.03894725181419],[16.202659945599976,46.04070425100036],[16.198939242552,46.042461249287214],[16.193358189328933,46.04426992441745],[16.19041263173756,46.046285305122694],[16.188242222300687,46.049385891445695],[16.18793216303885,46.05527700482986],[16.19041263173756,46.05853261988449],[16.194133334785533,46.05997955980882],[16.198629185088805,46.05987620702132],[16.213201938918303,46.05687897438514],[16.21723270032885,46.05667226791081],[16.220643345014366,46.05703400311671],[16.234647658062954,46.0625633821943],[16.238678420372764,46.06359691006929],[16.240073682554396,46.06375193880092],[16.241779005796445,46.0637002628568],[16.255886671632595,46.06106476542658],[16.27138960144896,46.04308136691151],[16.274335158141014,46.03899892775826],[16.27867597791402,46.0263382018465],[16.28162153460613,46.022204088547824],[16.2852388848666,46.01843170775709],[16.290974968619878,46.01424591671565],[16.293765495681043,46.012798976791316],[16.300431756320506,46.012592272115626],[16.311903923827003,46.01362579999068],[16.328492059261123,46.02008535415575],[16.35923953557608,46.02463288040309],[16.432775099191474,46.00804474496897],[16.443627149972997,46.004065660401864],[16.459801873357776,45.9874775249678],[16.467863397078077,45.98075958928359],[16.470033807414268,45.97864085489152],[16.47158410012611,45.97641876951059],[16.471894159387944,45.97419668233101],[16.471119012132704,45.97187124326325],[16.468793573064943,45.96680695217907],[16.466933221091267,45.9608124860074],[16.469413689789917,45.95884878214554],[16.47530480317414,45.95812531173374],[16.488792352285202,45.96070913321989],[16.49592370001875,45.96411977790541],[16.499644403066725,45.966290188241544],[16.502744989389726,45.970992744119826],[16.50476037009497,45.9735248887626],[16.507550897156136,45.97595368151718],[16.510238071429853,45.97760732701653],[16.514113804108774,45.97765900296059],[16.519849887861994,45.97548859352372],[16.545274691573752,45.95709178295937],[16.551165805857238,45.953629462329786],[16.589509718798467,45.93797150288253],[16.59571088964583,45.93383738958386],[16.59958662322407,45.93006500879312],[16.60113691593591,45.92696442336944],[16.603772414265507,45.92572418902006],[16.607648146045108,45.92541412975828],[16.61617475775887,45.927171128944394],[16.622272576718046,45.92711945210101],[16.630334100438347,45.92381216110232],[16.634519890580464,45.921021633141834],[16.640876091958035,45.91962637006088],[16.648472527684987,45.92034984047274],[16.678083123337444,45.92908315686219],[16.692552524379494,45.92422557225234],[16.691622349291947,45.91383860946422],[16.691777378023573,45.904123440244575],[16.69596316906501,45.87265249351776],[16.695653109803175,45.86639964492764],[16.69363772999725,45.85368724217244],[16.688366733338057,45.83916616518633],[16.674052361926954,45.82614370406867],[16.6664559262,45.82231964823313],[16.65792931538556,45.820149237897],[16.6449068542679,45.820149237897],[16.637465448171895,45.82252635380814],[16.63389977385549,45.826350410543],[16.634519890580464,45.831052965521906],[16.636690300916655,45.83601390201994],[16.63715538891006,45.84081981068567],[16.634209832217948,45.8444371609462],[16.628628778095617,45.844747219308715],[16.622065871143036,45.841853339460044],[16.60051679921088,45.81730703399239],[16.59803632961291,45.810227363102285],[16.59865644723726,45.80185578101947],[16.60175703266094,45.786766262353126],[16.599276563962235,45.78165029622414],[16.5932304218465,45.77984162019459],[16.56031253429603,45.788678290270866],[16.531787144261273,45.788419907852415],[16.523570590910026,45.785577703947865],[16.512718540128503,45.772451890941966],[16.49669884637467,45.76506216079008],[16.454014112761058,45.800615545770825],[16.442386915623615,45.81425812451283],[16.440061475656535,45.820459296259514],[16.4371159198638,45.82252635380814],[16.433705275178284,45.823094793689734],[16.431069776848688,45.82247467696476],[16.42920942577439,45.82149282503383],[16.428124220156633,45.820149237897],[16.423783400383627,45.81322459573846],[16.42207807804084,45.811777655814126],[16.381563754763476,45.81203603823258],[16.384199253093016,45.80438792656156],[16.384974399448936,45.79994375310167],[16.385129429079882,45.79544790279846],[16.384199253093016,45.789453437526106],[16.376912875728635,45.768989570312385],[16.373192172680604,45.74904246703619],[16.37257205595563,45.747388821536845],[16.37024661598855,45.745115058413205],[16.366370884208948,45.74361644074611],[16.347147251344552,45.73948232744743],[16.34404666502155,45.7395340033915],[16.337018670075565,45.74108429610334],[16.31996544844668,45.74826731978095],[16.315004510150004,45.747802231787546],[16.309888543121758,45.74459829447568],[16.29392052621131,45.72785513030999],[16.291129998250824,45.720827135364004],[16.289579704639664,45.71131867081999],[16.29624596527907,45.684601955915525],[16.292060174237633,45.67173452442876],[16.297331169997506,45.64227895840719],[16.278210889920615,45.61303009706131],[16.264878371339762,45.60450348624687],[16.237903273117524,45.59675202088903],[16.227051222336,45.59835399044425],[16.218627964309064,45.60300486947909],[16.21180667493809,45.60796580687645],[16.204210239211136,45.61147980434947],[16.19754398037037,45.61334015632315],[16.187312046313878,45.61427033141064],[16.18312625527244,45.61571727223429],[16.179715609687605,45.61902456323298],[16.171654086866624,45.628739732452686],[16.16137047686601,45.63318390591252],[16.15361901240749,45.63437246431778],[16.147882927754893,45.63411408100001],[16.14168175600821,45.63230540586977],[16.137961052960236,45.62992828995857],[16.121527948056325,45.61690582884091],[16.092795850647974,45.60062775356795],[16.085509474182857,45.598250636757484],[16.075897657750716,45.59732046256926],[16.054296908975175,45.59912913680017],[16.049180941946872,45.597475491300884],[16.046390414885707,45.59401316977193],[16.045770298160733,45.589155585162075],[16.047010531610738,45.58383291345814],[16.049491001208708,45.58104238549765],[16.05336673298831,45.57944041594243],[16.0621000511764,45.577218328762854],[16.066750929311922,45.57463450817596],[16.068921339648114,45.57117218754638],[16.069231398010572,45.56383413333856],[16.070316602729008,45.559855047872134],[16.072797072327035,45.55644440408594],[16.07651777537501,45.55360220018139],[16.093570997903214,45.54399038284987],[16.09946211128738,45.53877106393344],[16.101942579986087,45.533293361699236],[16.10178755125446,45.51851390229473],[16.10333784306698,45.51448314088424],[16.106903517383387,45.511330877717796],[16.108763869357063,45.50931549701255],[16.110779250062308,45.50636994121976],[16.10907392682026,45.50450958924614],[16.106128371027467,45.50373444289022],[16.093570997903214,45.504612942033646],[16.081323683141477,45.502442531697454],[16.074502393770445,45.49965200553561],[16.046545443617333,45.47588084642388],[16.03724368734629,45.482030341327174],[16.032902865774645,45.48389069330085],[16.025306430947012,45.485647690688324],[16.01522952562209,45.486112779581106],[16.007426385219503,45.48523428043768],[15.999984979123496,45.48115184218375],[15.992078485034028,45.47531240474365],[15.97781578866767,45.47272858325749],[15.935906203208674,45.47479564080618],[15.927689649857427,45.48420075076399],[15.928309766582458,45.49639638958166],[15.928774854575863,45.50001373984219],[15.928464797112667,45.50311432616519],[15.922883742091017,45.51127920177373],[15.90231652208979,45.52766063073352],[15.902264845246407,45.527712307576905],[15.8747729830867,45.53107127541898],[15.871827427293908,45.53241486345519],[15.868261752977503,45.53479197936633],[15.868881869702534,45.53794424073408],[15.868726840970908,45.54161326783799],[15.867486606621583,45.544868882892615],[15.864386021197902,45.547349352490585],[15.85989017089463,45.548951321146546],[15.85430911587298,45.549881497133356],[15.839736362043482,45.546005764454435],[15.812864618407389,45.523423162848644],[15.799842157289731,45.520942695049314],[15.789300163971348,45.51985749033088],[15.784029168211532,45.52063263578748],[15.7799467299576,45.52254466370522],[15.760878126724151,45.540838121482125],[15.7552970717025,45.54512726531101],[15.740879346604572,45.55422231690636],[15.739174025161105,45.558924871885324],[15.742429640215732,45.563110662926704],[15.748010695237383,45.56688304281812],[15.751576368654469,45.571275540333886],[15.752351515010389,45.57633983051875],[15.747390577613032,45.59520172817719],[15.745995313632818,45.59690705051992],[15.743979932927573,45.59742381445744],[15.734213087763749,45.589982408361436],[15.73157759033353,45.588587145280485],[15.726720004824358,45.58874217401211],[15.720518833077676,45.59039582041078],[15.709046664671803,45.59566681617059],[15.699589877870551,45.5988707552811],[15.689668003075894,45.60124787029298],[15.663261345634567,45.60486522145277],[15.626364372617672,45.62140167914413],[15.62016320177031,45.62305532554279],[15.612205030837515,45.624088854317165],[15.600577833700072,45.62295197185597],[15.59360151469815,45.62047150315732],[15.588330518938278,45.61700918252774],[15.585074903883708,45.613856920260616],[15.5756181170824,45.6023847518548],[15.568021681355503,45.60202301754822],[15.557428012992375,45.60543366133436],[15.531073032394488,45.61928294475206],[15.513709750604505,45.632357082713156],[15.51169436989926,45.63607778576119],[15.511384312436064,45.63855825535916],[15.512159457892665,45.641813870413785],[15.51339969224199,45.64496613178153],[15.513089633879474,45.64729157174861],[15.507663607589393,45.6498237172907],[15.473815544951435,45.661812648734724],[15.463273553431748,45.66811717416823],[15.448235710709469,45.67902090089382],[15.440639275881836,45.688270982120116],[15.435781691272041,45.69178498049246],[15.430510694612849,45.69411041956022],[15.42089887907997,45.6952989770661],[15.382865023601937,45.69044139335557],[15.364571566724408,45.67550690432017],[15.350153843425119,45.66966746688007],[15.35003446292012,45.669619115729574],[15.333874960000088,45.68263905900007],[15.330774373000054,45.68455108700009],[15.327053670000112,45.68315582300001],[15.314961385000032,45.68088206000009],[15.310413859000107,45.67819488500005],[15.309070272000042,45.67416412400006],[15.304936158000118,45.67214874300002],[15.29191369600008,45.67555938800005],[15.28302535000006,45.680106913000074],[15.277754354000137,45.685016175],[15.267832479000049,45.69845204700006],[15.258220663000117,45.70511830700006],[15.250882609000115,45.70765045200007],[15.248918904000107,45.71183624300009],[15.24991298899323,45.71373174342517],[15.255016723000068,45.72346344000006],[15.26349165800005,45.73038808300005],[15.303799276000092,45.74614939400003],[15.331031282667539,45.7524855538652],[15.429062947000148,45.77529490200003],[15.429754502000065,45.775691354000074],[15.4410518790001,45.782167868],[15.43950158700008,45.79167633000007],[15.43557417800011,45.802114970000034],[15.440328410000092,45.81146840400005],[15.451283813000089,45.81513743100005],[15.462549275000129,45.81420725500003],[15.473918091000115,45.811571757000095],[15.485390259000042,45.81017649400012],[15.49531213300014,45.812656963000094],[15.513915649000097,45.823405661000024],[15.523527466000104,45.82681630500004],[15.549748078810751,45.82369277989784]]]},"properties":{"adm1_code":"HRV-1588","name":"Zagrebacka","name_alt":"Zagreb","name_en":"Zagreb","adm0_a3":"HRV"}}