{"type":"Feature","geometry":{"type":"Polygon","coordinates":[[[-9.362541779879223,52.57542560350879],[-9.358713344999956,52.57534414300005],[-9.350412563999953,52.57379791900007],[-9.33584550699993,52.57802969000005],[-9.27212480399993,52.57721588700008],[-9.236480272999927,52.58161041900007],[-9.220285610999952,52.585598049000055],[-9.206695115999935,52.59430573100008],[-9.192372199999909,52.600490627000056],[-9.07062740799995,52.62417226800005],[-9.052398240999935,52.63182200700004],[-9.044178839999915,52.62083567900004],[-9.025949673999946,52.618353583000044],[-9.005604620999918,52.62083567900004],[-8.991118943999936,52.624986070000034],[-8.985259568999936,52.63068268400008],[-8.978993292999917,52.639878648000035],[-8.97101803299995,52.648504950000074],[-8.959950324999909,52.65228913000004],[-8.784982876999948,52.66596100500004],[-8.751169399999924,52.67295970300006],[-8.739021775634455,52.672909247164],[-8.73834998206604,52.672909247164],[-8.73814327559171,52.672909247164],[-8.73793657091602,52.672909247164],[-8.722847052249676,52.673942775938315],[-8.707344123332632,52.672030748020575],[-8.694941778939949,52.66624298832323],[-8.689774135967582,52.65580434779241],[-8.68243608175976,52.65115346875757],[-8.665796271280897,52.65285879199962],[-8.645258639874328,52.629541164593036],[-8.587452733257066,52.623561243156814],[-8.563533048411443,52.64150100656616],[-8.568024460560423,52.676474921480406],[-8.558205938553215,52.68035065415933],[-8.551901414019028,52.68613841385667],[-8.549214239745368,52.692856350440195],[-8.545183478334877,52.69848908140597],[-8.535261602640844,52.70081452137305],[-8.527871873388278,52.70148631404214],[-8.520275437661326,52.70339834195988],[-8.513144089927835,52.7063955763947],[-8.507356330230436,52.71047801374931],[-8.504772507844962,52.72133006453083],[-8.509009975729782,52.733939114498526],[-8.509061651673903,52.74432607728659],[-8.47697058822206,52.755074775280605],[-8.466790330109632,52.74194896137544],[-8.463328008580731,52.7357994664722],[-8.4612092759873,52.72608429635318],[-8.459917364794535,52.72298371003018],[-8.459400600857066,52.72096832932493],[-8.45661007289658,52.70200307887899],[-8.455369839446519,52.698282375830956],[-8.449685430738043,52.68789541304284],[-8.43785152802559,52.68536326840007],[-8.41805945527966,52.68314118122049],[-8.333361781620908,52.68298615248892],[-8.30163245337502,52.69078929289151],[-8.293312547236269,52.69042755768561],[-8.283390672441612,52.688205471405354],[-8.267629360206797,52.68097077088436],[-8.261014777310152,52.6756480982811],[-8.257604132624635,52.670635484040304],[-8.256208868644364,52.666811428204824],[-8.240499233253047,52.66314240200023],[-8.187427536851374,52.66536448828049],[-8.192078415886215,52.64712270824634],[-8.195489060571674,52.63766592144509],[-8.205979377046617,52.6208194044919],[-8.207994757751862,52.615393378201816],[-8.211612108012389,52.595549627713126],[-8.214454311916995,52.58950348649665],[-8.217658250128125,52.585110988980944],[-8.224892950649178,52.58051178678949],[-8.227631801766222,52.5772561708356],[-8.228613653697153,52.572967027006655],[-8.225409714586647,52.56335521147378],[-8.223807745930742,52.554518541397556],[-8.223652716299853,52.53953237641804],[-8.224272833924147,52.53183258700426],[-8.225461392329407,52.52573476804508],[-8.228406948122142,52.51860342121091],[-8.230474005670828,52.51586457009381],[-8.231920945595164,52.51446930611354],[-8.233884650356345,52.513280747708336],[-8.23626176626749,52.51235057172147],[-8.240499233253047,52.51121369105897],[-8.245873581800367,52.51080027900963],[-8.251764696083853,52.511110338271465],[-8.262771775596946,52.51312571897671],[-8.269024624187068,52.513280747708336],[-8.2808068509554,52.51157542626487],[-8.29625810392838,52.507441311167554],[-8.312329473626335,52.50103343384586],[-8.31356970887498,52.50020661154588],[-8.3147065904368,52.491421617413664],[-8.31455156080591,52.47922597949531],[-8.31796220459205,52.474110012467065],[-8.322768114157157,52.471422838193405],[-8.328090785861093,52.47224966139271],[-8.331553107389993,52.4748334819796],[-8.33305172415777,52.47886424428941],[-8.33248328337686,52.489716295070934],[-8.332741664895934,52.494005438899876],[-8.333516812151174,52.49736440674195],[-8.334343633551839,52.49943146429064],[-8.33537716322553,52.50062002179652],[-8.33744421987484,52.50191193298929],[-8.341578334972212,52.5029454617636],[-8.346590949212953,52.50372060811952],[-8.351448533822804,52.50304881455111],[-8.355117560027395,52.50191193298929],[-8.357391323151035,52.50067169953928],[-8.366434698802323,52.493953762056435],[-8.378578660776554,52.48770091436569],[-8.381627570256171,52.48496206324859],[-8.384056362111437,52.4816547722499],[-8.385658331666662,52.47824412756444],[-8.386743537284417,52.473593248529596],[-8.388190477208752,52.46284455053558],[-8.392738002556769,52.455454820383636],[-8.392841356243594,52.45168244139154],[-8.389740769920593,52.44687653272575],[-8.378423631145665,52.44031362577317],[-8.373255988173298,52.43824656822454],[-8.369793666644398,52.43757477555545],[-8.369173549919424,52.43783315707452],[-8.364884406090482,52.43793650986203],[-8.35578935359581,52.43705800981928],[-8.344058803670862,52.434835924438346],[-8.337805955080796,52.434474189232446],[-8.325610317162443,52.43524933468899],[-8.317910528647985,52.433802394764655],[-8.309435593777664,52.430391750978515],[-8.269851447386372,52.407447415066144],[-8.262151658871971,52.40636221034771],[-8.243341437157596,52.40734406227864],[-8.236365119054994,52.40310659439376],[-8.228975388903109,52.395510159566186],[-8.21621131020379,52.377785143469566],[-8.207994757751862,52.370447089261745],[-8.200088262763131,52.3664163278512],[-8.172389695927734,52.36538279907688],[-8.168513963248813,52.3615587432414],[-8.167635464105388,52.35473745387037],[-8.177040574962575,52.33044953082117],[-8.177970750050065,52.32414500628698],[-8.173216519127038,52.32094106717648],[-8.168255580830419,52.31887401052711],[-8.162519497077142,52.31716868818438],[-8.15843705882321,52.31504995379231],[-8.155233119712705,52.312414456362035],[-8.15668005963704,52.3071434597029],[-8.15864376529754,52.30285431587396],[-8.184637009790151,52.28120189115435],[-8.198641322838796,52.286421210070785],[-8.203447230605207,52.2874547388451],[-8.212180548793299,52.287919826838504],[-8.25744910299369,52.28151194951681],[-8.264167038677897,52.28156362636025],[-8.27233191608508,52.28270050702275],[-8.282563849242251,52.28683462212007],[-8.288661668201428,52.29034861869377],[-8.292847459242864,52.2936559114911],[-8.295121222366504,52.29691152654567],[-8.300340542182312,52.30729848933379],[-8.302510951619126,52.310450750701534],[-8.304888068429648,52.313241279561396],[-8.309228888202654,52.31567007141666],[-8.31512000158682,52.3174787465469],[-8.329899460991328,52.32052765602646],[-8.337960984711685,52.31990753840216],[-8.347727829875453,52.31556671772984],[-8.352430385753735,52.311639309106795],[-8.35542761928923,52.307815253271315],[-8.358424851925406,52.30481801973582],[-8.371033900993723,52.29872020077664],[-8.381369187837777,52.29133047152402],[-8.389430710658758,52.289521796393785],[-8.433769089771658,52.28611115170827],[-8.480329556064191,52.276809394537906],[-8.49913977687919,52.276964423269476],[-8.51769161617517,52.28032339111161],[-8.526683314983018,52.28285553755296],[-8.533401251566488,52.28569774055825],[-8.551384650081559,52.30156240558051],[-8.55526038276048,52.30388784374895],[-8.561513231350546,52.30579987256601],[-8.581718716145815,52.309313870039034],[-8.588126592568187,52.31194936836863],[-8.592725795658964,52.314584865798906],[-8.59551632272013,52.317065335396876],[-8.600787319379322,52.32295644788172],[-8.60476640484569,52.329571030778425],[-8.607195196700957,52.332826646732315],[-8.610295783023957,52.335927232155996],[-8.613913133284484,52.33814931933557],[-8.619442510563431,52.33995799446586],[-8.63448035328571,52.34254181595202],[-8.638976202689605,52.34429881423887],[-8.642438524218505,52.34677928293752],[-8.649001431171143,52.35339386673354],[-8.652360399013219,52.355770981745366],[-8.655977749273745,52.35783804019337],[-8.659233364328315,52.36011180331707],[-8.662282273807875,52.363109035953244],[-8.66450436008813,52.36626129822031],[-8.667863327930263,52.373340969110416],[-8.67649329333085,52.37597646744001],[-8.692254604666289,52.37685496748276],[-8.728944871208853,52.375097968296586],[-8.794263882372263,52.3792320833939],[-8.803307258023551,52.3785086129821],[-8.841392787647067,52.3619204784473],[-8.850591192929244,52.35396230751445],[-8.854518601552229,52.351895249965764],[-8.859272834273895,52.349983222048024],[-8.86454383003371,52.348484606179625],[-8.873328823266604,52.344970607807284],[-8.876636115164615,52.34238678722045],[-8.879116583863265,52.33938955278563],[-8.880511846944216,52.33561717379354],[-8.882527227649462,52.33199982443233],[-8.884800990773101,52.32884756126589],[-8.888004929883607,52.32605703420472],[-8.891518927356628,52.32367991829358],[-8.895859748028954,52.32166453668901],[-8.956837937620719,52.30941722282654],[-8.970480516362727,52.30533478547193],[-8.976268276060125,52.30151072873713],[-8.974097865723934,52.29851349520163],[-8.970790574725243,52.29598135055886],[-8.970377162675902,52.2940693217418],[-8.973167689737124,52.29303579386675],[-8.991151089151458,52.29820343683912],[-9.00138302230863,52.30295766956078],[-9.016679245650664,52.312052721156135],[-9.025825974988777,52.31567007141666],[-9.08230831517659,52.32662547498563],[-9.110110235698812,52.329209296471845],[-9.121117316111281,52.33158641238299],[-9.129230515775703,52.33060456045206],[-9.14111609533154,52.32683218056064],[-9.184886033663531,52.30311269829235],[-9.216615362808739,52.293965968954296],[-9.228552619208017,52.30641999019036],[-9.231963262994213,52.3090038107772],[-9.237027554078338,52.312052721156135],[-9.241575080325731,52.31391307223049],[-9.256974657354533,52.318357244791],[-9.271030646347242,52.32388662386859],[-9.288755662443862,52.32683218056064],[-9.293354864635319,52.328640855690935],[-9.29645545095832,52.33101797070276],[-9.30182980040496,52.336547349780346],[-9.308444383301662,52.34192169922699],[-9.312578498398977,52.34414378550724],[-9.328804896828558,52.349001370117094],[-9.331750454419932,52.351326809184854],[-9.333042364713378,52.35468577702699],[-9.330665248802177,52.36016347926113],[-9.326324429029171,52.36295400722162],[-9.311234911262147,52.36765656220058],[-9.307410855426667,52.369878648480835],[-9.305240444191156,52.37308258669202],[-9.30493038582864,52.37711334900183],[-9.309374559288472,52.38243602250441],[-9.313301967911514,52.38553660702877],[-9.32477413631733,52.392564601974755],[-9.326841192966697,52.394579983579376],[-9.328804896828558,52.39892080335238],[-9.328701544940373,52.4027965360313],[-9.326427781816676,52.410858058852284],[-9.323637253856191,52.41540558509962],[-9.320019903595664,52.41928131777854],[-9.316609258910205,52.4216067568463],[-9.312681851186483,52.4239838727575],[-9.310201381588513,52.426877753505494],[-9.309684617650987,52.430598456553525],[-9.313922084636488,52.436179511575176],[-9.317332730221324,52.43990021372383],[-9.321053433269356,52.44300080004683],[-9.326427781816676,52.4485301782251],[-9.328288132891032,52.452509263691525],[-9.328649868096932,52.45752187793232],[-9.325497605829867,52.46537669517829],[-9.322190313931856,52.469717515850675],[-9.319813198020654,52.47426504209801],[-9.317952846946355,52.48180980098152],[-9.31573075976678,52.48496206324859],[-9.312888555862173,52.48764923842157],[-9.309167852814141,52.490078030276834],[-9.304827033041136,52.49209341098208],[-9.30141638835562,52.49519399730508],[-9.299452683594495,52.49943146429064],[-9.30033118273792,52.50640778329256],[-9.303793504266821,52.511885483728065],[-9.309322883344407,52.51700145075631],[-9.321363490732494,52.52449453369576],[-9.329735072815367,52.53105744154766],[-9.33888180215348,52.54092763949893],[-9.34079383007122,52.54914419195086],[-9.343894416394221,52.55844595002054],[-9.357433641449404,52.56924632395868],[-9.362541779879223,52.57542560350879]]]},"properties":{"adm1_code":"IRL-726","name":"Limerick","name_alt":"Luimneach","name_en":"Limerick","adm0_a3":"IRL"}}