{"type":"Feature","geometry":{"type":"MultiPolygon","coordinates":[[[[-7.851804371374669,51.97710488178484],[-7.8530167309999115,51.97516510600008],[-7.8541560539999296,51.95136139500005],[-7.8566788399999155,51.94285716400009],[-7.869862433999913,51.92951080900008],[-7.8842667309999115,51.91909414300005],[-7.901193813999953,51.91266510600008],[-7.922230597999942,51.911810614000046],[-7.892648891999954,51.89484284100007],[-7.880604620999918,51.89199453300006],[-7.8914688789999445,51.88190338700008],[-7.914173956999946,51.87579987200007],[-7.9557185539999296,51.87018463700008],[-8.008168097999942,51.85578034100007],[-8.023060675999943,51.84357330900008],[-8.00413977799991,51.82990143400008],[-8.020578579999949,51.823919989000046],[-8.096099412999934,51.814113674000055],[-8.134185350999928,51.804754950000074],[-8.19717363199993,51.80093008000006],[-8.224761522999927,51.80255768400008],[-8.23619544199994,51.802069403000075],[-8.246205206999946,51.802720445000034],[-8.250559048999946,51.806301174000055],[-8.24795488199993,51.81342194200005],[-8.241200324999909,51.81854889500005],[-8.232411261999914,51.82200755400004],[-8.223255988999938,51.82367584800005],[-8.225493943999936,51.82729726800005],[-8.230091925999943,51.83673737200007],[-8.215646938999953,51.83844635600008],[-8.201649542999917,51.84198639500005],[-8.188221808999913,51.84796784100007],[-8.175404425999943,51.85716380400004],[-8.181630011999914,51.85932038000004],[-8.186838344999956,51.861761786000045],[-8.193104620999918,51.86367422100005],[-8.202788865999935,51.86399974200003],[-8.195301886999914,51.877020575000074],[-8.190500454999949,51.88108958500004],[-8.182240363999938,51.88450755400004],[-8.187082485999952,51.89313385600008],[-8.193755662999934,51.895412502000056],[-8.201527472999942,51.89215729400007],[-8.210194464999915,51.88450755400004],[-8.223255988999938,51.89008209800005],[-8.243560350999928,51.89288971600007],[-8.284657355999911,51.89199453300006],[-8.284657355999911,51.898138739000046],[-8.29320227799991,51.90330638200004],[-8.310373501999948,51.900824286000045],[-8.328846808999913,51.895412502000056],[-8.347401495999918,51.89199453300006],[-8.38849850220413,51.89345937714853],[-8.441941313740642,51.917930523574796],[-8.493767298921739,51.92391044501102],[-8.531640134384702,51.90198406611171],[-8.543599977257145,51.86809784523933],[-8.50971375638477,51.854144695521256],[-8.459881078049307,51.85215138867562],[-8.414035014304488,51.85215138867562],[-8.396066861096756,51.87677643428498],[-8.35415605399993,51.87299225500004],[-8.329253709999932,51.861314195000034],[-8.347401495999918,51.82990143400008],[-8.309885219999956,51.832098700000074],[-8.298329230999911,51.82990143400008],[-8.298329230999911,51.82367584800005],[-8.305165167999917,51.82367584800005],[-8.305165167999917,51.81622955900008],[-8.296294725999928,51.81159088700008],[-8.29210364499994,51.81000397300005],[-8.30650794199994,51.807847398000035],[-8.313059048999946,51.80560944200005],[-8.319488084999932,51.80255768400008],[-8.284657355999911,51.80255768400008],[-8.301991339999915,51.78587474200003],[-8.305165167999917,51.782131252000056],[-8.303781704999949,51.776597398000035],[-8.299631313999953,51.77171458500004],[-8.297352667999917,51.76601797100005],[-8.301747199999909,51.75820547100005],[-8.334787563999953,51.735256252000056],[-8.345692511999914,51.724676825000074],[-8.372547980999911,51.71552155200004],[-8.41002356699994,51.70978424700007],[-8.422434048999946,51.70404694200005],[-8.435536261999914,51.692694403000075],[-8.441761847999942,51.70392487200007],[-8.455799933999913,51.71230703300006],[-8.471913214999915,51.71625397300005],[-8.483957485999952,51.71381256700005],[-8.469227667999917,51.70661041900007],[-8.464182094999956,51.695013739000046],[-8.46898352799991,51.68406810100004],[-8.483957485999952,51.67841217700004],[-8.491118943999936,51.69867584800005],[-8.512440558999913,51.70604075700004],[-8.558420376999948,51.706366278000075],[-8.558420376999948,51.70014069200005],[-8.548329230999911,51.69635651200008],[-8.52798417899993,51.695013739000046],[-8.51748613199993,51.692694403000075],[-8.508168097999942,51.699204820000034],[-8.502105272999927,51.70034414300005],[-8.497547980999911,51.692694403000075],[-8.499623175999943,51.68695709800005],[-8.50649980399993,51.68244049700007],[-8.514881964999915,51.67951080900008],[-8.521148240999935,51.67841217700004],[-8.536488410999937,51.654730536000045],[-8.539173956999946,51.64838288000004],[-8.53819739499994,51.63739655200004],[-8.533558722999942,51.622300523000035],[-8.531727667999917,51.61078522300005],[-8.544422980999911,51.61790599200003],[-8.558705206999946,51.638006903000075],[-8.572661912999934,51.644964911000045],[-8.589100714999915,51.64590078300006],[-8.638172980999911,51.63743724200003],[-8.757639126999948,51.644964911000045],[-8.74327551999994,51.635199286000045],[-8.726551886999914,51.63133372600004],[-8.690012173999946,51.631293036000045],[-8.690012173999946,51.62384674700007],[-8.696603969999956,51.62099844000005],[-8.702951626999948,51.61701080900008],[-8.682525193999936,51.61078522300005],[-8.693470831999946,51.604681708000044],[-8.699777798999946,51.59723541900007],[-8.700795050999943,51.58812083500004],[-8.696156378999945,51.57664622600004],[-8.733998175999943,51.579779364000046],[-8.742787238999938,51.57562897300005],[-8.750070766999954,51.579413153000075],[-8.757069464999915,51.586004950000074],[-8.765126105999911,51.590277411000045],[-8.801991339999915,51.590277411000045],[-8.812570766999954,51.59194570500006],[-8.82022050699993,51.594631252000056],[-8.826649542999917,51.59516022300005],[-8.833363410999937,51.590277411000045],[-8.853871222999942,51.59593333500004],[-8.868031378999945,51.58445872600004],[-8.878529425999943,51.56720612200007],[-8.888010219999956,51.555568752000056],[-8.923329230999911,51.548163153000075],[-8.928944464999915,51.54596588700008],[-8.933176235999952,51.53534577000005],[-8.94204667899993,51.53774648600006],[-8.950550910999937,51.54507070500006],[-8.953195766999954,51.54938385600008],[-8.959950324999909,51.55141836100006],[-8.979888475999928,51.56069570500006],[-8.991118943999936,51.56297435100004],[-9.002797003999945,51.562160549000055],[-9.017689581999946,51.55683014500005],[-9.072865363999938,51.54938385600008],[-9.085682745999918,51.55219147300005],[-9.108143683999913,51.56085846600007],[-9.120757615999935,51.56297435100004],[-9.120757615999935,51.555568752000056],[-9.11632239499994,51.55410390800006],[-9.10773678299995,51.54938385600008],[-9.115712042999917,51.53790924700007],[-9.128163214999915,51.529282945000034],[-9.143299933999913,51.523871161000045],[-9.158599412999934,51.52204010600008],[-9.184559699999909,51.52619049700007],[-9.192534959999932,51.524603583000044],[-9.189605272999927,51.51459381700005],[-9.189605272999927,51.50836823100008],[-9.203968878999945,51.50800202000005],[-9.21084550699993,51.50169505400004],[-9.215728318999936,51.493475653000075],[-9.223784959999932,51.48729075700004],[-9.234730597999942,51.48647695500006],[-9.243763800999943,51.48932526200008],[-9.25304114499994,51.49115631700005],[-9.26475989499994,51.48729075700004],[-9.265370245999918,51.494126695000034],[-9.26748613199993,51.49884674700007],[-9.270090298999946,51.50299713700008],[-9.27212480399993,51.50836823100008],[-9.29946855399993,51.49750397300005],[-9.301747199999909,51.488714911000045],[-9.307443813999953,51.48729075700004],[-9.315297003999945,51.487616278000075],[-9.323719855999911,51.48383209800005],[-9.335316535999937,51.476996161000045],[-9.349232550999943,51.47402578300006],[-9.381418423999946,51.47361888200004],[-9.369943813999953,51.478583075000074],[-9.360707160999937,51.48383209800005],[-9.353138800999943,51.49087148600006],[-9.346669074999909,51.50092194200005],[-9.361154751999948,51.494574286000045],[-9.37291419199994,51.49127838700008],[-9.37686113199993,51.49461497600004],[-9.367787238999938,51.50836823100008],[-9.357085740999935,51.51715729400007],[-9.332386847999942,51.52765534100007],[-9.319935675999943,51.53506094000005],[-9.32290605399993,51.53733958500004],[-9.32412675699993,51.53803131700005],[-9.325062628999945,51.539129950000074],[-9.327463344999956,51.54254791900007],[-9.33580481699994,51.53725820500006],[-9.367787238999938,51.525091864000046],[-9.371693488999938,51.51935455900008],[-9.38109290299991,51.51239655200004],[-9.401844855999911,51.50092194200005],[-9.413889126999948,51.51113515800006],[-9.412587042999917,51.520697333000044],[-9.405873175999943,51.53172435100004],[-9.401844855999911,51.54596588700008],[-9.40884355399993,51.55219147300005],[-9.425038214999915,51.55756256700005],[-9.44326738199993,51.55951569200005],[-9.456532355999911,51.555568752000056],[-9.447987433999913,51.54364655200004],[-9.476551886999914,51.53506094000005],[-9.547474738999938,51.52529531500005],[-9.551380988999938,51.52122630400004],[-9.552805141999954,51.51146067900004],[-9.556304490999935,51.50812409100007],[-9.573882615999935,51.508978583000044],[-9.58071855399993,51.50836823100008],[-9.599964972999942,51.49689362200007],[-9.611317511999914,51.493841864000046],[-9.628407355999911,51.49408600500004],[-9.629628058999913,51.50405508000006],[-9.641835089999915,51.51520416900007],[-9.655913865999935,51.52016836100006],[-9.662668423999946,51.51146067900004],[-9.717193162999934,51.48041413000004],[-9.71080481699994,51.47597890800006],[-9.708078579999949,51.47455475500004],[-9.703521287999934,51.47361888200004],[-9.771839972999942,51.453111070000034],[-9.768950975999928,51.46430084800005],[-9.777943488999938,51.462225653000075],[-9.806630011999914,51.44570547100005],[-9.813384568999936,51.453111070000034],[-9.82022050699993,51.44570547100005],[-9.818918423999946,51.45848216400009],[-9.817005988999938,51.46312083500004],[-9.813384568999936,51.46743398600006],[-9.813384568999936,51.47361888200004],[-9.82217363199993,51.47540924700007],[-9.826324022999927,51.477728583000044],[-9.83389238199993,51.48729075700004],[-9.812001105999911,51.491522528000075],[-9.793812628999945,51.499660549000055],[-9.758168097999942,51.52204010600008],[-9.740061001999948,51.52977122600004],[-9.70498613199993,51.53571198100008],[-9.683094855999911,51.54254791900007],[-9.665394660999937,51.55158112200007],[-9.621652798999946,51.58283112200007],[-9.602772589999915,51.59198639500005],[-9.566761847999942,51.60228099200003],[-9.545887824999909,51.61078522300005],[-9.59203040299991,51.613714911000045],[-9.78502356699994,51.55247630400004],[-9.84752356699994,51.54938385600008],[-9.805287238999938,51.56671784100007],[-9.796050584999932,51.569240627000056],[-9.786366339999915,51.573472398000035],[-9.779286261999914,51.58283112200007],[-9.770334438999953,51.592230536000045],[-9.731190558999913,51.600897528000075],[-9.607980923999946,51.64240143400008],[-9.594553188999953,51.655503648000035],[-9.561879035999937,51.65814850500004],[-9.524728969999956,51.67031484600005],[-9.487904425999943,51.67572663000004],[-9.458607550999943,51.68398672100005],[-9.456532355999911,51.70014069200005],[-9.451771613999938,51.70498281500005],[-9.447417772999927,51.71088288000004],[-9.442941860999952,51.71381256700005],[-9.442941860999952,51.720038153000075],[-9.45726477799991,51.724595445000034],[-9.472808397999927,51.718817450000074],[-9.489816860999952,51.714544989000046],[-9.51280676999994,51.725897528000075],[-9.521473761999914,51.72553131700005],[-9.525461391999954,51.72687409100007],[-9.526437954999949,51.73078034100007],[-9.52452551999994,51.743394273000035],[-9.525461391999954,51.747300523000035],[-9.531727667999917,51.75153229400007],[-9.540272589999915,51.755926825000074],[-9.550119594999956,51.75950755400004],[-9.560210740999935,51.76162344000005],[-9.555897589999915,51.74868398600006],[-9.55728105399993,51.739447333000044],[-9.556630011999914,51.730902411000045],[-9.545887824999909,51.720038153000075],[-9.566070115999935,51.71670156500005],[-9.579660610999952,51.710598049000055],[-9.60732988199993,51.692694403000075],[-9.62682044199994,51.68504466400009],[-9.648060675999943,51.68081289300005],[-9.713490363999938,51.67645905200004],[-9.74795488199993,51.66742584800005],[-9.87413489499994,51.65619538000004],[-9.915353969999956,51.644598700000074],[-9.930083787999934,51.63743724200003],[-9.93187415299991,51.63471100500004],[-9.932118292999917,51.63104889500005],[-9.932932094999956,51.62726471600007],[-9.936350063999953,51.62384674700007],[-9.941883917999917,51.62132396000004],[-10.004750128999945,51.60854726800005],[-10.028797980999911,51.59650299700007],[-10.040272589999915,51.597642320000034],[-10.059925910999937,51.602769273000035],[-10.070057745999918,51.603949286000045],[-10.116118943999936,51.60028717700004],[-10.138661261999914,51.59389883000006],[-10.156076626999948,51.58283112200007],[-10.162831183999913,51.590277411000045],[-10.155262824999909,51.593817450000074],[-10.153228318999936,51.599310614000046],[-10.152699347999942,51.60541413000004],[-10.149240688999953,51.61078522300005],[-10.143299933999913,51.61359284100007],[-10.075062628999945,51.62539297100005],[-10.059803839999915,51.631293036000045],[-10.059803839999915,51.63568756700005],[-10.061024542999917,51.63666413000004],[-10.063465949999909,51.63646067900004],[-10.06663977799991,51.63743724200003],[-10.062652147999927,51.64984772300005],[-10.070668097999942,51.65704987200007],[-10.085316535999937,51.65989817900004],[-10.100819464999915,51.65924713700008],[-10.08812415299991,51.67161692900004],[-10.066395636999914,51.67438385600008],[-10.025746222999942,51.67226797100005],[-10.00377356699994,51.67804596600007],[-9.956857876999948,51.706366278000075],[-9.956857876999948,51.71381256700005],[-9.997792120999918,51.71381256700005],[-9.98070227799991,51.73187897300005],[-9.949370897999927,51.74701569200005],[-9.914906378999945,51.75755442900004],[-9.88853919199994,51.76162344000005],[-9.891672329999949,51.757025458000044],[-9.897043423999946,51.74673086100006],[-9.90225175699993,51.74115631700005],[-9.884510870999918,51.743394273000035],[-9.867909308999913,51.74860260600008],[-9.860911229245696,51.75475091924729],[-9.856834682974238,51.752035224346116],[-9.850633511227556,51.74898631396718],[-9.84396725058815,51.744645494194174],[-9.840556605902634,51.7417516143455],[-9.835233934198698,51.73606720653635],[-9.832340054350027,51.729245917165315],[-9.832185023819818,51.725421861329835],[-9.833166876650068,51.72190786385681],[-9.833270230336893,51.7186005719588],[-9.831358202419096,51.715758368953516],[-9.82179806193102,51.71234772426806],[-9.818800828395524,51.709970608356855],[-9.817353887571869,51.70697337482136],[-9.818077357983668,51.70345937824766],[-9.82138464988168,51.696689764820746],[-9.82257320828694,51.69327912013529],[-9.82179806193102,51.689713446718144],[-9.819214240444865,51.687232978019495],[-9.813943243785673,51.68656118445108],[-9.797096726832478,51.68888662441816],[-9.783919236983195,51.68945506429975],[-9.77807980044247,51.690333564342495],[-9.773222214933298,51.69198720984184],[-9.76898474794774,51.694002591446406],[-9.720098842587504,51.732346503488316],[-9.716068081177013,51.73436188419356],[-9.707076382369166,51.73808258724159],[-9.7019087393968,51.73947785122181],[-9.696172654744203,51.74020132073434],[-9.669300910208847,51.74020132073434],[-9.663461472768745,51.74133820319548],[-9.658293829796435,51.742733466276434],[-9.653177862768132,51.745058906243514],[-9.645374722365545,51.749709785278355],[-9.614627244251949,51.77306753234075],[-9.609046190129561,51.7760130890328],[-9.60418860462039,51.77746002895714],[-9.543262091872066,51.784539699847244],[-9.530239630754352,51.78422964148473],[-9.51866410956103,51.78221425988016],[-9.512359585026843,51.78195587836109],[-9.501817592607836,51.782627671929504],[-9.483110723680966,51.78583161104001],[-9.457220831975803,51.787485257438675],[-9.451484748222583,51.78851878531367],[-9.446730516400237,51.78991404929394],[-9.441046107691704,51.79368642828604],[-9.435103319262794,51.79942251203926],[-9.425388149143771,51.810998033232636],[-9.4190319477662,51.81621735304839],[-9.412779100075397,51.81957632089046],[-9.389783088218962,51.82805125576084],[-9.379189418956514,51.830480048515426],[-9.359707403673724,51.831565253233805],[-9.354281379182282,51.832908841269955],[-9.34518632668761,51.8365778674746],[-9.34038041802188,51.83807648424232],[-9.328184780103527,51.84040192331008],[-9.32167354999433,51.84252065680283],[-9.308134324939147,51.852959296434335],[-9.30110632999316,51.86050405531785],[-9.292321335860947,51.867842109525725],[-9.28064246277944,51.87569692587243],[-9.276353318950498,51.87993439375725],[-9.274751349395274,51.884223538485514],[-9.274751349395274,51.889236151826935],[-9.283639696314935,51.907736314279475],[-9.286533576163606,51.910630195027466],[-9.296972214895789,51.91838166038531],[-9.30007280121879,51.92117218744647],[-9.30203650597997,51.923911038563574],[-9.302759976391826,51.927786770343175],[-9.30162309393063,51.93207591417206],[-9.296352098170814,51.93745026271944],[-9.291597866348468,51.94065420182994],[-9.286430223376101,51.94303131774109],[-9.271237351922252,51.947010403207514],[-9.261832241065065,51.950731106255546],[-9.251600307907893,51.95806916046337],[-9.248034633591487,51.95987783469428],[-9.234133674229668,51.96525218414098],[-9.154758674073548,51.97935984997707],[-9.148609178270988,51.97956655555208],[-9.136620245927588,51.97873973235272],[-9.130574102912533,51.97961823239547],[-9.125716519202001,51.98204702425073],[-9.121168992954665,51.9860777865606],[-9.118843552987585,51.990005195183585],[-9.11817175941917,51.993829251019065],[-9.119618700242825,51.99729157254802],[-9.123597784809931,51.99930695325327],[-9.126853399864501,52.00018545239669],[-9.140599331394014,52.00199412752693],[-9.161786668120271,52.00767853533608],[-9.17847815634184,52.01589508688875],[-9.183025681689855,52.01734202681308],[-9.188451707080617,52.01842723243078],[-9.200957404260805,52.01961578993672],[-9.205814988870657,52.02116608354788],[-9.208553839987758,52.02628205057613],[-9.208967251137722,52.03418854376628],[-9.205298224033811,52.05041494399444],[-9.20126746262332,52.05723623336547],[-9.196203172438459,52.06173208276937],[-9.187211472731292,52.06493602187987],[-9.18276730017078,52.067829901728544],[-9.181113653772115,52.069586900015395],[-9.178426480397775,52.07351430953776],[-9.17811642113594,52.07604645418047],[-9.178943244335244,52.077700100579136],[-9.183180711320801,52.07842357009167],[-9.18659135600626,52.07992218685939],[-9.189485235854931,52.08152415641467],[-9.191087205410213,52.08297109633901],[-9.196409878013469,52.08937897456002],[-9.22033606585677,52.132993883261065],[-9.2374926420718,52.18797760758048],[-9.24095496270138,52.194902248839696],[-9.243125373037515,52.1981061879502],[-9.251910366270408,52.20766632843828],[-9.255941127680899,52.21293732419815],[-9.259351772366415,52.21634796798429],[-9.264571092182166,52.22291087493693],[-9.265863003374932,52.22735504839676],[-9.266741501619038,52.23278107378752],[-9.265294561694702,52.2423412142756],[-9.261315477127596,52.25024770836501],[-9.253460658982249,52.258670966391946],[-9.215530158090303,52.28171865509182],[-9.213256394966663,52.2839407422714],[-9.216615362808739,52.293965968954296],[-9.184886033663531,52.30311269829235],[-9.14111609533154,52.32683218056064],[-9.129230515775703,52.33060456045206],[-9.121117316111281,52.33158641238299],[-9.110110235698812,52.329209296471845],[-9.08230831517659,52.32662547498563],[-9.025825974988777,52.31567007141666],[-9.016679245650664,52.312052721156135],[-9.00138302230863,52.30295766956078],[-8.991151089151458,52.29820343683912],[-8.973167689737124,52.29303579386675],[-8.970377162675902,52.2940693217418],[-8.970790574725243,52.29598135055886],[-8.974097865723934,52.29851349520163],[-8.976268276060125,52.30151072873713],[-8.970480516362727,52.30533478547193],[-8.956837937620719,52.30941722282654],[-8.895859748028954,52.32166453668901],[-8.891518927356628,52.32367991829358],[-8.888004929883607,52.32605703420472],[-8.884800990773101,52.32884756126589],[-8.882527227649462,52.33199982443233],[-8.880511846944216,52.33561717379354],[-8.879116583863265,52.33938955278563],[-8.876636115164615,52.34238678722045],[-8.873328823266604,52.344970607807284],[-8.86454383003371,52.348484606179625],[-8.859272834273895,52.349983222048024],[-8.854518601552229,52.351895249965764],[-8.850591192929244,52.35396230751445],[-8.841392787647067,52.3619204784473],[-8.803307258023551,52.3785086129821],[-8.794263882372263,52.3792320833939],[-8.728944871208853,52.375097968296586],[-8.692254604666289,52.37685496748276],[-8.67649329333085,52.37597646744001],[-8.667863327930263,52.373340969110416],[-8.66450436008813,52.36626129822031],[-8.662282273807875,52.363109035953244],[-8.659233364328315,52.36011180331707],[-8.655977749273745,52.35783804019337],[-8.652360399013219,52.355770981745366],[-8.649001431171143,52.35339386673354],[-8.642438524218505,52.34677928293752],[-8.638976202689605,52.34429881423887],[-8.63448035328571,52.34254181595202],[-8.619442510563431,52.33995799446586],[-8.613913133284484,52.33814931933557],[-8.610295783023957,52.335927232155996],[-8.607195196700957,52.332826646732315],[-8.60476640484569,52.329571030778425],[-8.600787319379322,52.32295644788172],[-8.59551632272013,52.317065335396876],[-8.592725795658964,52.314584865798906],[-8.588126592568187,52.31194936836863],[-8.581718716145815,52.309313870039034],[-8.561513231350546,52.30579987256601],[-8.55526038276048,52.30388784374895],[-8.551384650081559,52.30156240558051],[-8.533401251566488,52.28569774055825],[-8.526683314983018,52.28285553755296],[-8.51769161617517,52.28032339111161],[-8.49913977687919,52.276964423269476],[-8.480329556064191,52.276809394537906],[-8.433769089771658,52.28611115170827],[-8.389430710658758,52.289521796393785],[-8.381369187837777,52.29133047152402],[-8.371033900993723,52.29872020077664],[-8.358424851925406,52.30481801973582],[-8.35542761928923,52.307815253271315],[-8.352430385753735,52.311639309106795],[-8.347727829875453,52.31556671772984],[-8.337960984711685,52.31990753840216],[-8.329899460991328,52.32052765602646],[-8.31512000158682,52.3174787465469],[-8.309228888202654,52.31567007141666],[-8.304888068429648,52.313241279561396],[-8.302510951619126,52.310450750701534],[-8.300340542182312,52.30729848933379],[-8.295121222366504,52.29691152654567],[-8.292847459242864,52.2936559114911],[-8.288661668201428,52.29034861869377],[-8.282563849242251,52.28683462212007],[-8.27233191608508,52.28270050702275],[-8.264167038677897,52.28156362636025],[-8.25744910299369,52.28151194951681],[-8.212180548793299,52.287919826838504],[-8.203447230605207,52.2874547388451],[-8.198641322838796,52.286421210070785],[-8.184637009790151,52.28120189115435],[-8.167428757631058,52.27169342750966],[-8.160814174734412,52.25820587839854],[-8.155646531762045,52.24487335891837],[-8.150582240677863,52.2388788927467],[-8.145207892130543,52.23505483691116],[-8.130170050307584,52.23004222356974],[-8.09983598514259,52.22477122691055],[-8.097045457182105,52.22089549423163],[-8.096632046032084,52.21794993843889],[-8.099112514730791,52.2092166202508],[-8.118852912431976,52.195625719251495],[-8.123968878560902,52.18653066675682],[-8.139781866739781,52.164413154043814],[-8.145311244918048,52.15407786719976],[-8.147740036773314,52.14679148983538],[-8.145001186555533,52.14332916920574],[-8.139471808377266,52.1417788764939],[-8.133270635731265,52.14090037735053],[-8.09332475413413,52.14234731727487],[-8.087898728743369,52.14110708292549],[-8.082834437659187,52.139556790213646],[-8.07038041822176,52.13712799745906],[-8.063300747331652,52.13480255839136],[-8.061078661051397,52.130875148868995],[-8.060768601789562,52.12043651013681],[-8.057099574685651,52.11754263028814],[-8.041131557775202,52.108757636155985],[-8.028109096657488,52.09645864545013],[-8.021287808185832,52.08581330024356],[-8.01022905092998,52.05956167333255],[-8.005733202425347,52.05274038396152],[-8.001444057697086,52.04870962255103],[-7.990385301340609,52.04369700831023],[-7.9854243639432525,52.04028636272545],[-7.975812546611735,52.03563548369061],[-7.962583380818387,52.030829575924145],[-7.9337479306225305,52.011605943059806],[-7.928890346911999,52.006955064024964],[-7.925996466164008,52.003286037820374],[-7.920725470404136,51.9868529320172],[-7.917004767356161,51.98256378818826],[-7.91214718274631,51.97972158518297],[-7.905739305424618,51.97920482034618],[-7.8663618637090735,51.97941152592114],[-7.851804371374669,51.97710488178484]]],[[[-9.816965298999946,51.63886139500005],[-9.807199673999946,51.640285549000055],[-9.799305792999917,51.636786200000074],[-9.807362433999913,51.62970612200007],[-9.813547329999949,51.62763092700004],[-9.892160610999952,51.61127350500004],[-9.902699347999942,51.61432526200008],[-9.91787675699993,51.61937083500004],[-9.915516730999911,51.62905508000006],[-9.900990363999938,51.63666413000004],[-9.881662563999953,51.641058661000045],[-9.858265753999945,51.64240143400008],[-9.82408606699994,51.63890208500004],[-9.816965298999946,51.63886139500005]]]]},"properties":{"adm1_code":"IRL-78","name":"Cork","name_alt":"Corcaigh","name_en":"Cork","adm0_a3":"IRL"}}