{"type":"Feature","geometry":{"type":"Polygon","coordinates":[[[-6.991851365999935,52.266791083000044],[-6.990589972999942,52.26166413000004],[-6.989898240999935,52.251654364000046],[-6.986805792999917,52.24689362200007],[-6.97288977799991,52.23021067900004],[-6.969471808999913,52.220363674000055],[-6.982289191999939,52.19562409100007],[-6.9799698559999115,52.18593984600005],[-6.955148891999954,52.18618398600006],[-6.955148891999954,52.179348049000055],[-6.97101803299995,52.17129140800006],[-6.999867316999939,52.14671458500004],[-7.017201300999943,52.138373114000046],[-7.0394587879999335,52.135199286000045],[-7.084584113999938,52.13434479400007],[-7.106027798999946,52.130926825000074],[-7.100087042999917,52.14215729400007],[-7.071848110999952,52.165716864000046],[-7.093902147999927,52.17177969000005],[-7.106353318999936,52.17300039300005],[-7.120228644999941,52.171942450000074],[-7.120228644999941,52.165716864000046],[-7.1144913399999155,52.16278717700004],[-7.111683722999942,52.15973541900007],[-7.109527147999927,52.156317450000074],[-7.106027798999946,52.152044989000046],[-7.1164444649999155,52.15314362200007],[-7.1293025379999335,52.15778229400007],[-7.137318488999938,52.15888092700004],[-7.1496475899999155,52.156317450000074],[-7.156361456999946,52.150458075000074],[-7.1610001289999445,52.14362213700008],[-7.1674698559999115,52.138373114000046],[-7.187367316999939,52.13275788000004],[-7.205962693999936,52.13275788000004],[-7.243763800999943,52.138373114000046],[-7.435454881999931,52.12567780200004],[-7.5043025379999335,52.10268789300005],[-7.5414119129999335,52.09739817900004],[-7.5462133449999556,52.094916083000044],[-7.549956834999932,52.08974844000005],[-7.555287238999938,52.08490631700005],[-7.5652970039999445,52.08372630400004],[-7.572255011999914,52.087591864000046],[-7.57648678299995,52.094631252000056],[-7.5794164699999556,52.101263739000046],[-7.582630988999938,52.10423411700003],[-7.599964972999942,52.10101959800005],[-7.619007941999939,52.092230536000045],[-7.63109290299991,52.07904694200005],[-7.6273494129999335,52.06268952000005],[-7.6175837879999335,52.07021719000005],[-7.602162238999938,52.07168203300006],[-7.583892381999931,52.06858958500004],[-7.554107225999928,52.060248114000046],[-7.546783006999931,52.05927155200004],[-7.54515540299991,52.05499909100007],[-7.55101477799991,52.04279205900008],[-7.582630988999938,52.028509833000044],[-7.586415167999917,51.998114325000074],[-7.589914516999954,51.99115631700005],[-7.598255988999938,51.98908112200007],[-7.6082657539999445,51.987941799000055],[-7.6165258449999556,51.98383209800005],[-7.6354060539999296,51.97675202000005],[-7.688465949999909,51.98037344000005],[-7.70929928299995,51.973863023000035],[-7.7176407539999445,51.95990631700005],[-7.717396613999938,51.94961172100005],[-7.7232966789999296,51.944566148000035],[-7.8293350899999155,51.95343659100007],[-7.8324275379999335,51.95758698100008],[-7.834055141999954,51.96674225500004],[-7.838490363999938,51.975897528000075],[-7.84984290299991,51.980129299000055],[-7.851804371374669,51.97710488178484],[-7.8663618637090735,51.97941152592114],[-7.905739305424618,51.97920482034618],[-7.91214718274631,51.97972158518297],[-7.917004767356161,51.98256378818826],[-7.920725470404136,51.9868529320172],[-7.925996466164008,52.003286037820374],[-7.928890346911999,52.006955064024964],[-7.9337479306225305,52.011605943059806],[-7.962583380818387,52.030829575924145],[-7.975812546611735,52.03563548369061],[-7.9854243639432525,52.04028636272545],[-7.990385301340609,52.04369700831023],[-8.001444057697086,52.04870962255103],[-8.005733202425347,52.05274038396152],[-8.01022905092998,52.05956167333255],[-8.021287808185832,52.08581330024356],[-8.028109096657488,52.09645864545013],[-8.041131557775202,52.108757636155985],[-8.057099574685651,52.11754263028814],[-8.060768601789562,52.12043651013681],[-8.061078661051397,52.130875148868995],[-8.063300747331652,52.13480255839136],[-8.07038041822176,52.13712799745906],[-8.082834437659187,52.139556790213646],[-8.087898728743369,52.14110708292549],[-8.09332475413413,52.14234731727487],[-8.133270635731265,52.14090037735053],[-8.139471808377266,52.1417788764939],[-8.145001186555533,52.14332916920574],[-8.147740036773314,52.14679148983538],[-8.145311244918048,52.15407786719976],[-8.139781866739781,52.164413154043814],[-8.123968878560902,52.18653066675682],[-8.118852912431976,52.195625719251495],[-8.099112514730791,52.2092166202508],[-8.01022905092998,52.207149562702114],[-8.000720588184606,52.20906159151923],[-7.990385301340609,52.21216217694291],[-7.990436978183993,52.21598623277839],[-7.992038946839955,52.22384105092374],[-7.99214229962746,52.22844025311514],[-7.990695359703068,52.233194484937485],[-7.986147834355052,52.239188951109156],[-7.97725948743539,52.24161774386374],[-7.945220099028347,52.2431163597322],[-7.934419725090265,52.242082830957884],[-7.926978318994259,52.24053253824604],[-7.919485236054811,52.236088364786156],[-7.91235388832132,52.233607896986825],[-7.902225307951596,52.231334133863186],[-7.770036993812198,52.22285919899281],[-7.7558259751886,52.22497793248556],[-7.748849657085998,52.228233548439505],[-7.751123420209694,52.24373647735649],[-7.753035448127434,52.25184967702097],[-7.755515915926765,52.25913605438535],[-7.757066208638605,52.26259837501499],[-7.759081590243227,52.26549225486366],[-7.762802293291202,52.268076077249134],[-7.767453172326043,52.26972972274848],[-7.783782925341711,52.27381216100241],[-7.786625129246318,52.275982571338545],[-7.790655889757488,52.29076203074311],[-7.791224331437775,52.312414456362035],[-7.792722948205494,52.32026927270874],[-7.791741095375244,52.32548859342381],[-7.788743861839748,52.331844793902064],[-7.780423956600316,52.3391311712665],[-7.77318925607932,52.34197337517111],[-7.765902878714883,52.343265286363874],[-7.73810095909198,52.34367869751384],[-7.590978155917185,52.35985342089862],[-7.523953823310308,52.35411733714534],[-7.484473028807258,52.34522899022568],[-7.364635383116422,52.33561717379354],[-7.3255163229199525,52.318977363314616],[-7.312700568276625,52.31153595631929],[-7.293011847418825,52.293552557804276],[-7.260404019130192,52.27034984037283],[-7.231103480940874,52.25489858739985],[-7.215962287229786,52.248800768440674],[-7.206712205104168,52.24735382851634],[-7.202474738118667,52.249369208322264],[-7.199012416589767,52.251694648289345],[-7.183199429310207,52.26544057891954],[-7.179582078150418,52.26755931331161],[-7.173484259191241,52.26957469311759],[-7.165732794732719,52.2708666043103],[-7.15302039197752,52.27148672103533],[-7.138318459529273,52.228886433761886],[-7.10044562406631,52.206960055761954],[-7.052606253475801,52.21094666945322],[-7.030679875475869,52.206960055761954],[-7.002773575140395,52.222906512325665],[-7.034061245430166,52.257120672780786],[-7.011426967880254,52.266939194787994],[-6.9960273908513955,52.27065989783597],[-6.991851365999935,52.266791083000044]]]},"properties":{"adm1_code":"IRL-1444","name":"Waterford","name_alt":"Port Láirge","name_en":"Waterford","adm0_a3":"IRL"}}