{"type":"Feature","geometry":{"type":"Polygon","coordinates":[[[25.034856819000083,58.04857408500003],[25.048837524000106,58.05619903600005],[25.070644978000132,58.06361460400005],[25.094209432000127,58.06730946900005],[25.10935553512985,58.044543458913495],[25.10465850288756,58.02575532904518],[25.095264438403092,58.003835844348714],[25.10465850288756,57.981916359652246],[25.13284069724034,57.97721932741001],[25.13753772948263,57.95686552012762],[25.12501231016995,57.95060281047131],[25.134406374654475,57.93024900318892],[25.16728560214881,57.91459222814876],[25.19546779650159,57.905198163664295],[25.212690248955823,57.88797571121006],[25.217387281198057,57.87231893616996],[25.247135152964916,57.85196512888757],[25.25026650779307,57.820651579706634],[25.245569475550838,57.800297772424244],[25.22364999085437,57.80499480466648],[25.157891536764964,57.83317699991858],[25.142234762624184,57.84413674181718],[25.112486889958006,57.83787403216081],[25.123446632755872,57.826914289362946],[25.13284069724034,57.808126160393954],[25.128143664998106,57.798732095010166],[25.112486889958006,57.800297772424244],[25.092133083574936,57.81282319263619],[25.06081953349468,57.81282319263619],[25.034203016555978,57.814388870050266],[25.017469133393774,57.796470091421554],[25.007445510202103,57.80138174147419],[24.965690951676038,57.80830638273335],[24.95328860908205,57.80008983028142],[24.946002231717614,57.81753062643725],[24.941971470307067,57.81861583115568],[24.938250767259092,57.81905508072737],[24.933134800230846,57.81755646395959],[24.926158482128244,57.817091375966186],[24.909363641119114,57.82065705028259],[24.901147087767868,57.82551463489244],[24.895721063276426,57.831199041802336],[24.893395623309345,57.84336884219829],[24.887814569187015,57.858535875230416],[24.88517907085742,57.87153249792641],[24.88347374761537,57.88375397426648],[24.88502404122653,57.88907664686974],[24.88192345580285,57.893004055492725],[24.873396844089086,57.898016668834146],[24.864043410075283,57.90031627127888],[24.842339307612917,57.900936388003856],[24.82761152505185,57.980130520107366],[24.827417479000076,57.98187693600009],[24.84833296700012,57.99214609800005],[24.87251753700008,58.000440165],[24.949308716000047,58.00643463100003],[24.9748368730001,58.01583974200007],[25.034856819000083,58.04857408500003]]]},"properties":{"adm1_code":"LVA-5791","name":"Mazsalacas","name_alt":"Wolmar","name_en":"Valmiera","adm0_a3":"LVA"}}