{"type":"Feature","geometry":{"type":"Polygon","coordinates":[[[26.321318801121777,57.09791046769391],[26.328915235949353,57.071865546357856],[26.369377883282652,57.044632065717224],[26.375988611685045,57.03155013333196],[26.383816998755492,57.00493361639326],[26.405736483451903,56.9892768413531],[26.39321106413928,56.97048871148485],[26.374422934270967,56.95639761475809],[26.3525034495745,56.94856922678838],[26.358766159230868,56.931346774334145],[26.325886932635797,56.931346774334145],[26.28674499548515,56.94074083971793],[26.26795686561684,56.931346774334145],[26.242906026092214,56.92978109692007],[26.222552218809824,56.92821541950599],[26.200632734113356,56.951700581616535],[26.18184460514442,56.95326625903061],[26.170884862346497,56.95326625903061],[26.172450539760575,56.96579167924256],[26.186541637386654,56.98457980911087],[26.17714757200281,57.00649929380734],[26.17558189458873,57.03468148816012],[26.186541637386654,57.058166650270664],[26.18318769675477,57.08261424435187],[26.21517540921775,57.08912547536039],[26.27165774940562,57.08711009375577],[26.321318801121777,57.09791046769391]]]},"properties":{"adm1_code":"LVA-5785","name":"Cesvaines","name_alt":"Wolmar","name_en":"Valmiera","adm0_a3":"LVA"}}