{"type":"Feature","geometry":{"type":"Polygon","coordinates":[[[26.772557406798853,56.681010851069914],[26.771317173348848,56.67747101517517],[26.77751834509553,56.66372508454498],[26.77813846182056,56.65592194324307],[26.780928988881726,56.644966538774725],[26.777208285833694,56.632615872124745],[26.77968875543172,56.621453762081444],[26.788525424608622,56.615485134331436],[26.792401157287543,56.610291652937406],[26.788835483870457,56.6070618763045],[26.749716423673988,56.595822251895356],[26.736538933824704,56.58729564108097],[26.729252557359644,56.57830394137375],[26.743670281558252,56.558847765412],[26.72227623925704,56.54311229069964],[26.70641157423472,56.546083685813414],[26.627760043591138,56.54373240832393],[26.608536410726742,56.544714260254864],[26.59592736165837,56.547039700221944],[26.586625603588743,56.55143219683839],[26.583369989433436,56.56352448196924],[26.593756952221554,56.59515045832694],[26.52254682767392,56.59985301420522],[26.484512973994526,56.60613170031769],[26.40136559394699,56.63385610647413],[26.375579054130014,56.63592316312344],[26.388514030997726,56.677707024259746],[26.535687714216635,56.677707024259746],[26.57639532788204,56.69179812098645],[26.607708877962352,56.69023244357237],[26.626497007830608,56.70432354119845],[26.648416491627756,56.71684896051107],[26.682861396536225,56.72154599365268],[26.70791223606085,56.72311167106676],[26.711043590889005,56.707454896026604],[26.74392281748402,56.69649515412806],[26.772557406798853,56.681010851069914]]]},"properties":{"adm1_code":"LVA-5800","name":"Varaklanu","name_alt":"Wolmar","name_en":"Valmiera","adm0_a3":"LVA"}}