{"type":"Feature","geometry":{"type":"MultiPolygon","coordinates":[[[[25.657948438569576,57.464606432041194],[25.667095167907632,57.452514146910346],[25.713965691663304,57.40099274411983],[25.704922316012073,57.38378449196068],[25.72218224501455,57.36130524404177],[25.75163781103612,57.33768911456099],[25.753343133378905,57.329679266784694],[25.740165642630302,57.326423651730124],[25.736599969213216,57.31939565678408],[25.73877037865003,57.31306529382823],[25.733034294896754,57.29660635050266],[25.736910027575675,57.28466909410338],[25.74512658092692,57.27510895451462],[25.709010008105395,57.26640175443737],[25.669868070954692,57.274230141507815],[25.638554521773756,57.26483607702329],[25.60097826203713,57.26483607702329],[25.597846907208975,57.28518988340636],[25.579058777340663,57.29614962620428],[25.555573615230117,57.30554369068875],[25.547745228159727,57.32120046572891],[25.533654130533705,57.338422918183085],[25.513300323251315,57.34625130525353],[25.511734645837237,57.36034240287955],[25.54617955074565,57.37756485443447],[25.575927422512507,57.380696209262624],[25.60254393945121,57.37756485443447],[25.605675294279365,57.39635298430278],[25.626029101561755,57.40574704968657],[25.6495142636723,57.44019195369566],[25.657948438569576,57.464606432041194]]],[[[25.991726515366395,57.290017605128355],[26.01296552893598,57.28782135726982],[26.02784834202737,57.28164602304548],[26.043713006150313,57.27996653912447],[26.058595819241646,57.26529043250741],[26.058595819241646,57.251286119458825],[26.049139032440394,57.24999420826606],[26.01436079291625,57.24986501705689],[26.008469678632764,57.24673859321149],[26.004128858859758,57.24384471336282],[26.013430616929384,57.22105540618202],[25.989266276017815,57.20690601000433],[25.94542730662488,57.191249234964175],[25.893759949262233,57.18498652530786],[25.86870910973761,57.18498652530786],[25.849920980768616,57.195946268105786],[25.81860743068836,57.20690601000433],[25.79825362340597,57.20847168741841],[25.771637106467267,57.19907762293394],[25.745020589528565,57.21316871966064],[25.752848977498275,57.2444822697409],[25.76067736456872,57.2554420116395],[25.769871138342353,57.27871229153902],[25.880312126803176,57.28629690208032],[25.891319207215645,57.28831228278557],[25.904186638702413,57.288441473994794],[25.910697869710873,57.286736152551384],[25.991726515366395,57.290017605128355]]]]},"properties":{"adm1_code":"LVA-5799","name":"Raunas","name_alt":"Wolmar","name_en":"Valmiera","adm0_a3":"LVA"}}