{"type":"Feature","geometry":{"type":"Polygon","coordinates":[[[26.9851025730253,56.87823395373397],[26.983707309944407,56.87079254853728],[26.980761753252295,56.865624905564914],[26.953324130104477,56.846677123550364],[26.933369792681788,56.86558832114406],[26.90988463057124,56.873416708214506],[26.884833790147297,56.873416708214506],[26.88326811273322,56.88594212842645],[26.86134862803675,56.90003322515321],[26.837863465926205,56.90003322515321],[26.8002872070889,56.895336192910975],[26.726700365929105,56.890639160668684],[26.712609268303083,56.903164579981365],[26.679730041708012,56.88437645011305],[26.6734673320517,56.86715399855814],[26.620234297274976,56.832709093649726],[26.60927455537643,56.81861799692297],[26.577961005296117,56.804526899296945],[26.56073855374126,56.80922393153918],[26.535687714216635,56.80139554446879],[26.51220255210609,56.812355286367335],[26.516899584348323,56.824880706579336],[26.504374164136323,56.832709093649726],[26.473060614955386,56.854628578346194],[26.568177117979587,56.94841055040655],[26.60367882701621,56.95360403090126],[26.635201449687145,56.96499868404203],[26.691063674049303,56.9782020132123],[26.697419875426874,56.97347361891235],[26.703776075905182,56.97419708932421],[26.725996942305017,56.982620348250464],[26.734833612381294,56.988201402372795],[26.7576229177634,56.99295563419514],[26.78154910740534,56.99254222304512],[26.79581180197306,56.989131578359604],[26.86004560661945,56.983007920978764],[26.869812452682538,56.976264146872836],[26.878184034765354,56.97835704194392],[26.90257531060206,56.97796946921562],[26.911877068671743,56.97383535411825],[26.917148065330935,56.969339504714355],[26.914822625363854,56.9578673372078],[26.911101922315822,56.947712918416414],[26.911411980678338,56.93931549701256],[26.92396935380259,56.931719062184925],[26.953941684661004,56.92071198177251],[26.962468296374766,56.913270576575826],[26.971149936820098,56.890920518966766],[26.9851025730253,56.87823395373397]]]},"properties":{"adm1_code":"LVA-5790","name":"Lubanas","name_alt":"Wolmar","name_en":"Valmiera","adm0_a3":"LVA"}}