{"type":"Feature","geometry":{"type":"Polygon","coordinates":[[[26.594531291000067,55.66699086600006],[26.537480509000062,55.66952301000008],[26.481049846000133,55.67830800500006],[26.342350301000067,55.71634185800009],[26.279718466000134,55.743239441000085],[26.226905151551478,55.79693125427394],[26.25842096905245,55.80492364620926],[26.291510666683905,55.806578130776074],[26.349417636414785,55.80988710080902],[26.336181758081636,55.83966782750821],[26.27662030288468,55.88102994977231],[26.319636909715598,55.90750170733787],[26.303092060450183,55.91742861653739],[26.286547212084145,55.92404655570397],[26.291510666683905,55.940591404070005],[26.317982424249465,55.95051831326953],[26.33783624264845,55.96540867706875],[26.372580424846717,55.95382728330247],[26.392967022310188,55.97772523782942],[26.37655683662871,55.99774811438397],[26.365489128420506,56.02167389573367],[26.369639519448242,56.043768621424704],[26.357025587061173,56.05544668151913],[26.34839928459928,56.07318756705257],[26.345348341752526,56.09344981525675],[26.342609490635482,56.107893377877076],[26.340749138661806,56.13424835937428],[26.33656334762037,56.14944122992881],[26.32829511922438,56.1626703975208],[26.300803257064615,56.18334096941021],[26.33542646695787,56.189748846731845],[26.380850050789206,56.19690603288706],[26.41655846540084,56.183547674985164],[26.455367466335474,56.18044708956148],[26.484512973994526,56.167786362750405],[26.50750898585102,56.132336331456486],[26.54084028455145,56.13391246169073],[26.54394087087445,56.14210317572093],[26.556549919942825,56.15657257856162],[26.570657585778918,56.15396291775443],[26.576238640800625,56.14804596594854],[26.609621616344498,56.13220714024732],[26.62062869585759,56.1249466013046],[26.624814486899027,56.12112254546906],[26.647913853341663,56.13528188724928],[26.687342970101952,56.12551504208551],[26.700365431219666,56.11869375271448],[26.718503859365626,56.11125234571915],[26.748166130962147,56.11109731698758],[26.774727817135044,56.11507640245401],[26.807283970378933,56.127323717215745],[26.82325198728938,56.12951996507428],[26.836791213243885,56.12939077386511],[26.847643263126088,56.12396474937367],[26.872292922280508,56.12722036442824],[26.888467644765967,56.128874009927586],[26.890793083833728,56.10505117487179],[26.931100702435458,56.05869741505364],[26.968669468121448,56.06019603092204],[26.95192630395576,56.04102407490109],[26.95363162629849,56.03430613921694],[26.95828250533333,56.027123115539325],[26.969444613578048,56.013635566428206],[26.96773929213458,56.007847804932226],[26.9326509951473,56.00330027958421],[26.9435030450295,55.966790880194935],[26.94712039618929,55.96007294451073],[26.955647007003734,55.95028026002598],[26.944484897859752,55.94165029642403],[26.935596550940033,55.9321935087234],[26.954561802285355,55.927594306532],[26.94634524893405,55.911316230359716],[26.93781863811961,55.90387482426371],[26.93435631659071,55.89276439106379],[26.93420128785914,55.873902493405296],[26.97797122619113,55.864213161707994],[26.980606723621406,55.85535065410937],[26.981536899608216,55.84465363205942],[26.979986606896375,55.8389175483062],[26.97874637164773,55.827083644694426],[26.979056430909566,55.826721910387846],[26.979425814849435,55.82629096335722],[26.957816610000094,55.81858368000006],[26.900145711000107,55.778715312000045],[26.84278487200004,55.719339092],[26.822837769000103,55.70610992500009],[26.74304935700013,55.68285553],[26.72010502100008,55.68187367800003],[26.66687829600005,55.693965963000025],[26.64010990400007,55.69556793300005],[26.615615275000096,55.68797149700008],[26.594531291000067,55.66699086600006]],[[26.51841105512608,55.826555912625224],[26.532466108823826,55.832177934464085],[26.556359700739563,55.83779995630289],[26.58165879721571,55.84061096722235],[26.597119357272504,55.85326051546042],[26.601817253763215,55.873724676752374],[26.616709831693356,55.88117096526781],[26.6249292322982,55.888861395437004],[26.631927930929237,55.897406317347645],[26.61117441097025,55.903858709311976],[26.61679643280911,55.92353578484858],[26.61257991642998,55.94602387130459],[26.609768905510577,55.95867341954266],[26.594919269308832,55.962130279488804],[26.54110825823949,55.92708533342136],[26.471864215361222,55.933230279553754],[26.43791751418189,55.914618231546115],[26.449310742796513,55.90570709850374],[26.485769076881354,55.892889715188176],[26.48748993591181,55.868721074617895],[26.490300946831212,55.85326051546042],[26.504356000528958,55.84061096722235],[26.51841105512608,55.826555912625224]]]},"properties":{"adm1_code":"LVA-1081","name":"Daugavpils","name_alt":"Dünaburg|Dvinsk","name_en":"Daugavpils","adm0_a3":"LVA"}}