{"type":"Feature","geometry":{"type":"Polygon","coordinates":[[[25.551815984000143,57.949859510000024],[25.55211429800005,57.94881541000005],[25.552941122000078,57.94217498800005],[25.55831547000011,57.93424265600002],[25.579399455000072,57.919463195999995],[25.601516968000055,57.91220265800011],[25.62508142100006,57.91029063000009],[25.65009281400006,57.911427511000014],[25.703799772000053,57.921326524000065],[25.666077060707778,57.914373651522794],[25.660474006470224,57.892672743452295],[25.65734265074269,57.87858164672559],[25.65336801961837,57.86365149781835],[25.61350368224913,57.86605622651359],[25.582810907197597,57.88313385754145],[25.574129265852946,57.88083425599609],[25.565912713400962,57.879929918430946],[25.5566109562306,57.88003327121845],[25.546534050905734,57.876881008951386],[25.535010206555796,57.87440054025268],[25.522297803800598,57.86887116207447],[25.501213819861903,57.8682252060284],[25.469461354757698,57.87388461358404],[25.466329999030222,57.85979351685728],[25.51113569465656,57.840991726287086],[25.526018507747892,57.82995880835227],[25.542348259864298,57.82065705028259],[25.555370720981955,57.81605784809119],[25.560176628748422,57.80758291322081],[25.55506066261944,57.799573066343896],[25.552890252283305,57.792390041766964],[25.494512194282322,57.78933803052564],[25.45537025713162,57.78933803052564],[25.452238902303463,57.815954547464344],[25.41779399739505,57.815954547464344],[25.40683425549645,57.84726809664534],[25.381783415971825,57.88327867896783],[25.358298253861335,57.88171300155375],[25.336378769164867,57.90363248625022],[25.30036818684232,57.905198163664295],[25.270620315075462,57.913026550734685],[25.261226250590994,57.93807739025931],[25.27844870214585,57.953734165299466],[25.301933864256398,57.97095661685438],[25.326984703781022,57.991310424136714],[25.3410758014071,57.9850477144804],[25.345772833649335,57.96625958461209],[25.37082367317396,57.9693909394403],[25.403702900668293,57.97095661685438],[25.40683425549645,57.991310424136714],[25.41973136714802,58.008250005422155],[25.457184692000055,57.98405873600005],[25.49661381000007,57.97059702600008],[25.531960489000056,57.96643707300005],[25.541675659000106,57.96281972300007],[25.550253947000044,57.955326640000024],[25.551815984000143,57.949859510000024]]]},"properties":{"adm1_code":"LVA-5792","name":"Nauksenu","name_alt":"Wolmar","name_en":"Valmiera","adm0_a3":"LVA"}}