{"type":"Feature","geometry":{"type":"Polygon","coordinates":[[[25.456935934545697,57.537263956966],[25.452238902303463,57.51534447226953],[25.431885095021073,57.505950407785065],[25.395874512698583,57.50908176261322],[25.37708638372959,57.50908176261322],[25.372389350588037,57.52786989248153],[25.37865206114367,57.549789377178],[25.41153128773874,57.55605208683431],[25.43971348209152,57.55605208683431],[25.456935934545697,57.537263956966]]]},"properties":{"adm1_code":"LVA-1093","name":"Valmiera","name_alt":"Wolmar","name_en":"Valmiera","adm0_a3":"LVA"}}