{"type":"Feature","geometry":{"type":"Polygon","coordinates":[[[28.936086735914103,47.942164355900275],[28.95035648600006,47.93480133100009],[28.980845581000068,47.92637807200002],[29.017225790000055,47.93108062800009],[29.061047404000135,47.969760437999994],[29.092725057000052,47.98017323800012],[29.11003666200014,47.979656474000066],[29.12398929800014,47.975987447000065],[29.136288290000095,47.968184306000055],[29.147967163000146,47.95536855100006],[29.155821981000088,47.93986562100007],[29.164606974000094,47.90560414700006],[29.172565145000135,47.891005554000074],[29.186621134000063,47.88364166300009],[29.225998576000052,47.87558014000008],[29.23602380300008,47.870722555000086],[29.23276818800008,47.857079976000065],[29.21742028800014,47.84289479600001],[29.198920125000114,47.829484762000064],[29.186724487000077,47.81821930000011],[29.177732788000043,47.80070098900005],[29.177836141000085,47.78971974700006],[29.187447957000074,47.783208517000006],[29.221967814000095,47.77481109600002],[29.23473189300006,47.76680125000006],[29.2386076250001,47.756000875000026],[29.226670369000146,47.74323679600003],[29.196956421000067,47.71750193300004],[29.191478719000088,47.68626352900007],[29.192408895000142,47.65091685000006],[29.182073609000042,47.61321889300011],[29.1561837160001,47.58278147400004],[29.130500529000102,47.559630433000066],[29.117426391000066,47.53332712800001],[29.130397176000088,47.493200378],[29.130500529000102,47.493097026000086],[29.13060388200006,47.49304535000006],[29.130655558000058,47.492941997000045],[29.13718879172933,47.48400843214341],[29.137115919663927,47.48371694657982],[29.13603071494549,47.479376125907436],[29.126832309663314,47.46563019527724],[29.108287200893585,47.46936462018107],[29.107970412004875,47.46942841179174],[29.10383629690756,47.478239244345616],[29.09298137279211,47.487217383175675],[29.092777540551026,47.48738597278441],[29.048899092718955,47.50606638815327],[29.04859419106907,47.50619619449873],[29.033039585308586,47.51865021393621],[29.02673505987508,47.529476427195334],[29.02466800322577,47.53306793903414],[29.021257359439574,47.55025035277151],[29.020637240915903,47.57105011676947],[29.015676304417923,47.58205719718188],[28.992938674080506,47.60474314977654],[28.98647911991543,47.62226146119747],[28.9890112645582,47.62714488422898],[28.993507113962096,47.63892711009805],[28.995419141879893,47.650916043340715],[28.990251498907526,47.65639374377622],[28.987977735783886,47.66076040287027],[28.980277948168748,47.68742544183067],[28.975575392290523,47.7434426949244],[28.980277948168748,47.76561188448085],[29.017536654592902,47.82690013333445],[29.018105096273132,47.85353933387313],[28.98060023731108,47.875289077828654],[28.980277948168748,47.875475979432906],[28.94214074080253,47.88322744389137],[28.936197950574922,47.89149567318674],[28.929945102884176,47.894699612297245],[28.931081984445996,47.92567963350825],[28.936086735914103,47.942164355900275]]]},"properties":{"adm1_code":"MDA-1645","name":"Rezina","name_alt":"","name_en":"Rezina","adm0_a3":"MDA"}}