{"type":"Feature","geometry":{"type":"MultiPolygon","coordinates":[[[[50.130869988000086,-15.919366143999923],[50.10670006600009,-15.922539971999925],[50.05746504000007,-15.881036065999922],[50.03891035200007,-15.85947030999995],[50.03150475400008,-15.82976653399993],[50.02670332100007,-15.778497002999927],[50.02466881600009,-15.77117278399993],[50.012705925000034,-15.76653411299992],[49.99854576900003,-15.75562916499996],[49.98552493600005,-15.742445570999905],[49.976898634000065,-15.73137786299992],[49.97022545700008,-15.71803150799991],[49.96501712300005,-15.702243747999944],[49.96216881600009,-15.685479424999926],[49.96265709700003,-15.669366143999923],[49.96810957100007,-15.653008721999925],[49.974619988000086,-15.639743747999944],[49.97584069100009,-15.62664153399993],[49.96607506600009,-15.61142343499995],[49.959727410000085,-15.605645440999922],[49.95394941500007,-15.602634372999944],[49.94752037900008,-15.60133228999996],[49.93873131600009,-15.601006768999923],[49.93409264400003,-15.597914320999905],[49.90560957100007,-15.561618747999944],[49.903086785000085,-15.548760674999926],[49.908539259000065,-15.517836195999905],[49.90902754000007,-15.500258070999905],[49.901133660000085,-15.449639580999929],[49.90251712300005,-15.443617445999905],[49.90609785200007,-15.437758070999905],[49.90739993600005,-15.43092213299991],[49.901133660000085,-15.422295830999929],[49.89625084700003,-15.420668226999908],[49.877614780000044,-15.41887786299992],[49.85141035200007,-15.432061455999929],[49.81495201900003,-15.435967705999929],[49.750336134000065,-15.435967705999929],[49.717784050000034,-15.446709893999923],[49.69548587300005,-15.46648528399993],[49.63843834700003,-15.54461028399993],[49.639414910000085,-15.570489190999922],[49.66098066500007,-15.627699476999908],[49.662119988000086,-15.641778252999927],[49.66098066500007,-15.655694268999923],[49.65056399800005,-15.683038018999923],[49.64795983200008,-15.683038018999923],[49.65455162900008,-15.695489190999922],[49.66618899800005,-15.706231377999927],[49.67725670700008,-15.719333591999941],[49.68531334700003,-15.75286223799992],[49.69947350400008,-15.785739841999941],[49.70630944100009,-15.836195570999905],[49.71631920700008,-15.867364190999922],[49.731130405000044,-15.89421965899993],[49.73373457100007,-15.905694268999923],[49.730479363000086,-15.922539971999925],[49.72315514400003,-15.939385674999926],[49.69263756600009,-15.99146900799991],[49.683604363000086,-16.020277601999908],[49.68311608200008,-16.05364348799992],[49.689789259000065,-16.08684661299992],[49.70264733200008,-16.11500416499996],[49.72877037900008,-16.139418226999908],[49.793955925000034,-16.162041924999926],[49.82276451900003,-16.179864190999922],[49.845713738000086,-16.212090752999927],[49.84986412900008,-16.24081796699994],[49.82862389400003,-16.33440520599993],[49.826914910000085,-16.373304945999905],[49.832367384000065,-16.40797291499996],[49.850352410000085,-16.422946872999944],[49.86060631600009,-16.42937590899993],[49.86312910200007,-16.444512627999927],[49.85922285200007,-16.483086846999925],[49.85499108200008,-16.497491143999923],[49.85401451900003,-16.50514088299991],[49.85401451900003,-16.53964609199994],[49.84945722700007,-16.55242278399993],[49.79664147200003,-16.64104583099993],[49.76775149800005,-16.673435153999947],[49.72315514400003,-16.708103122999944],[49.724945509000065,-16.75400155999995],[49.73210696700005,-16.77507903399993],[49.74732506600009,-16.796807549999926],[49.768321160000085,-16.815606377999927],[49.78988691500007,-16.826429945999905],[49.81364993600005,-16.83017343499995],[49.84034264400003,-16.827569268999923],[49.81006920700008,-16.843926690999922],[49.778330925000034,-16.85556405999995],[49.719737175000034,-16.864027601999908],[49.69483483200008,-16.877129815999922],[49.644541863000086,-16.881524346999925],[49.62452233200008,-16.88567473799992],[49.608409050000034,-16.89657968499995],[49.595713738000086,-16.912041924999926],[49.52898196700005,-17.041680596999925],[49.482432488000086,-17.167575778999947],[49.43132571700005,-17.283868096999925],[49.42139733200008,-17.35515715899993],[49.42595462300005,-17.370212497999944],[49.45622806100005,-17.417168877999927],[49.47501372380058,-17.513685014152433],[49.330738007852744,-17.52713654181798],[49.29315547714356,-17.602301603236413],[49.29315547714356,-17.677466663755524],[49.16788037567875,-17.71504919446477],[49.017550253741206,-17.727576704701164],[48.87974764204,-17.752631725173956],[48.85469262156721,-17.66493915351913],[48.75447254057525,-17.61482911347281],[48.72941752010246,-17.56471907252717],[48.817110091757286,-17.502081521345133],[48.86988366020273,-17.374200127933534],[48.80458258152089,-17.30164135936127],[48.85469262156721,-17.188893768132914],[48.82963760199374,-17.02603613595892],[48.892275152276454,-16.87570601402132],[48.892275152276454,-16.78801344326581],[48.91683882005549,-16.67872323988564],[48.96603478377824,-16.670248305015264],[48.97316613061241,-16.667767835417294],[48.982054478431394,-16.663220310069278],[48.985775180580106,-16.658569431034437],[48.98608523894262,-16.65340178806207],[48.98391482860643,-16.64916432107657],[48.97440636586106,-16.63758879988319],[48.96913537010124,-16.628855482594474],[48.968050165382806,-16.622757663635298],[48.968205194114375,-16.615936375163585],[48.97161583790057,-16.606324557832068],[48.97647342340974,-16.59986500366699],[48.982467888682095,-16.593922213439384],[48.99197635322611,-16.586377454555873],[49.000192904778714,-16.577954196528935],[49.00437869582015,-16.57108123121384],[49.01476565860821,-16.54700001373965],[49.02747806226273,-16.526329440950917],[49.03249067560415,-16.51501230217599],[49.03507449709036,-16.505710545005627],[49.03435102667851,-16.492222995894565],[49.035281202665374,-16.483799736968308],[49.039311964975184,-16.47150074626245],[49.04442793200343,-16.466126396815753],[49.05047407411922,-16.463490898486157],[49.056675245865904,-16.463180841023018],[49.062411329619124,-16.462095636304582],[49.06799238464083,-16.460545342693422],[49.10742150230044,-16.441321709829026],[49.127575311151645,-16.426232192062002],[49.14292321133712,-16.403959648818727],[49.14576541524167,-16.39729338997796],[49.147109002378556,-16.392022392419506],[49.148245883940376,-16.380860284174787],[49.15289676297522,-16.36954314450054],[49.21232465985514,-16.264536635057652],[49.21697553888998,-16.253064466651836],[49.219145949226174,-16.243866062268978],[49.21821577323931,-16.238181654459765],[49.21666547962815,-16.232652276281556],[49.210464307881466,-16.21864796323291],[49.20999922078738,-16.213376966573776],[49.21092939587487,-16.201853123123158],[49.21061933841173,-16.19591033289555],[49.209534132793976,-16.19007089545545],[49.207363723357105,-16.185368340476543],[49.204056430559774,-16.181544284641006],[49.199870640417714,-16.178650404792336],[49.18932864799871,-16.17472299616935],[49.17785647959283,-16.172139173783876],[49.1382723332016,-16.17022714586608],[49.10726647266955,-16.165317885312163],[49.01383548442004,-16.123201592479518],[49.00980472211023,-16.120256035787406],[49.00623904779377,-16.116845392001267],[49.00453372635036,-16.11069589619865],[49.005773959800365,-16.102117607641503],[49.01972659690489,-16.070543308127185],[49.028718295712736,-16.035506687083966],[49.02902835497457,-16.033181248016206],[49.03900190571335,-16.00393238667033],[49.04613325434616,-15.989618015259225],[49.05202436683106,-15.981918226744767],[49.07667402508616,-15.956390068446922],[49.090781690922256,-15.937993258781887],[49.103855828883354,-15.913085219007655],[49.10633629668274,-15.904351901718883],[49.10711144393798,-15.897478935504466],[49.106026239219545,-15.885386651272938],[49.09408898282027,-15.828129163829828],[49.087526075867686,-15.807045179891134],[49.07899946505324,-15.787873223870179],[49.07341841003159,-15.779191582525527],[49.06101606563891,-15.763585299921658],[49.05853559783952,-15.759037773674322],[49.05698530512768,-15.753663425127002],[49.05636518660407,-15.747668958955273],[49.05636518660407,-15.741312757577703],[49.058225538577744,-15.729375502077744],[49.07062788297037,-15.68576059247738],[49.087526075867686,-15.563080742881994],[49.087526075867686,-15.556982923922817],[49.086750930411085,-15.551556898532056],[49.085045607169036,-15.546595961134699],[49.083030225564414,-15.541841729312353],[49.08101484575849,-15.535588880722287],[49.07992964104005,-15.528044121838775],[49.081479932852574,-15.515176689452687],[49.084270460813116,-15.50825204819347],[49.087526075867686,-15.502826022802708],[49.103855828883354,-15.488563328234989],[49.11455285003399,-15.475747571793022],[49.11920372906883,-15.46742766655359],[49.12137413940496,-15.460244642875978],[49.12075402178067,-15.455490411053631],[49.11842858271291,-15.45238982473063],[49.11455285003399,-15.45238982473063],[49.10509606323268,-15.455283704579301],[49.099825066573544,-15.455490411053631],[49.09517418843802,-15.45373341186746],[49.090781690922256,-15.451149591280625],[49.08659589988088,-15.448100680901689],[49.082100051376244,-15.446085300196444],[49.07667402508616,-15.445723564990544],[49.06644209192899,-15.448410740163524],[49.06039594891388,-15.44913420967606],[49.05388471880468,-15.448979180944434],[49.047993605420515,-15.44773894569579],[49.04272260876138,-15.445878594621433],[49.03807172972654,-15.443449801866848],[49.03404096921531,-15.440452569230672],[49.03088870604893,-15.436576836551751],[49.026082798282516,-15.427585137743904],[49.024532504671356,-15.422107435509758],[49.02344729995292,-15.416371351756482],[49.022207065603595,-15.403762301788788],[49.02050174326081,-15.398542982872357],[49.01554080586345,-15.38960296000863],[49.01368045388983,-15.383091729000114],[49.01368045388983,-15.374823499704746],[49.01631595221937,-15.361232598705499],[49.02019168489829,-15.354721367696982],[49.024842563933134,-15.350380547923976],[49.03631473233901,-15.347641696806875],[49.062101271256665,-15.344489433640433],[49.07341841003159,-15.341595553791763],[49.07915449378481,-15.340665377804953],[49.085200636799925,-15.340665377804953],[49.096569452418294,-15.342319024203618],[49.102770624164975,-15.342370701047003],[49.10866173664982,-15.341388849116072],[49.11408776204058,-15.339838555504912],[49.14230309371277,-15.32578256561294],[49.164058872119256,-15.319271335503743],[49.1736706885514,-15.314930514831417],[49.17816653795535,-15.31095143026431],[49.182662388258564,-15.305990491967634],[49.18839847201184,-15.298135674721607],[49.19289432141579,-15.293278090111755],[49.197545199551314,-15.289454034276275],[49.206433547370295,-15.284131361673019],[49.21139448386833,-15.282012628180269],[49.21666547962815,-15.280307305837482],[49.222556593911634,-15.279222100219727],[49.22891279528926,-15.278912041857268],[49.24178022587671,-15.280307305837482],[49.249376661603605,-15.279842217844077],[49.25810997889238,-15.277568454720438],[49.28570519383959,-15.260205172930398],[49.29640221499022,-15.256329441150797],[49.301828241280305,-15.253538914089631],[49.31097496881972,-15.243978773601498],[49.31516075986116,-15.240516452971917],[49.3201733741019,-15.238552748210793],[49.32559940039198,-15.237570896279863],[49.33133548414526,-15.238035984273267],[49.34776858904911,-15.242893568883119],[49.35381473206422,-15.243462008764709],[49.3606360214352,-15.241911716052869],[49.36823245626283,-15.236227309143032],[49.37262495287922,-15.23074960690883],[49.37572553920222,-15.22537525746219],[49.37944624225025,-15.215143324304961],[49.380221388606174,-15.209097182189225],[49.38053144696869,-15.202740980811598],[49.37975630061277,-15.196746514639926],[49.37820600790093,-15.191320489249165],[49.37572553920222,-15.186721287057765],[49.36993777860556,-15.178763116124912],[49.367767368269426,-15.174112237090071],[49.366992221913506,-15.1681177709184],[49.366992221913506,-15.160986423184909],[49.367767368269426,-15.152356458683641],[49.37086795369311,-15.147395522185604],[49.37541547994044,-15.144708347012624],[49.380996534962094,-15.144398288650109],[49.38611250199034,-15.145638522999434],[49.401460402175815,-15.15137460675271],[49.41355268730666,-15.153700045820472],[49.42657514842432,-15.154165133813876],[49.43375817210193,-15.152769870732982],[49.44026940311045,-15.14997934277244],[49.448640985193265,-15.144553318280998],[49.45267174660381,-15.139023940102732],[49.45546227366498,-15.133184502662687],[49.45778771273274,-15.114632664266026],[49.45716759600771,-15.101920260611564],[49.4562374200209,-15.096132500914166],[49.45468712730906,-15.091378269091877],[49.45189660024789,-15.084763686195174],[49.450966424261026,-15.080112807160333],[49.450966424261026,-15.073756605782762],[49.452516716972866,-15.066418551574884],[49.461198358317574,-15.044042656443423],[49.462748651029415,-15.038564955108598],[49.46414391500963,-15.026214287559355],[49.463523797385335,-15.013811944065992],[49.45716759600771,-14.991901136927936],[49.45685753764525,-14.985079847556904],[49.45701256727614,-14.977328383098381],[49.45949303597479,-14.9665280091603],[49.46305871029119,-14.961257012501108],[49.46801964678923,-14.959034926220852],[49.47267052582407,-14.960171807782729],[49.47716637612734,-14.96249724685049],[49.50016238798378,-14.978258559085248],[49.50326297430678,-14.979912204584593],[49.507603794079785,-14.981617526927323],[49.51318484910149,-14.983012790907594],[49.51923099121723,-14.983942965995084],[49.52543216296391,-14.984149671570094],[49.532098422703996,-14.981462498195754],[49.53860965371251,-14.975933119118167],[49.55617964107756,-14.951335137706451],[49.55990034412554,-14.948079521752504],[49.564241163898544,-14.945288994691339],[49.56904707166501,-14.943118585254524],[49.57850385936558,-14.940483086924928],[49.58594526636091,-14.94110320364996],[49.645993279965865,-14.992469577708846],[49.665888706398675,-15.015413913621217],[49.67457034684401,-15.030193373025725],[49.69689456603135,-15.060579115034159],[49.7087284687438,-15.072051282540656],[49.71818525644443,-15.077270603255727],[49.72361128093581,-15.075771986488007],[49.805208368271565,-15.04383595086847],[49.810014276037975,-15.041510511800709],[49.82045291477016,-15.040942071019742],[49.83549075659312,-15.04228565815663],[49.88453169068492,-15.051432386595366],[49.89569380072828,-15.051742445857201],[49.90096479738747,-15.049882093883525],[49.91584760868017,-15.041820571062487],[49.92189375169528,-15.039546807938848],[49.931247185709026,-15.038099867115193],[49.93698327036162,-15.039546807938848],[49.94209923738987,-15.041872247006609],[49.94597496916947,-15.044921155586849],[49.95295128817139,-15.0521041810631],[49.97186486177395,-15.089001153180675],[50.03826907675648,-15.172872002740746],[50.04105960471696,-15.178814792968353],[50.04173139828538,-15.184395847090684],[50.03981937036764,-15.188995050181404],[50.03656375531301,-15.192612399542611],[50.0325329930032,-15.19566130902217],[50.028192173230195,-15.198245130508383],[50.00245731025666,-15.2089938285024],[49.99625613761066,-15.212559502818806],[49.99284549292514,-15.215298353935907],[49.989228142664615,-15.218553968990477],[49.982871942186364,-15.226047051929925],[49.984577263629774,-15.234160251594346],[49.990778436275775,-15.245684095944284],[50.011604037796076,-15.269196872637565],[50.01982059114732,-15.281392510555918],[50.024316440551274,-15.291004326988116],[50.023541294195354,-15.296688734797272],[50.021680943121,-15.301701349038012],[50.0109839210711,-15.318806247510338],[50.00881351073491,-15.32366383212019],[50.0040076029685,-15.34696990323846],[50.00307742698163,-15.359268893944318],[50.00354251497504,-15.365315036959373],[50.004472690961904,-15.371102796656771],[50.00943362835926,-15.381179701082317],[50.0452453957584,-15.43425139658467],[50.049947950737305,-15.444224949122088],[50.05010298036825,-15.450374444025385],[50.049017774750496,-15.456058851834541],[50.047622511669545,-15.461484877225303],[50.02927737794863,-15.506081637857335],[50.02788211396836,-15.511662692878986],[50.02710696761244,-15.517708835894041],[50.02803714359925,-15.543030286818293],[50.027572055605845,-15.549076429833349],[50.01749515207956,-15.58767872519303],[50.01734012244867,-15.594138278458786],[50.018580356798,-15.601683038241617],[50.03485843297028,-15.639665215976947],[50.048035922819565,-15.679817804048412],[50.051653273080035,-15.710927015569325],[50.0552189473965,-15.726791680591589],[50.06064497278726,-15.740951023271123],[50.06607099817802,-15.75071786843489],[50.07521772571744,-15.763585299921658],[50.07893842966479,-15.77175017642952],[50.08079878073909,-15.779398288999857],[50.08312422070617,-15.797795098664892],[50.12208825127175,-15.914428806144485],[50.128547805436824,-15.919596449116852],[50.130869988000086,-15.919366143999923]]],[[[49.955821160000085,-16.77971770599993],[49.95948326900003,-16.76531340899993],[49.96119225400008,-16.749607028999947],[49.96461022200003,-16.73414478999996],[49.97315514400003,-16.72112395599993],[49.985362175000034,-16.71184661299992],[50.024099155000044,-16.69036223799992],[50.019867384000065,-16.71453215899993],[49.98373457100007,-16.786716403999947],[49.957367384000065,-16.864027601999908],[49.90845787900008,-16.966973565999922],[49.87281334700003,-17.013116143999923],[49.844493035000085,-17.072198174999926],[49.826182488000086,-17.094414971999925],[49.817393425000034,-17.067152601999908],[49.82252037900008,-17.041273695999905],[49.84652754000007,-16.991387627999927],[49.85084069100009,-16.977715752999927],[49.85303795700008,-16.964776299999926],[49.85401451900003,-16.93678150799991],[49.85726972700007,-16.91969166499996],[49.865570509000065,-16.90634530999995],[49.88819420700008,-16.881524346999925],[49.955821160000085,-16.77971770599993]]]]},"properties":{"adm1_code":"MDG-5863","name":"Analanjirofo","name_alt":"Tamatave","name_en":"Toamasina","adm0_a3":"MDG"}}