{"type":"Feature","geometry":{"type":"Polygon","coordinates":[[[46.551091749684474,-17.734059339966564],[46.56194380136532,-17.739485364458005],[46.575172967158665,-17.74289601004284],[46.590830925706655,-17.744756362016517],[46.623137977535634,-17.914233224783516],[46.710217636934374,-18.13422394298061],[46.84312869573267,-18.30838326177809],[46.944021029846624,-18.40170663895026],[46.97502688858003,-18.540948174918356],[46.992279493503816,-18.571140232635628],[47.026377800595014,-18.599541925419544],[47.03923587373657,-18.646335544549743],[47.07089277418214,-18.69044361807852],[47.111827018801876,-18.71135833162174],[47.130625847005206,-18.736667576047807],[46.925456058650184,-18.717250006182837],[46.76259842647619,-18.70472249594644],[46.66237834548423,-18.717250006182837],[46.56215826359295,-18.80494257783772],[46.51204822354663,-18.980327719348793],[46.411828142554725,-19.130657841286336],[46.261498020617125,-19.306042983696727],[46.161277938725846,-19.44384559539793],[45.985892797214774,-19.468900615870723],[45.80751956557549,-19.452197360919456],[45.808759799924815,-19.44744312909711],[45.81093021026095,-19.444910983555076],[45.81403079568463,-19.443102308424784],[45.82922366713848,-19.438244723814933],[45.833409458179915,-19.435454196753767],[45.83640669081609,-19.43132008165645],[45.83744021959046,-19.42315520604791],[45.836716750077926,-19.393699640026398],[45.84054080591346,-19.369153333659426],[45.83950727713909,-19.338664238863544],[45.838060337214756,-19.32915577611817],[45.83588992687862,-19.3200607236235],[45.82596805208391,-19.29236215588878],[45.8224023777675,-19.275670667667157],[45.81325565022803,-19.256757094064653],[45.811240268623465,-19.249987480637742],[45.81062015189849,-19.239238782643724],[45.80829471193141,-19.232055758966112],[45.80116336419786,-19.225957940006936],[45.7949621933505,-19.225337823281905],[45.789071079067014,-19.226164645581946],[45.77258629731972,-19.23107390703518],[45.76281945215595,-19.235414726808187],[45.749176874313264,-19.243114516221965],[45.74421593601659,-19.24512989692721],[45.73863488099494,-19.24606007291402],[45.733053826872606,-19.2453366016029],[45.728196242262754,-19.243114516221965],[45.72385542159043,-19.240220635473975],[45.71672407385688,-19.233295994214757],[45.706957227793794,-19.22182382580894],[45.686958448573534,-19.20585580799917],[45.68044721936366,-19.198311049115603],[45.67765669140317,-19.194073582130102],[45.668044874970974,-19.175831801196694],[45.65605594262763,-19.159605400968474],[45.645513950208624,-19.14896005576196],[45.64303348240924,-19.14337900163963],[45.64163821842902,-19.13604094743181],[45.64334353987243,-19.123431899262755],[45.645513950208624,-19.115835462636483],[45.65047488760598,-19.10482838312339],[45.6512500339619,-19.098885592895783],[45.65000979961252,-19.092322685943202],[45.64458377512108,-19.084829603903074],[45.63900272009943,-19.0811089008551],[45.61647179533708,-19.074029229065673],[45.61151085793972,-19.068499850887406],[45.60701500763645,-19.06028329753616],[45.60127892388323,-19.04276498791387],[45.59647301611676,-19.034600112305327],[45.592132196343755,-19.028657322077777],[45.573993768197795,-19.018115329658713],[45.569963005887985,-19.014911390548264],[45.56655236210179,-19.011087334712727],[45.56422692213471,-19.007056573302236],[45.546656934769715,-18.96163298857158],[45.538750440680246,-18.9485588515098],[45.53533979689411,-18.944941502148595],[45.53130903458424,-18.941840915825594],[45.52665815644872,-18.93925709344012],[45.510225050645545,-18.933831068948678],[45.50526411324819,-18.931505628981597],[45.50226687971269,-18.926079603590836],[45.50185346856267,-18.917708021507963],[45.50665937722846,-18.901171562917284],[45.51053510900806,-18.892541598416017],[45.51999189580931,-18.877503756593114],[45.52247236540734,-18.872852877558273],[45.52402265811918,-18.86639332429246],[45.52433271738096,-18.85828012462804],[45.51797651510407,-18.830116468899917],[45.51611616402971,-18.825052178715055],[45.510225050645545,-18.803503105883635],[45.505574171610704,-18.753893731010862],[45.50288699733704,-18.74273162186688],[45.49937299986402,-18.732499687810332],[45.498856235926496,-18.726660252168926],[45.50040652863834,-18.719993991529464],[45.50603925960411,-18.712087497440052],[45.515651076036306,-18.703715916256556],[45.523712598857344,-18.697669773241444],[45.54061079265392,-18.67906625710208],[45.543556349346034,-18.674932142904083],[45.551462844334765,-18.661444593792964],[45.55508019369597,-18.657775566689054],[45.55890425043077,-18.654519951634484],[45.57275353384847,-18.64713022148254],[45.57662926562807,-18.64387460642797],[45.57972985195107,-18.639843845017424],[45.58453575971754,-18.630490411003677],[45.587326287678025,-18.626356295906362],[45.59089196109511,-18.622738945645835],[45.59476769377403,-18.619431654647144],[45.61213097466475,-18.608269544603786],[45.616058384187056,-18.605013929549216],[45.61946902887257,-18.60144825613213],[45.62225955593374,-18.594006850036124],[45.628770786042935,-18.542330417614664],[45.61492150172592,-18.422131035818666],[45.614301385000886,-18.389419853843208],[45.61554162024953,-18.383528740458985],[45.6177120296864,-18.3784644511735],[45.62086429195347,-18.37438201291957],[45.632026401996825,-18.36342660845122],[45.63171634273499,-18.356140231986103],[45.62753055169355,-18.344668063580286],[45.59895348481547,-18.30213835959762],[45.591357049088515,-18.29423186550821],[45.574768914553715,-18.28772063629833],[45.58376061426094,-18.277540378185904],[45.587481317308914,-18.271080824020828],[45.590581902732595,-18.26317432993136],[45.595232781767436,-18.254234307966954],[45.6011238951516,-18.246586196295937],[45.61554162024953,-18.232685235135477],[45.62396487827647,-18.227517592163167],[45.634196812333016,-18.225553888301306],[45.648769566162514,-18.229274590450018],[45.66039676329996,-18.233615411122344],[45.67083540203214,-18.238834730938095],[45.67796674976569,-18.245345961047292],[45.68463301040509,-18.25030689844459],[45.69207441560178,-18.25030689844459],[45.69998090969119,-18.246792900971627],[45.709127639029305,-18.24379566743613],[45.72199506961675,-18.246327812978166],[45.7611141289139,-18.25852345089652],[45.77026085825196,-18.259453626883385],[45.808139683199784,-18.232065117511183],[45.81403079568463,-18.223280125177666],[45.81604617728925,-18.21366830784615],[45.81217044461033,-18.18111215550158],[45.81325565022803,-18.170363457507563],[45.816821322745795,-18.158219495533274],[45.82286746576091,-18.147729180857027],[45.848809035208774,-18.12003061312231],[45.85547529494886,-18.110728855052628],[45.860591261977106,-18.10147877382633],[45.86446699375671,-18.092125338913263],[45.86725752081793,-18.071919854117994],[45.88059004119742,-18.023033948757757],[45.88787641766254,-18.006239108647947],[45.8936641782592,-17.998125908983525],[45.92249962665642,-17.970375665304687],[45.92653038896623,-17.96184905359098],[45.929165887295824,-17.9425737438832],[45.931336296732695,-17.933116957081893],[45.947149285810895,-17.896891777633414],[45.94937137209115,-17.887900078825567],[45.94916466741546,-17.878805027230214],[45.94699425617995,-17.86020151109085],[45.94782107937931,-17.850744724289598],[45.95092166480299,-17.840512791132426],[45.955417515106205,-17.829454033876573],[45.9619287452154,-17.819687187813486],[45.96999026893576,-17.810643813061517],[45.98239261242912,-17.812865898442453],[45.99060916488105,-17.817361748745725],[46.00146121566257,-17.828007093952237],[46.00786909388353,-17.832968030450274],[46.01872114376573,-17.837412204809425],[46.05763349838719,-17.845008639637],[46.071327752174,-17.850279636296193],[46.08248986221736,-17.85575733763102],[46.09334191299888,-17.85942636473493],[46.10620934358633,-17.86020151109085],[46.12217736229542,-17.85694589603628],[46.14284793508409,-17.847850843541607],[46.150289341180155,-17.84733407960408],[46.156025424933375,-17.85575733763102],[46.156800571289295,-17.87508432418224],[46.16331180229781,-17.88144052466049],[46.175920851366186,-17.881905612653895],[46.19607466021739,-17.875549412175644],[46.20646162300545,-17.869761650679663],[46.21684858579357,-17.865162448488206],[46.22956098764945,-17.866557711569158],[46.24015465691184,-17.86640268283753],[46.24976647334404,-17.86195851027702],[46.2818575376952,-17.84345834692516],[46.295551792381275,-17.839169203096276],[46.31648074668908,-17.83632700009099],[46.34345584491126,-17.829454033876573],[46.35342939565004,-17.82537159562264],[46.36040571465196,-17.818912041457565],[46.36428144733088,-17.810540460274012],[46.37373823413219,-17.803099054178006],[46.38862104722352,-17.798448175143164],[46.41673302610826,-17.79581267681357],[46.433321160643004,-17.79240203212811],[46.44618859212977,-17.787802829936652],[46.455180291836996,-17.78330697963338],[46.46499881384415,-17.77989633584724],[46.48468753380263,-17.775555515174915],[46.493834263140684,-17.771266370446654],[46.51078413288138,-17.759897555727605],[46.529542677752374,-17.750027357776332],[46.54349531395752,-17.737159926289564],[46.551091749684474,-17.734059339966564]]]},"properties":{"adm1_code":"MDG-5871","name":"Bongolava","name_alt":"Tananarive","name_en":"Antananarivo","adm0_a3":"MDG"}}