{"type":"Feature","geometry":{"type":"Polygon","coordinates":[[[57.463877800000034,-20.161553643999923],[57.473643425000034,-20.15748463299991],[57.49073326900003,-20.140801690999922],[57.49382571700005,-20.12232838299991],[57.49925787884803,-20.123154589512694],[57.499542610503056,-20.13240785433902],[57.50583843679442,-20.139035040334875],[57.512796980696066,-20.13373329135834],[57.5194241657926,-20.1350587283776],[57.52207503983118,-20.148644458275157],[57.5124656218909,-20.15725979890061],[57.50981474785232,-20.166206499230555],[57.501530766031976,-20.17150824730777],[57.491258629582035,-20.16819465475953],[57.477672899684535,-20.165875139526065],[57.465406721642864,-20.167533440815646],[57.463877800000034,-20.161553643999923]]]},"properties":{"adm1_code":"MUS-5190","name":"Port Louis city","name_alt":"","name_en":"Port Louis","adm0_a3":"MUS"}}