{"type":"Feature","geometry":{"type":"Polygon","coordinates":[[[120.91464277400007,24.85342031500005],[120.91488691500001,24.85370514500005],[120.92058353000004,24.861395575000074],[120.92286217500009,24.874660549000055],[120.92603600400003,24.884711005000042],[120.93392988400001,24.894598700000074],[120.94402103000004,24.902044989000046],[120.95362389400009,24.90501536700009],[120.95281009200005,24.90924713700008],[120.95533287900003,24.91937897300005],[120.96387780000009,24.94041575700004],[120.97169030000009,24.95176829600007],[120.98380944155247,24.94793488198917],[121.03564090360476,24.9512680123089],[121.05321089096981,24.940519314314884],[121.0684037624236,24.91059866029991],[121.08742068881372,24.90385488529472],[121.10385379371758,24.89956574146578],[121.1194084012767,24.892821967359907],[121.14545332171338,24.88512217884545],[121.1590959013547,24.870781969012626],[121.1548067566265,24.850524807373915],[121.16793256963228,24.83770905183127],[121.19284061120516,24.830526028153656],[121.20870527622742,24.820061550100434],[121.22064253082806,24.809312852106416],[121.23516360871349,24.806832384307086],[121.24978803938643,24.807943427447185],[121.26270714681732,24.795825303894617],[121.27262902161203,24.7801156685033],[121.28916548110203,24.772674262407293],[121.30218794221969,24.763579209912564],[121.30353152935652,24.7462159290219],[121.30952599462887,24.72112702119506],[121.30239464689544,24.694384466969552],[121.28482466042965,24.671931057472307],[121.28699506986652,24.656893214750028],[121.30642540920519,24.64327647622838],[121.32998986184259,24.630434882264012],[121.3510738466806,24.627153428787665],[121.36637007002264,24.617205715571288],[121.39406863775741,24.602891344160184],[121.41225874184738,24.595449937164858],[121.40342207177116,24.572996528566932],[121.39830610564218,24.556589260286103],[121.40047651597843,24.541422227253975],[121.38621381961207,24.52129425682449],[121.33298709537814,24.472253322732627],[121.31645063678741,24.436002305761804],[121.30570193879339,24.438637804091343],[121.26549767477786,24.435201320984163],[121.26255211808575,24.433315131488087],[121.26012332623043,24.45018748596368],[121.242863397228,24.477214260129983],[121.23025434815963,24.48837637017334],[121.22524173391889,24.503672594414695],[121.2062248066295,24.517470200988953],[121.15842410688697,24.50643728305414],[121.14033735558439,24.508090929452806],[121.11444746298002,24.506566474263366],[121.08519860163415,24.499254259376528],[121.06964399587366,24.502690741584445],[121.07310631740256,24.520209052106054],[121.07780887328079,24.536332099546712],[121.07419152212105,24.549974677389457],[121.07047081907297,24.56002574339334],[121.07419152212105,24.570929470118926],[121.07718875475723,24.58278921215242],[121.07853234279332,24.596276760364162],[121.07553511015715,24.614466865353563],[121.06096235632765,24.626042384748246],[121.01466027155425,24.645886135236935],[120.99181928932865,24.66133738910918],[120.97714318181238,24.676762804559758],[120.96024498891506,24.715029202235883],[120.96970177571632,24.725519517811506],[120.97828006427346,24.745104884982425],[120.99140587817874,24.759987698073814],[121.01357506683587,24.768255927369125],[121.03326378769361,24.77127899842702],[121.04220381055734,24.775955714984264],[121.04592451360531,24.788668117739405],[121.03889651865939,24.80132884455054],[121.0241687360982,24.814558010343887],[121.00360151609709,24.824479885138544],[120.94624067586642,24.84101634372928],[120.91464277400007,24.85342031500005]]]},"properties":{"adm1_code":"TWN-1162","name":"Hsinchu","name_alt":"Xinzhu","name_en":"Hsinchu","adm0_a3":"TWN"}}