{"type":"Feature","geometry":{"type":"MultiPolygon","coordinates":[[[[120.116527217,23.317897404000064],[120.13117971100007,23.31881007800007],[120.14356530000009,23.323879299000055],[120.14893639400009,23.32225169500009],[120.14576256600003,23.333319403000075],[120.13734148200001,23.32773406000007],[120.130284437,23.329334817000074],[120.12094160200002,23.329738674000055],[120.12077884200005,23.34125397300005],[120.13014916000009,23.36096024400007],[120.14416428100003,23.36185437200004],[120.1645773890001,23.36171145600008],[120.15064537900003,23.398138739000046],[120.13477623800009,23.426255601000037],[120.14210045700008,23.43895091400009],[120.14210045700008,23.445786851000037],[120.13054446700005,23.450995184000078],[120.13209069100003,23.456976630000042],[120.13868248800009,23.46426015800006],[120.14210045700008,23.473089911000045],[120.15754360400001,23.491475715000036],[120.12502924700004,23.489611410000066],[120.12426153264357,23.520020549908452],[120.1278410178486,23.520218411550445],[120.1284094577303,23.520580145857025],[120.16851036985759,23.52471426005502],[120.20013634711472,23.508384507938672],[120.22308068212772,23.50817780236366],[120.23817020079412,23.51913320593269],[120.24457807811575,23.5362897812484],[120.2524328962611,23.546625068092396],[120.27269005700043,23.549518947941067],[120.29914839128514,23.569362698429757],[120.3160982610259,23.577630926825805],[120.33056766206789,23.590860094417792],[120.39257938043397,23.623726305124876],[120.41986453701873,23.63054759449585],[120.4678202663921,23.6388158228919],[120.49407189330316,23.640056057241225],[120.51412234936686,23.623933009800567],[120.53313927575687,23.603469143486166],[120.58109500513035,23.58734609604545],[120.59515099502232,23.589206448019127],[120.62677697227934,23.597474677314494],[120.64476036989515,23.585899156121116],[120.65385542238982,23.572049871804097],[120.67783328707651,23.574323634927794],[120.72248172365255,23.58259186512248],[120.73736453674394,23.587139391369817],[120.73736453674394,23.59912832281384],[120.73881147666827,23.616491603704503],[120.74067182774263,23.616310737450533],[120.76382287012927,23.614011135005853],[120.7894543803153,23.6049160834105],[120.80516401570674,23.600781969212505],[120.82480105972104,23.591066799093483],[120.8233541197967,23.572669990327768],[120.81198530507777,23.554686590913434],[120.81673953690006,23.537943426747745],[120.82686811726978,23.515205797309704],[120.82831505719412,23.494948634771674],[120.83244917229138,23.481512763403316],[120.86138797437548,23.47675853158097],[120.95874637304667,23.47613841395662],[120.96215701683286,23.47538910602242],[120.89177371638391,23.44244538005023],[120.85973432797675,23.41888092741283],[120.84609175013406,23.395109768301154],[120.82996870269346,23.377539780936104],[120.80082319503435,23.36245026316908],[120.77043745302603,23.341159572756055],[120.75348758418465,23.32255605751601],[120.7067720891605,23.29692454732998],[120.68444786997316,23.294857489781293],[120.65840294773784,23.29733795848],[120.64476036989515,23.284935614986637],[120.64414025317012,23.267779038771607],[120.64972130729245,23.251862697805223],[120.6534420112398,23.228659980373777],[120.62160932840777,23.232018948215853],[120.60755333941506,23.235946356838895],[120.58853641212568,23.233672593715198],[120.5680725440127,23.225197658844877],[120.55380984944497,23.225404365319207],[120.53665327412921,23.23760000323756],[120.53065880705822,23.253516344203888],[120.53727339085424,23.30312571907666],[120.53355268780626,23.329377345987723],[120.49593224527689,23.364724026292777],[120.48931766238013,23.38250071923278],[120.48146284423478,23.39717682495052],[120.46616661999349,23.40565175982084],[120.43888146430811,23.41391999001553],[120.40663537032606,23.412266344516183],[120.34875776615797,23.40234446882215],[120.31919884734884,23.390148830903797],[120.29584109938719,23.37423248993747],[120.27806440644713,23.357489324872404],[120.25284630741112,23.33950592725671],[120.23093550027306,23.327103582864027],[120.22142703662837,23.309740301973363],[120.19765587841596,23.30002513275366],[120.17016401625631,23.306433010075352],[120.13647098234992,23.31098053632269],[120.116527217,23.317897404000064]],[[120.45459109880017,23.4453392598989],[120.4804293145612,23.454847724442914],[120.49758589077624,23.45691478109228],[120.50895470639455,23.464562892763297],[120.49923953717484,23.488334051874972],[120.48993777910516,23.50218333619199],[120.47443484928885,23.509831447863007],[120.45314415887583,23.517272853959014],[120.42317182801742,23.514792385260364],[120.38782514861168,23.509211331137976],[120.3735624531447,23.494948634771674],[120.37686974504265,23.475311590757315],[120.4000207874293,23.466836655886937],[120.42668582638976,23.451127021394882],[120.45459109880017,23.4453392598989]]],[[[120.02186078900002,23.45164440700006],[120.07493184000009,23.50081817100005],[120.11525123000001,23.54791155500004],[120.12476993200005,23.550453797000046],[120.090300909,23.499395950000064],[120.07344997300004,23.483814315000075],[120.06227206400001,23.471279090000053],[120.04791202000001,23.458084713000062],[120.03659538500006,23.45080878100009],[120.01954186300009,23.438381252000056],[120.00765628500005,23.432593713000074],[120.02186078900002,23.45164440700006]]]]},"properties":{"adm1_code":"TWN-1170","name":"Chiayi","name_alt":"Jiayi|Chiai","name_en":"Chiayi","adm0_a3":"TWN"}}